id,name,street,city,state,zip
1,Susan King,2254 Evergreen,Indiantown,FL,34956
6,Mary Ramirez,2560 Seventh,Oilmont,MT,59466
11,Patricia Jackson,14035 Park,North Branford,CT,06471
16,David Jones,7178 Cedar,Talco,TX,75487
21,Charles Diaz,9703 Washington,Riddleton,TN,37151
26,Sarah James,1399 Pine,Eads,CO,81036
31,Joseph Price,2275 Cedar,Moorhead,MN,56563
36,John Johnson,1607 Pine,Truro,MA,02666
41,Barbara Robinson,1104 Eighth,Mount Tremper,NY,12457
46,Robert Ross,11393 View,Kew Gardens,NY,11415
51,Susan Myers,1080 Cedar,Forestdale,RI,02824
56,John Reed,12381 Elm,Suitland,MD,20746
61,Jessica Jones,2880 View,Vandalia,MO,63382
66,William Nelson,19816 Pine,Fresno,CA,93779
71,Karen Ruiz,10401 Pine,Silver Spring,MD,20901
76,Sarah Rogers,19793 Main,Salt Lake City,UT,84111
81,John Davis,12035 View,Greenway,AR,72430
86,James Stewart,16987 Pine,Friendship,TN,38034
91,Richard Stewart,16004 Elm,Columbia,MO,65202
96,Sarah Jones,1468 Ninth,Tarzan,TX,79783
101,Mary Gray,18484 Third,National City,CA,91951
106,Charles Nelson,13649 Park,Crow Agency,MT,59022
111,Thomas Gomez,16815 Ninth,Greenville,MS,38701
116,James Allen,15269 Oak,Columbus,OH,43221
121,Elizabeth Robinson,17566 Second,Peterson,MN,55962
126,Elizabeth Brown,19055 Main,Holton,MI,49425
131,Karen Ruiz,5847 Sixth,Las Vegas,NV,89117
136,James Watson,17652 Pine,Hebron,MD,21830
141,John Baker,6058 Fourth,Denver,CO,80266
146,Patricia Howard,233 Seventh,Wilkes Barre,PA,18769
151,Barbara Cruz,13086 View,Alton,NY,14413
156,Patricia Bennet,4048 Fourth,Tulsa,OK,74148
161,Jessica Miller,4917 Sixth,Peru,VT,05152
166,Michael Cruz,7945 Cedar,Syracuse,NY,13244
171,Jessica Murphy,15366 Cedar,Mahnomen,MN,56557
176,Patricia Gray,13101 Main,Morrice,MI,48857
181,William Hernandez,12385 Pine,Glen Mills,PA,19342
186,David Kelly,18881 View,Salisbury,NC,28147
191,John Clark,8425 Park,Thompson,UT,84540
196,David Gutierrez,12029 Cedar,Brooklyn,NY,11252
201,Susan Nguyen,8597 Oak,Indianapolis,IN,46221
206,James Ross,7265 Eighth,APO,CA,96326
211,Jessica Hill,15046 Sixth,Aurora,CO,80014
216,Richard Ortiz,17502 Park,North Java,NY,14113
221,Jessica Brooks,2102 Third,Oxford,NJ,07863
226,William Foster,13226 Washington,Port Aransas,TX,78373
231,Barbara Allen,6368 Lake,Shade,OH,45776
236,Michael Nguyen,19462 Lake,Chattaroy,WV,25667
241,Robert Martin,7384 Cedar,Taunton,MA,02780
246,William Stewart,1659 Fifth,Jackson,MS,39296
251,Thomas Wright,3493 Seventh,Beasley,TX,77417
256,William Long,10332 Lake,East Quogue,NY,11942
261,Karen Watson,11126 Elm,Montague,MI,49437
266,Robert Bennet,610 Ninth,Hamilton,IL,62341
271,David Sanders,16423 Sixth,Neville,OH,45156
276,Michael Chavez,4709 Fourth,Buffalo,NY,14221
281,Robert Hernandez,848 Park,El Paso,TX,88510
286,Susan Mitchell,9636 Washington,Holden,MO,64040
291,David Castillo,14101 Evergreen,Sacramento,CA,94263
296,Thomas Green,4407 First,Marysville,OH,43041
301,Charles Jones,8514 Oak,Breeden,WV,25666
306,Barbara Taylor,6083 Cedar,Nazareth,TX,79063
311,Linda Bailey,11474 Ninth,San Diego,CA,92137
316,John Robinson,15754 Fourth,Tucson,AZ,85726
321,Charles Ruiz,543 Pine,Dallas,TX,75372
326,Elizabeth Bennet,7386 Fourth,Chester,VT,05143
331,Karen Lopez,14150 View,Warsaw,KY,41095
336,Sarah Young,18452 View,Drummond,WI,54832
341,Jessica Phillips,7820 Sixth,Sycamore,PA,15364
346,John Peterson,8200 Cedar,Washington,DC,20252
351,Elizabeth Allen,535 Fourth,Columbia,TN,38402
356,David Lewis,6588 View,Hallsville,OH,45633
361,John Phillips,4405 Second,Ivanhoe,CA,93235
366,Patricia Miller,13364 Cedar,Alexandria,LA,71306
371,Barbara Sanders,3718 Sixth,Mechanicsville,VA,23111
376,David Patel,6194 Fifth,Akron,OH,44315
381,Patricia Ross,9142 Ninth,Florence,SC,29504
386,William Martinez,17974 Seventh,Dale,WI,54931
391,William Turner,2681 Maple,Clearwater,NE,68726
396,Robert Brooks,14413 Ninth,Wahoo,NE,68066
401,Barbara Jimenez,14678 Lake,Sacramento,CA,94294
406,Sarah Mitchell,2477 Pine,West Fulton,NY,12194
411,Thomas Gutierrez,2650 Cedar,Beverly Hills,CA,90211
416,Richard Hill,2466 Sixth,Finley,ND,58230
421,Thomas Ortiz,10937 Seventh,Hamden,NY,13782
426,Mary Parker,4790 First,Lenoir,NC,28633
431,Susan Walker,6481 Ninth,Lovingston,VA,22949
436,Sarah Campbell,18431 Oak,New Douglas,IL,62074
441,Thomas Morgan,16749 Maple,Whitelaw,WI,54247
446,Patricia Cox,16399 Pine,Morrison,OK,73061
451,Sarah Ramos,2992 Sixth,Arcadia,MI,49613
456,Joseph Morales,8582 Park,Philadelphia,PA,19109
461,Susan Harris,12562 Evergreen,South Grafton,MA,01560
466,Sarah Moore,17536 Cedar,Rison,AR,71665
471,Jennifer Howard,16696 First,New Virginia,IA,50210
476,John Scott,9275 Evergreen,Los Angeles,CA,90054
481,Patricia Gonzales,7584 Lake,Mantua,NJ,08051
486,Joseph Wright,15178 First,Grapevine,TX,76051
491,Sarah Rodriguez,2271 Ninth,Cherry,IL,61317
496,Patricia Hill,15681 Sixth,Gowen,OK,74545
501,Thomas Scott,4396 Fourth,Falls Church,VA,22041
506,Jennifer Rodriguez,19575 First,Wesco,MO,65586
511,John Morgan,15481 Oak,Chipley,FL,32428
516,Charles White,17083 Main,Colliers,WV,26035
521,William Mitchell,3680 Maple,Derry,NH,03038
526,James Scott,17766 Seventh,Providence,UT,84332
531,Charles Gonzales,13341 Third,Elliott,IA,51532
536,Michael Sanders,542 View,Conasauga,TN,37316
541,Robert White,16952 Seventh,Washington,DC,20554
546,William Roberts,6949 Fourth,Hope,AR,71802
551,David Morris,2780 Maple,North Billerica,MA,01862
556,Mary Foster,14854 Washington,FPO,NY,09586
561,Linda Ward,17295 Washington,Vanceboro,ME,04491
566,Patricia Johnson,10853 Eighth,Marble Hill,GA,30148
571,Barbara Anderson,8977 Elm,Readfield,ME,04355
576,Michael Lopez,8559 Lake,Whippany,NJ,07999
581,James Cooper,7510 Sixth,Buzzards Bay,MA,02532
586,William Torres,13685 First,Chattanooga,TN,37419
591,Patricia Collins,676 View,Philadelphia,PA,19179
596,Thomas Parker,18342 Fifth,Kirkersville,OH,43033
601,Robert Anderson,10357 Oak,Pahokee,FL,33476
606,Elizabeth Flores,6859 Cedar,Roundhill,KY,42275
611,John Morris,8521 Second,Kings Bay,GA,31547
616,Thomas Gutierrez,15388 Cedar,McNeil,TX,78651
621,John Perez,17717 Sixth,Houston,TX,77046
626,Mary Scott,5885 View,Langley,OK,74350
631,David Castillo,5938 Ninth,Foreston,MN,56330
636,Mary Rodriguez,2955 Eighth,Helmville,MT,59843
641,Thomas Clark,1937 Fourth,Salt Lake City,UT,84147
646,John Williams,14035 View,Van Horne,IA,52346
651,William Jones,19228 Fourth,El Paso,TX,88569
656,Mary Ramirez,4839 Eighth,Middletown,IA,52638
661,Joseph Mendoza,19089 Third,Saint Cloud,MN,56397
666,Joseph Parker,5448 Washington,Florence,SD,57235
671,Patricia Robinson,4077 Fifth,Rawson,OH,45881
676,Mary Wood,10062 Ninth,Norfolk,VA,23502
681,James Thomas,10693 Eighth,Letts,IA,52754
686,Susan Thompson,10449 Sixth,Saluda,NC,28773
691,Charles Morris,17878 Seventh,Greenville,SC,29605
696,James Morgan,13334 Seventh,Marshall,OK,73056
701,James Kim,4562 Ninth,Lansing,NY,14882
706,Elizabeth King,11172 Seventh,Stamford,CT,06927
711,Susan Mitchell,897 First,Tupelo,OK,74572
716,Mary Nelson,19711 Third,Humble,TX,77338
721,Barbara Ramirez,16182 Eighth,Scammon,KS,66773
726,Linda Morgan,15825 Evergreen,Wetmore,MI,49895
731,Richard Carter,12912 Ninth,Franklin,WV,26807
736,Karen Sanchez,12237 Maple,Goehner,NE,68364
741,Barbara Alvarez,7452 View,Aydlett,NC,27916
746,Sarah Garcia,1047 Sixth,Scooba,MS,39358
751,Elizabeth Brown,11550 Hill,Tripoli,IA,50676
756,Thomas Stewart,12781 Sixth,Springville,CA,93265
761,Michael Brown,10378 Washington,Fort Hood,TX,76544
766,Jennifer Thomas,9212 Main,Neptune Beach,FL,32266
771,Karen Collins,9163 Evergreen,Raleigh,NC,27698
776,David Collins,10185 Hill,Jacksonville,FL,32218
781,Susan Thomas,5065 Maple,Boston,MA,02206
786,John Perez,10793 Pine,Adolphus,KY,42120
791,Charles Evans,6551 Eighth,Cando,ND,58324
796,Sarah Hall,10233 Second,Minden,WV,25879
801,Linda Gomez,4792 Pine,Kaufman,TX,75142
806,Charles Jones,4488 Maple,Hallsville,OH,45633
811,Elizabeth Nelson,18613 Seventh,Enfield Center,NH,03749
816,John Baker,19876 Oak,Las Vegas,NV,89159
821,James Reed,5446 Ninth,Henryetta,OK,74437
826,Charles Bennet,3417 Sixth,Dora,MO,65637
831,William Morales,14197 Cedar,Trenton,NJ,08618
836,Michael White,10971 First,Salida,CO,81201
841,Karen Gomez,16707 View,Springfield,MA,01108
846,William Gonzales,19182 Pine,Newcastle,UT,84756
851,Jennifer Ruiz,1996 Evergreen,Denton,MD,21629
856,Patricia Walker,5437 Eighth,Cokato,MN,55321
861,Linda Bennet,7692 Evergreen,Lake Charles,LA,70612
866,John Hernandez,9408 Park,Mullens,WV,25882
871,Linda Castillo,14870 Hill,Madison,NE,68748
876,Elizabeth Myers,19794 Oak,East Alton,IL,62024
881,James Thompson,14007 Fourth,Portville,NY,14770
886,Patricia Brooks,16709 Ninth,Cabot,AR,72023
891,Barbara Edwards,12521 Maple,Elizabeth,IN,47117
896,Michael Baker,1604 First,Minneapolis,MN,55467
901,Mary Long,5631 View,Egg Harbor,WI,54209
906,Richard Garcia,19840 Hill,Majestic,KY,41547
911,Sarah Gutierrez,14622 Fifth,Vienna,NJ,07880
916,Joseph Robinson,1831 Washington,Henry,VA,24102
921,Robert Gonzales,12814 Fourth,Manheim,PA,17545
926,Jennifer Patel,8943 Elm,Emerald Isle,NC,28594
931,Elizabeth Rogers,9998 Fourth,Howells,NY,10932
936,Karen Mitchell,16155 Washington,Minneapolis,MN,55411
941,William Wright,9826 Cedar,Greenwood,MO,64034
946,Michael Lopez,11632 Pine,Charlevoix,MI,49720
951,Susan Ramos,10265 Evergreen,Helena,MT,59604
956,Michael Evans,14742 Evergreen,Decorah,IA,52101
961,Barbara Evans,8578 Main,White House,TN,37188
966,John Carter,1128 Elm,Amistad,NM,88410
971,Karen Brown,15727 Third,Blenker,WI,54415
976,Linda White,10094 Evergreen,Eggleston,VA,24086
981,John Collins,3974 Pine,Dallas,TX,75287
986,David Ramirez,19094 Washington,San Francisco,CA,94119
991,Jessica Davis,698 First,Portsmouth,VA,23705
996,Richard Jackson,12956 Main,Jasper,TN,37347
1001,Susan Phillips,17372 Fifth,La Valle,WI,53941
1006,David Stewart,18181 Ninth,Berwick,ME,03901
1011,Michael Ward,4347 Pine,Cochecton,NY,12727
1016,Mary Johnson,166 Cedar,Richmond,VA,23282
1021,Patricia Mendoza,16037 Cedar,San Manuel,AZ,85631
1026,Michael Phillips,16150 Ninth,Farmington,WV,26571
1031,Jessica Cox,4014 Park,Fayetteville,NC,28309
1036,Elizabeth King,13019 Washington,Troy,MI,48083
1041,Robert Jimenez,8807 View,Boise,ID,83722
1046,Elizabeth Martin,12023 Eighth,Camarillo,CA,93011
1051,David Thompson,11250 Hill,Broadview,NM,88112
1056,William Brooks,467 Fourth,Rileyville,VA,22650
1061,Karen Bennet,1571 Eighth,Grambling,LA,71245
1066,Elizabeth Patel,9324 Main,Peshtigo,WI,54157
1071,Patricia Cook,5841 Cedar,Fowlstown,GA,39852
1076,Michael Perez,12779 Third,Forestdale,RI,02824
1081,Joseph Myers,8364 Oak,Rock,MI,49880
1086,Sarah Brooks,14349 Pine,Broad Run,VA,20137
1091,Barbara Garcia,18086 Park,Andes,NY,13731
1096,Sarah Lee,9789 Fourth,Folsom,CA,95763
1101,Patricia Morgan,2185 Ninth,Silver Spring,MD,20993
1106,Jennifer Gomez,6341 Ninth,Santa Fe,NM,87508
1111,Barbara Sanchez,2331 Elm,Springfield,MA,01152
1116,Susan Jones,12991 Lake,Saint Francis,SD,57572
1121,Michael Hughes,12039 Fifth,New York,NY,10008
1126,Sarah Jackson,15701 Main,Kendall,NY,14476
1131,Michael Jackson,15278 Park,Quincy,IN,47456
1136,Karen Harris,8219 Pine,Fillmore,CA,93016
1141,Karen Young,13853 Lake,Franklin,PA,16323
1146,Sarah Watson,16087 View,Flora,MS,39071
1151,David Adams,16386 Pine,Otis,MA,01253
1156,Karen Ward,13062 Second,Utica,NY,13505
1161,Michael Reed,12333 Cedar,Sandborn,IN,47578
1166,David Reyes,11362 Washington,Dorsey,IL,62021
1171,Patricia Hall,14982 Ninth,Balko,OK,73931
1176,Richard Jimenez,16609 Cedar,Avant,OK,74001
1181,Karen Bennet,4977 Cedar,Dewey,OK,74029
1186,Karen Turner,116 Oak,Norfolk,MA,02056
1191,John Kim,17436 View,Linwood,NC,27299
1196,Michael Morales,17341 First,Newman Grove,NE,68758
1201,Elizabeth Rodriguez,14215 Maple,Odessa,MO,64076
1206,David Flores,6561 Cedar,Vergas,MN,56587
1211,Mary Murphy,2912 Evergreen,Land O Lakes,FL,34638
1216,Linda Chavez,14195 Pine,Tonawanda,NY,14150
1221,Jennifer Anderson,11205 Sixth,Bloomington,IL,61709
1226,Charles Robinson,11064 Washington,Washington,DC,20439
1231,Jessica Ross,18567 First,Kirkland,IL,60146
1236,Sarah Hernandez,10537 Lake,Preston,ID,83263
1241,Jennifer Garcia,3047 Evergreen,Debary,FL,32753
1246,Susan Bailey,11711 First,Trout Creek,NY,13847
1251,John Wood,13685 Ninth,Hamilton,OH,45013
1256,Jennifer Perez,5989 Eighth,Orlando,FL,32821
1261,Sarah Foster,4838 Washington,Lakeland,FL,33803
1266,Charles Baker,7460 Fifth,West Salem,WI,54669
1271,David Ramos,11780 Fourth,Stamford,VT,05352
1276,Susan Hall,19711 Main,Maysville,GA,30558
1281,James Parker,109 Elm,Parkersburg,IL,62452
1286,Richard Brooks,17785 Cedar,Morristown,AZ,85342
1291,Patricia Sanchez,9967 Cedar,Knox,PA,16232
1296,Robert Myers,12037 Maple,Eddyville,KY,42038
1301,Susan Campbell,10462 Lake,Eighty Four,PA,15330
1306,David Carter,9998 Second,New Port Richey,FL,34655
1311,Barbara Hernandez,8078 Maple,Natrona Heights,PA,15065
1316,Sarah Johnson,1240 Main,Hiland,WY,82638
1321,Thomas Wood,13001 Third,Cuero,TX,77954
1326,Thomas Cox,8037 Ninth,Saint Petersburg,FL,33708
1331,Susan Adams,693 Third,Las Vegas,NV,89154
1336,John Ramirez,7475 Maple,Knights Landing,CA,95645
1341,Karen Brown,9885 Lake,Houston,TX,77288
1346,John Williams,613 Oak,Cornville,AZ,86325
1351,Thomas Robinson,11771 Elm,Warminster,PA,18991
1356,Richard Reyes,15833 Cedar,Winnisquam,NH,03289
1361,Charles Morales,5520 Oak,Fall River Mills,CA,96028
1366,Jessica Hall,13301 Hill,McAllister,MT,59740
1371,Michael Davis,19711 Third,Locust Valley,NY,11560
1376,Robert Reed,624 View,Wheatcroft,KY,42463
1381,Karen Sanders,11177 Eighth,Staffordsville,VA,24167
1386,Mary Torres,17620 Sixth,Edgerton,WY,82635
1391,Michael Lee,16549 Sixth,Jackson,MO,63755
1396,Michael Edwards,19282 Park,Myrtle Beach,SC,29579
1401,John Ortiz,10892 Second,Canton,MI,48188
1406,Karen Ramirez,15209 Second,Marina del Rey,CA,90292
1411,Susan Lopez,12071 Hill,Baldwin City,KS,66006
1416,Karen Mitchell,5665 Fifth,Rydal,GA,30171
1421,William Sanchez,3986 First,Worthington,KY,41183
1426,William Turner,3258 Hill,Patriot,OH,45658
1431,Joseph Edwards,17838 Elm,Stamford,NY,12167
1436,James Rivera,6568 Fifth,Stoughton,WI,53589
1441,Jessica Williams,18154 Maple,APO,NY,09633
1446,Michael Adams,19115 Main,Una,SC,29378
1451,Mary Jimenez,12773 Third,Granville Summit,PA,16926
1456,Robert Morales,7468 View,Twin Bridges,MT,59754
1461,Jessica Sanchez,7786 Sixth,Seatonville,IL,61359
1466,Linda Cox,13251 Hill,Unity,IL,62993
1471,Karen Bennet,10127 Second,Pocola,OK,74902
1476,John Edwards,14547 Washington,Oklahoma City,OK,73144
1481,Linda Anderson,9788 Evergreen,Welcome,MN,56181
1486,Sarah Howard,9627 View,Mayhew,MS,39753
1491,Karen Brooks,2898 Oak,Wolfe City,TX,75496
1496,Jennifer Walker,3325 Main,Bethel Springs,TN,38315
1501,Mary Murphy,13799 Seventh,Jeffersonville,IN,47144
1506,James Chavez,2204 First,Atlanta,GA,31193
1511,Barbara Collins,13553 Main,Flowood,MS,39232
1516,Mary Nelson,8239 Second,McDonald,NM,88262
1521,Charles Edwards,2214 Eighth,Poland,ME,04274
1526,Joseph Clark,16522 Sixth,West Nottingham,NH,03291
1531,Susan Parker,8851 Hill,Steinhatchee,FL,32359
1536,Jessica Brown,4913 Main,Seward,IL,61077
1541,Robert Flores,10273 Cedar,Proctor,WV,26055
1546,Patricia Ramos,18728 Second,Lexington,SC,29073
1551,Michael Brown,12629 Eighth,Greenwood,DE,19950
1556,Jessica Moore,4179 Washington,Salem,MA,01971
1561,Sarah Smith,6533 Ninth,Quecreek,PA,15555
1566,Susan Baker,1745 View,Sacramento,CA,94299
1571,Thomas Miller,1648 Washington,Caguas,PR,00725
1576,David Moore,2130 Ninth,Knoxville,TN,37901
1581,Joseph Price,15337 Pine,Wedron,IL,60557
1586,John Flores,18955 Seventh,Eau Claire,MI,49111
1591,Sarah Brown,11828 Ninth,Garden Grove,CA,92846
1596,John Turner,16272 Maple,Satsuma,FL,32189
1601,Robert Young,17999 Seventh,Minneapolis,MN,55422
1606,Robert Kelly,8472 Fifth,McDermitt,NV,89421
1611,David Perez,1007 Fourth,Roachdale,IN,46172
1616,Charles Ortiz,19311 Elm,South Montrose,PA,18843
1621,Karen Price,6374 Park,Storden,MN,56174
1626,Jessica Reed,14891 Eighth,Underwood,ND,58576
1631,Sarah Davis,8636 Third,Groveport,OH,43125
1636,James Harris,5255 Sixth,Kingsville,TX,78364
1641,James Turner,11006 Cedar,Port Matilda,PA,16870
1646,Susan Thomas,18056 First,Florence,AL,35633
1651,Mary Reed,19189 Third,Chester,TX,75936
1656,Thomas Ward,7576 Washington,Riceville,IA,50466
1661,Jennifer Rivera,10534 Fourth,Huntington,WV,25701
1666,Richard Patel,11062 Fourth,Lexington,KY,40598
1671,Joseph Ruiz,10558 Second,Jasper,MN,56144
1676,Jessica Taylor,3325 Third,Skippers,VA,23879
1681,Thomas Ramos,9514 View,Blair,SC,29015
1686,Richard Clark,9489 Fifth,Lehigh,KS,67073
1691,James Anderson,1031 Third,Wakefield,MI,49968
1696,David Miller,8380 Park,Louisville,KY,40291
1701,Elizabeth Ortiz,481 Fifth,Brookline Village,MA,02447
1706,John Flores,13125 Fifth,Schuyler,NE,68661
1711,Elizabeth Wilson,13220 Pine,Enderlin,ND,58027
1716,David Rogers,16611 Fifth,Whittier,CA,90604
1721,Patricia Phillips,15339 Third,Rocky Hill,NJ,08553
1726,Sarah James,9101 Fifth,Osceola,MO,64776
1731,Jessica Martin,5746 Evergreen,Sorrento,ME,04677
1736,Linda Collins,15344 Washington,New Preston Marble Dale,CT,06777
1741,Robert James,8249 Eighth,Lusby,MD,20657
1746,Sarah Howard,18981 Cedar,Central City,KY,42330
1751,Thomas Ramos,6651 Lake,Winburne,PA,16879
1756,James Lopez,19094 Evergreen,San Simeon,CA,93452
1761,Richard Adams,12419 Main,East Waterboro,ME,04030
1766,Linda Sanchez,3123 Third,Moberly,MO,65270
1771,Linda Edwards,11902 View,Akeley,MN,56433
1776,William Reed,13566 Cedar,King Ferry,NY,13081
1781,Mary Carter,6987 Lake,Stidham,OK,74461
1786,Jennifer Mendoza,8744 First,Vacaville,CA,95696
1791,Joseph Phillips,6841 Lake,APO,CA,96214
1796,Barbara Roberts,13977 Evergreen,Glen,NH,03838
1801,Joseph Foster,19892 Seventh,Grand Bay,AL,36541
1806,Joseph Gutierrez,16771 Washington,Oglala,SD,57764
1811,David Reed,12706 Maple,Sacramento,CA,94299
1816,Mary White,19037 Park,Tulsa,OK,74116
1821,Karen Jackson,8601 Elm,Orson,PA,18449
1826,Karen Thompson,9470 Evergreen,White,PA,15490
1831,Charles Watson,7933 Hill,Union Hill,NY,14563
1836,William Turner,17879 Washington,Mesa,AZ,85274
1841,Patricia Johnson,10264 Evergreen,Pillsbury,ND,58065
1846,Karen Roberts,11722 Main,Ava,NY,13303
1851,Charles Jackson,10702 First,Oklahoma City,OK,73122
1856,Patricia Adams,17588 Seventh,Holloway,OH,43985
1861,Thomas Lewis,11443 View,Westbrook,MN,56183
1866,Susan Gomez,3736 Pine,Bozrah,CT,06334
1871,Elizabeth Garcia,2319 Seventh,Nashville,IL,62263
1876,Charles Patel,12592 Main,FPO,NY,09564
1881,Patricia Rogers,19717 Fifth,San Elizario,TX,79849
1886,Karen Scott,18089 Park,Springfield,OH,45503
1891,Linda Wilson,16976 Park,Thomasville,AL,36784
1896,Susan James,8411 Main,Cimarron,CO,81220
1901,Jennifer Diaz,14665 Third,Bodega,CA,94922
1906,John Alvarez,12557 First,North Wilkesboro,NC,28659
1911,Charles Perez,11360 Lake,Monroe Township,NJ,08831
1916,Charles Miller,17872 Seventh,Welch,WV,24801
1921,Richard Perez,1804 Main,Carville,LA,70721
1926,Jessica Murphy,11297 Main,Alhambra,CA,91801
1931,Sarah Hughes,15153 Lake,Columbia,SC,29201
1936,Joseph Campbell,8289 Third,Medway,ME,04460
1941,Mary Bailey,364 Sixth,Lackawaxen,PA,18435
1946,Susan Gutierrez,15390 Hill,APO,NY,09068
1951,William Peterson,5045 Maple,Tucson,AZ,85741
1956,Michael Edwards,6034 Elm,Vernon Rockville,CT,06066
1961,Elizabeth Williams,4441 Second,Safety Harbor,FL,34695
1966,John James,13211 Elm,Paloma,IL,62359
1971,Mary Patel,13046 Washington,Frierson,LA,71027
1976,Patricia Wood,4419 Pine,Farnam,NE,69029
1981,Barbara Hernandez,6847 Park,Tabiona,UT,84072
1986,Barbara Wood,441 Fifth,McConnelsville,OH,43756
1991,James Gomez,3475 Washington,West Simsbury,CT,06092
1996,Jessica Sanders,18587 Second,Barbeau,MI,49710
2001,Jessica Wright,3281 Fifth,Shreveport,LA,71129
2006,Michael Patel,13608 Fourth,Stamford,CT,06927
2011,David Long,5343 View,Washington,DC,20254
2016,William Rivera,7877 Sixth,Mechanicsville,IA,52306
2021,Joseph Martinez,9826 Fifth,Garden Prairie,IL,61038
2026,David Lee,18921 Main,Deal,NJ,07723
2031,William Castillo,12252 View,Wayland,MO,63472
2036,William Evans,724 Pine,Denver,CO,80271
2041,Michael Gonzales,17900 Maple,Hampstead,MD,21074
2046,Joseph Carter,18758 Elm,Freeport,ME,04032
2051,Linda Gonzales,15888 Sixth,Dixon,IL,61021
2056,William Roberts,7691 Eighth,Cromwell,KY,42333
2061,Michael Gutierrez,5925 Hill,Saunderstown,RI,02874
2066,James Morales,5420 Maple,Kansas City,KS,66117
2071,Jessica Howard,325 Seventh,Summit Station,PA,17979
2076,James Clark,4592 Sixth,Burnt Ranch,CA,95527
2081,David Ortiz,9094 Evergreen,Griffith,IN,46319
2086,Charles Morales,1515 Eighth,Pilot Mountain,NC,27041
2091,James Flores,3188 Park,New Bedford,IL,61346
2096,Barbara Rivera,3854 Elm,Sierra Blanca,TX,79851
2101,Susan Ortiz,19961 Pine,Easthampton,MA,01027
2106,Karen Edwards,5122 Main,Parker,AZ,85344
2111,Jennifer Allen,4268 Second,Tunica,LA,70782
2116,Thomas Sanders,6181 Maple,Loiza,PR,00772
2121,Elizabeth Rodriguez,750 Ninth,Easton,PA,18044
2126,Elizabeth Flores,11853 Fourth,El Paso,TX,88584
2131,James Baker,12228 Ninth,Timewell,IL,62375
2136,John Jackson,2008 Cedar,Petersburg,IL,62675
2141,Elizabeth Parker,10191 Evergreen,Grantsdale,MT,59835
2146,Jennifer Price,13236 Oak,Cincinnati,OH,45206
2151,John Parker,6313 Sixth,Williamston,SC,29697
2156,Karen Myers,18115 Ninth,Austin,TX,78752
2161,Sarah Ross,11140 Elm,Long Beach,CA,90808
2166,Robert Smith,4408 Oak,Vancleve,KY,41385
2171,Barbara Ward,5018 Maple,Alta,IA,51002
2176,Patricia Hall,18216 Second,Gibson,PA,18820
2181,Michael Bailey,3618 Main,Gordon,WI,54838
2186,Thomas Parker,19919 Pine,Federalsburg,MD,21632
2191,Sarah Perez,1777 Third,Stilwell,OK,74960
2196,Robert Foster,16237 Main,Truman,MN,56088
2201,Mary Wood,19196 Evergreen,Searcy,AR,72143
2206,Jessica Sanders,10826 Pine,Ravenel,SC,29470
2211,David Ward,19279 First,Hookstown,PA,15050
2216,Susan Parker,12013 Seventh,Dunnellon,FL,34431
2221,Linda Stewart,15404 Oak,Kittrell,NC,27544
2226,Michael White,446 Lake,Ellsworth,PA,15331
2231,Jennifer Jones,9433 Evergreen,Garden City,NY,11531
2236,Karen Robinson,6647 Maple,Oklahoma City,OK,73112
2241,Robert Edwards,11319 Main,Orwell,OH,44076
2246,Joseph Smith,10378 Evergreen,APO,CA,96386
2251,Patricia Green,10051 Cedar,Bretton Woods,NH,03575
2256,Jennifer King,11714 Main,Mackeyville,PA,17750
2261,Elizabeth Nelson,1084 Oak,Mills,NE,68753
2266,Sarah Moore,1281 Fifth,Sarasota,FL,34234
2271,Charles Williams,16214 Elm,Mullin,TX,76864
2276,Sarah Perez,15032 Evergreen,Carolina,PR,00979
2281,Karen Lee,8692 Evergreen,Cincinnati,OH,45232
2286,Charles Robinson,14842 Oak,Washington,DC,20230
2291,Richard Carter,1108 Sixth,Charleston,WV,25357
2296,Karen Sanchez,3544 Ninth,Sea Island,GA,31561
2301,Susan Campbell,19518 Oak,Rocky Comfort,MO,64861
2306,Jennifer Baker,4016 Park,Washington,DC,20044
2311,Robert Harris,6801 Eighth,Boonville,NY,13309
2316,Mary Moore,8292 Main,Martin,PA,15460
2321,James Garcia,14663 Oak,Reidville,SC,29375
2326,Richard Roberts,14729 Park,Saint Matthews,SC,29135
2331,Karen Brown,4006 Maple,Niland,CA,92257
2336,Richard Anderson,16317 Ninth,Mount Lemmon,AZ,85619
2341,Jessica King,8466 Third,Brainard,NE,68626
2346,Patricia Stewart,14960 Maple,Birmingham,AL,35255
2351,Robert Wilson,17959 Cedar,Gibsonia,PA,15044
2356,Patricia Morgan,4769 Pine,Hurlburt Field,FL,32544
2361,Robert Mitchell,1853 Ninth,Palm Beach Gardens,FL,33418
2366,Barbara Morris,9658 Fourth,Cookeville,TN,38501
2371,Barbara Williams,11246 Second,Sausalito,CA,94965
2376,Elizabeth Morris,15058 Third,Navarro,CA,95463
2381,James Harris,18509 Main,English,IN,47118
2386,Sarah Hill,5104 Seventh,Napier,WV,26631
2391,Thomas Howard,3172 Elm,Atlanta,GA,30313
2396,Sarah Morales,9227 Sixth,Cairo,NY,12413
2401,Thomas Wright,13200 View,Mount Vernon,IL,62864
2406,Joseph Peterson,12937 Washington,Cochecton,NY,12726
2411,Elizabeth Ross,19194 Sixth,Cadiz,KY,42211
2416,Jennifer Scott,3386 Fourth,Camak,GA,30807
2421,Susan Ross,5616 Cedar,Woodland,WI,53099
2426,Sarah Harris,18220 Maple,Alto Pass,IL,62905
2431,Charles Jones,2953 Maple,Pelham,TN,37366
2436,James Hall,8806 Fourth,Rockford,IL,61112
2441,Linda Moore,16625 Ninth,Ogallala,NE,69153
2446,Charles Martinez,8163 View,Tonica,IL,61370
2451,Michael Brooks,1127 Hill,Knippa,TX,78870
2456,Patricia Morgan,16135 Sixth,Lutherville Timonium,MD,21093
2461,Thomas Evans,15374 Seventh,Lafox,IL,60147
2466,Susan Richardson,9632 Maple,Worth,IL,60482
2471,David Brooks,13580 Fourth,Washburn,IL,61570
2476,William White,19602 Main,APO,NY,09454
2481,Karen Flores,2235 Second,McLean,NE,68747
2486,Jessica Turner,16932 Second,Kathleen,GA,31047
2491,Robert Baker,12103 First,Savoy,IL,61874
2496,Susan Taylor,1852 Fourth,Northridge,CA,91325
2501,Mary Roberts,9529 First,Weatherford,TX,76086
2506,Elizabeth Long,13569 Park,Fresno,CA,93776
2511,Sarah Gutierrez,521 Second,El Dorado Hills,CA,95762
2516,Linda Evans,1228 First,Riverside,CA,92501
2521,Robert Lopez,18917 Evergreen,Dayton,NJ,08810
2526,Richard Ortiz,5107 Fourth,Washington Navy Yard,DC,20374
2531,David Turner,17205 Fourth,Cedar Grove,WV,25039
2536,Elizabeth Nguyen,19988 First,Turners,MO,65765
2541,Karen Jimenez,15867 Eighth,Washington,DC,20220
2546,Robert Phillips,5140 Eighth,Albuquerque,NM,87119
2551,Karen Mitchell,1332 Main,Shreve,OH,44676
2556,Sarah Gonzales,11712 Second,Altamonte Springs,FL,32701
2561,Sarah Reed,230 Maple,Spalding,MI,49886
2566,Patricia Diaz,12457 Second,Ashtabula,OH,44004
2571,Richard Alvarez,19217 Fourth,Isabel,KS,67065
2576,Elizabeth Campbell,13641 Pine,New Haven,CT,06515
2581,Jennifer Nguyen,16568 Evergreen,Camden,NJ,08104
2586,Jennifer Ortiz,14577 Maple,Saint Petersburg,FL,33741
2591,John Bailey,8903 Pine,Scipio,UT,84656
2596,Jessica Gonzales,16999 Sixth,West Decatur,PA,16878
2601,Robert Lewis,3511 Cedar,Roaring Spring,PA,16673
2606,Sarah Gutierrez,5187 Park,East Wareham,MA,02538
2611,Mary Ruiz,16992 Cedar,Haverhill,NH,03765
2616,Linda King,11620 View,Chula,GA,31733
2621,Michael Thompson,12185 Elm,Abilene,TX,79698
2626,Robert Gonzales,17359 Elm,Los Angeles,CA,90004
2631,Jennifer Evans,7027 View,Doe Run,MO,63637
2636,Barbara Myers,1442 Park,Sandy Point,VA,22577
2641,Charles Thompson,2333 Cedar,Tunas,MO,65764
2646,Joseph Mendoza,7524 Oak,Cassandra,PA,15925
2651,Karen Moore,6100 Ninth,Scranton,PA,18577
2656,James Phillips,15825 Cedar,Palmetto,FL,34221
2661,Joseph Wright,12379 Main,Pettigrew,AR,72752
2666,Richard James,18988 Main,Port Huron,MI,48060
2671,Michael Perez,17903 Washington,Palms,MI,48465
2676,Jessica Hall,17099 Eighth,Sandusky,NY,14133
2681,David Ross,15967 Cedar,Elko,SC,29826
2686,Joseph Reed,8216 Second,Chicago,IL,60653
2691,Barbara Murphy,14024 Park,Chapin,IL,62628
2696,Susan Ramos,2460 Lake,Greenville,MI,48838
2701,David Patel,13373 Second,Green Bay,WI,54306
2706,David Sanchez,217 Maple,Rentiesville,OK,74459
2711,Thomas Wright,8723 Main,Pittsburgh,PA,15209
2716,Patricia Castillo,5288 Park,APO,NY,09545
2721,Robert Kelly,2145 Cedar,Scottsdale,AZ,85261
2726,Thomas Adams,12026 First,Orlando,FL,32811
2731,Sarah Robinson,8345 Oak,Dallas,TX,75390
2736,Joseph Morris,12238 Oak,Milwaukee,WI,53233
2741,Jennifer Morris,805 Third,Table Rock,NE,68447
2746,Thomas Thompson,4268 Main,Union Grove,AL,35175
2751,Robert Rivera,12868 Sixth,Dayton,OH,45432
2756,Barbara Sanders,8082 Fifth,Elgin,AZ,85611
2761,John Lopez,16686 Lake,Hawkeye,IA,52147
2766,Richard Price,16025 Seventh,Haverford,PA,19041
2771,Linda Clark,13928 View,Great Neck,NY,11024
2776,Joseph Bailey,12138 Cedar,Polk,PA,16342
2781,John Jackson,2192 Lake,Tampa,FL,33606
2786,David Peterson,8746 Elm,Knightsen,CA,94548
2791,Robert Robinson,561 Cedar,El Dorado,CA,95623
2796,David Johnson,831 View,Easley,SC,29640
2801,William Phillips,7560 Fifth,Waterloo,IN,46793
2806,James Johnson,13732 Pine,Deland,FL,32724
2811,Linda Taylor,14763 Fifth,Grand Junction,CO,81507
2816,Jennifer Davis,6261 Seventh,North Stratford,NH,03590
2821,James King,4475 First,Glenwood,FL,32722
2826,John Miller,9863 Elm,Cook,NE,68329
2831,Jennifer Brooks,19092 Oak,Darlington,MD,21034
2836,Robert Hill,5517 Park,Moro,IL,62067
2841,Sarah Wright,15421 Eighth,Wood Dale,IL,60191
2846,Thomas Scott,5413 View,Ingalls,KS,67853
2851,William Lewis,15226 Elm,Afton,TX,79220
2856,Linda Cruz,283 Washington,Forestville,CA,95436
2861,Linda Flores,3618 Washington,Nicoma Park,OK,73066
2866,Sarah Rogers,18758 Elm,Springfield,MA,01103
2871,Charles James,13221 Maple,Rexville,NY,14877
2876,Thomas Hernandez,6206 Elm,Douglasville,GA,30154
2881,Jennifer Mendoza,8817 View,Grantham,NH,03753
2886,David Ross,2191 Fifth,Falls Church,VA,22044
2891,Joseph Walker,128 Main,West Lafayette,IN,47907
2896,Patricia Foster,2114 Elm,Crapo,MD,21626
2901,David Cook,18050 Ninth,Thousand Island Park,NY,13692
2906,David Anderson,3795 Fifth,Hadley,PA,16130
2911,Susan Rodriguez,9000 View,Waynesboro,GA,30830
2916,David White,19651 Fifth,Hollansburg,OH,45332
2921,David Adams,7491 Elm,Kansas City,KS,66118
2926,Jessica Peterson,7921 Elm,Newberry,SC,29108
2931,David Wilson,11341 Second,South Bristol,ME,04568
2936,Jessica Martin,13497 Maple,Inverness,MT,59530
2941,Michael Richardson,19275 Maple,Knoxville,AR,72845
2946,John Nelson,6916 Hill,Wyncote,PA,19095
2951,Linda Rivera,5199 Second,Logan,IA,51546
2956,Mary Torres,9105 First,Richfield,WI,53076
2961,Michael Baker,3897 Oak,Fresno,CA,93744
2966,Barbara Gonzales,12124 Fourth,Preston,MO,65732
2971,Charles Ramos,7777 Third,Unionville,IA,52594
2976,Richard Jimenez,8410 Elm,Cheshire,CT,06408
2981,Susan Rodriguez,7056 Seventh,Cartersville,GA,30120
2986,Thomas Jimenez,11929 Pine,Osage,WY,82723
2991,Elizabeth Walker,3943 Maple,Norman,AR,71960
2996,Patricia Jones,5673 Park,Tunbridge,VT,05077
3001,Susan Green,1964 Cedar,Haverhill,MA,01835
3006,Sarah Nelson,6284 Cedar,La Loma,NM,87724
3011,Mary Roberts,95 Fifth,El Dorado Springs,MO,64744
3016,Jessica Hernandez,15755 Fifth,New Cumberland,PA,17070
3021,Richard Sanders,14021 Evergreen,Grasston,MN,55030
3026,Mary Morris,14203 Park,Bath,IL,62617
3031,Karen Evans,3770 Oak,Lufkin,TX,75904
3036,Thomas Jimenez,8877 Main,Youngstown,OH,44503
3041,William Rodriguez,921 Evergreen,Silver Springs,FL,34488
3046,Linda Ruiz,5687 First,Sebastian,FL,32958
3051,John Taylor,17744 Evergreen,Tatum,TX,75691
3056,William Nguyen,11111 Washington,Oark,AR,72852
3061,William Green,11757 Fifth,Hartsville,IN,47244
3066,Patricia Evans,1514 Elm,Chicago,IL,60675
3071,John Ruiz,14268 Washington,Grenola,KS,67346
3076,Elizabeth Kim,301 Maple,Mozier,IL,62070
3081,Richard Nelson,8665 First,Louisville,KY,40245
3086,Linda Collins,8065 View,Dudley,NC,28333
3091,Jennifer Ward,4902 Sixth,Arnold,MD,21012
3096,Elizabeth Rogers,13995 Pine,Olathe,KS,66061
3101,Sarah Kelly,16508 Hill,Mexico,PA,17056
3106,Elizabeth Jackson,8649 Oak,Arab,AL,35016
3111,Mary Price,8408 Evergreen,Lakeland,FL,33810
3116,Charles White,6527 Fourth,Grantville,GA,30220
3121,Linda Reed,2288 Fifth,Robbins,IL,60472
3126,Sarah Reyes,15738 Main,Moseley,VA,23120
3131,Patricia White,15416 Evergreen,Beckemeyer,IL,62219
3136,Susan Walker,1199 Oak,Ambrose,GA,31512
3141,Barbara Lopez,9153 Second,Santa Clara,CA,95052
3146,Robert Parker,10009 Cedar,Skipwith,VA,23968
3151,William Wilson,2486 Lake,Bald Knob,AR,72010
3156,Jennifer Long,7220 Hill,Killdeer,ND,58640
3161,Patricia Gomez,6381 Oak,Newhall,WV,24866
3166,Patricia Wilson,14433 Seventh,Manorville,NY,11949
3171,Susan Young,8551 View,Dallas,TX,75320
3176,Mary Foster,1949 Fourth,Colorado Springs,CO,80947
3181,Susan Gray,15372 Cedar,Kenedy,TX,78119
3186,Sarah Castillo,6510 Hill,Booth,AL,36008
3191,Susan Reed,6300 Park,Merna,NE,68856
3196,Mary Young,16655 Evergreen,Leary,GA,39862
3201,Karen Alvarez,17070 View,Elm City,NC,27822
3206,Sarah Nelson,2611 Third,Melrose Park,IL,60164
3211,David Rivera,3287 Second,Wiota,IA,50274
3216,Charles Davis,6585 Evergreen,Zephyr,TX,76890
3221,Michael Brown,16072 Seventh,Mayflower,AR,72106
3226,Sarah Campbell,15524 Washington,Stoughton,WI,53589
3231,Robert Davis,8823 Cedar,Glenview,IL,60025
3236,Susan Thompson,418 Maple,Sulphur,LA,70665
3241,Jessica Collins,8319 Ninth,West Salisbury,PA,15565
3246,Mary Reyes,14330 Elm,Jamaica,IA,50128
3251,James Rogers,13011 Washington,Judson,TX,75660
3256,Joseph Nelson,2775 Ninth,Lincoln,AL,35096
3261,Richard Price,7036 Evergreen,Ringwood,OK,73768
3266,John Hughes,10861 Fourth,Archbold,OH,43502
3271,Michael White,11872 Fourth,New Lebanon,OH,45345
3276,Michael Taylor,17745 Cedar,Woodford,WI,53599
3281,Mary Gray,15329 Pine,Green Valley Lake,CA,92341
3286,Charles Mitchell,2143 Cedar,Lyons,NE,68038
3291,Barbara Ross,11715 Hill,Colorado Springs,CO,80939
3296,Charles Hall,3803 Ninth,Laurel,IA,50141
3301,William Bennet,14069 Elm,Clayton,DE,19938
3306,Barbara Williams,16047 Sixth,Brighton,MA,02135
3311,Karen Patel,18556 Seventh,Provo,UT,84606
3316,Richard Jones,17753 Fourth,Mount Hermon,LA,70450
3321,John Moore,3367 Park,Yosemite National Park,CA,95389
3326,Robert Bennet,17351 Maple,Saint Albans,WV,25177
3331,Michael Diaz,18534 Pine,Manderson,WY,82432
3336,Joseph Evans,8674 Elm,Benton,AR,72158
3341,Elizabeth Morales,8961 Cedar,Albion,IL,62806
3346,Linda Myers,14060 Main,Dekalb,IL,60115
3351,Linda Gutierrez,14914 Evergreen,Sanford,TX,79078
3356,Mary Alvarez,9176 Pine,Kingston,NY,12402
3361,Robert Morales,10928 Hill,Whitewater,CO,81527
3366,James White,12246 Main,Lucama,NC,27851
3371,Thomas Williams,4231 Hill,Orlando,FL,32803
3376,Barbara Ramos,17973 Oak,Montpelier,VT,05603
3381,Patricia Bailey,13477 Maple,El Paso,TX,88540
3386,David Peterson,8959 Fifth,Emmet,NE,68734
3391,Karen Hill,14884 Seventh,Raleigh,NC,27656
3396,Jennifer Stewart,107 Third,Stevinson,CA,95374
3401,Jessica Gomez,4009 Evergreen,Oakland,FL,34760
3406,Thomas Cruz,10895 Main,Wausau,FL,32463
3411,David Gomez,17961 Pine,Washington,AR,71862
3416,John Thomas,19112 Second,Cresco,PA,18326
3421,William Davis,19653 Lake,Lafayette,OH,45854
3426,William Wilson,10055 Fifth,Irvington,IL,62848
3431,William Rogers,8711 Hill,Cullen,VA,23934
3436,Michael Patel,2285 Fourth,Dulles,VA,20103
3441,Barbara Wilson,6681 Main,Smithville,OH,44677
3446,Michael Long,11107 Seventh,Roy,UT,84067
3451,Jennifer Torres,13547 Second,Carlisle,KY,40311
3456,Mary Kim,13432 Eighth,Centreville,MI,49032
3461,Mary Collins,9479 Maple,Vernal,UT,84078
3466,David Martinez,15556 Park,Schaumburg,IL,60173
3471,William Jackson,9649 Third,Kit Carson,CA,95644
3476,Jessica Collins,5714 Pine,Ontario,CA,91758
3481,Sarah Ross,13974 Eighth,Potter,WI,54160
3486,James Williams,17139 Third,Goldsboro,MD,21636
3491,Jennifer Baker,12216 Washington,Fort Myers,FL,33905
3496,William Carter,19304 Pine,Arvilla,ND,58214
3501,Barbara Bennet,3826 Fifth,Madison,SD,57042
3506,Jennifer Gray,13305 Cedar,Elmwood,MA,02337
3511,John Walker,19614 First,Weir,MS,39772
3516,Robert Chavez,11736 Maple,Washington,DC,20027
3521,Michael Ramos,17964 First,Wheatland,MO,65779
3526,Charles Morales,6818 Third,Zanesfield,OH,43360
3531,David Sanders,3601 Lake,Meddybemps,ME,04657
3536,Karen Turner,4973 Fourth,Williamsport,PA,17703
3541,William Stewart,19150 Washington,Hamden,CT,06518
3546,Patricia Jones,16473 Seventh,DPO,CA,96209
3551,Barbara Richardson,14388 Pine,Round Rock,TX,78682
3556,Robert Carter,17331 Pine,Lancaster,OH,43130
3561,Charles Moore,13626 Lake,Trona,CA,93592
3566,Jennifer Adams,1029 Sixth,Merritt,NC,28556
3571,Mary Campbell,4109 Park,Pineville,AR,72566
3576,Patricia Martin,8008 Hill,Procious,WV,25164
3581,Karen Hughes,958 Second,Garnavillo,IA,52049
3586,Jennifer Johnson,15112 Fourth,Roanoke,VA,24040
3591,Elizabeth Garcia,5104 Second,Moira,NY,12957
3596,Charles Torres,8720 Lake,Inglewood,CA,90301
3601,Patricia Smith,14284 Fifth,Valencia,CA,91355
3606,Robert Sanders,14086 Park,Beaumont,TX,77706
3611,Joseph Ward,6669 Washington,Fort Calhoun,NE,68023
3616,Richard Price,3117 Oak,Apalachicola,FL,32329
3621,Jessica White,15302 Sixth,California,KY,41007
3626,Robert Hall,17223 Park,Centralia,MO,65240
3631,Robert Stewart,6853 Sixth,Farmville,VA,23901
3636,Robert Ramirez,778 Evergreen,Rollins,MT,59931
3641,Joseph Green,15838 Fifth,San Diego,CA,92147
3646,Charles Wright,11784 Seventh,Mapleton,MN,56065
3651,William Reyes,18319 Park,Andover,IA,52701
3656,Jennifer Adams,16944 Pine,Sidman,PA,15955
3661,Robert Morgan,17522 Pine,Birmingham,AL,35249
3666,Barbara Patel,6865 Pine,Albuquerque,NM,87193
3671,Elizabeth Cruz,9560 Ninth,Minden City,MI,48456
3676,Linda Cox,14900 Fifth,Creighton,NE,68729
3681,Charles Mendoza,8577 Elm,Millsboro,PA,15348
3686,Jennifer Garcia,8425 Washington,Alamance,NC,27201
3691,Jessica Anderson,15481 First,Sacramento,CA,95826
3696,David Scott,5767 View,Wren,OH,45899
3701,Joseph Peterson,10706 Oak,Huntington,WV,25775
3706,Thomas Rivera,9120 Lake,Ulysses,PA,16948
3711,John Foster,13363 Ninth,Dallas,TX,75275
3716,Sarah Sanchez,13123 Fourth,Mildred,PA,18632
3721,Thomas Cox,13303 Main,Littleton,IL,61452
3726,Barbara Nelson,19885 Main,Chilhowee,MO,64733
3731,James Cruz,1936 Ninth,Okreek,SD,57563
3736,Susan Cox,2971 Oak,Congers,NY,10920
3741,Richard Sanders,10259 Washington,United,PA,15689
3746,Jennifer Sanchez,13927 Second,Pierron,IL,62273
3751,Barbara Williams,4514 Eighth,Shuqualak,MS,39361
3756,David Perez,9191 Sixth,Suffolk,VA,23435
3761,Michael Morgan,17108 Washington,Elberta,MI,49628
3766,Elizabeth Perez,12863 Oak,Russell,NY,13684
3771,Barbara Ruiz,11974 Elm,Moorpark,CA,93021
3776,Thomas Kim,1358 Oak,Barnett,MO,65011
3781,Robert Murphy,9931 Cedar,New York,NY,10155
3786,Richard Alvarez,4915 Seventh,Washington,DC,20534
3791,Patricia Diaz,18466 Oak,Grand Ridge,FL,32442
3796,Susan Perez,1550 Maple,New Orleans,LA,70116
3801,Charles Robinson,6233 Third,West Portsmouth,OH,45663
3806,Elizabeth Anderson,547 Elm,Youngstown,PA,15696
3811,Joseph Hill,3270 View,Colonial Beach,VA,22443
3816,Richard Reed,6565 Washington,Hye,TX,78635
3821,Robert Taylor,18326 Ninth,Baton Rouge,LA,70892
3826,Michael Rodriguez,4478 Washington,Robertson,WY,82944
3831,William Moore,6056 Sixth,Colorado Springs,CO,80922
3836,Richard Brown,9297 Maple,Buckley,MI,49620
3841,Susan Sanders,7804 Sixth,Moreno Valley,CA,92556
3846,Sarah Miller,16714 Washington,Wiggins,MS,39577
3851,David James,19885 Eighth,Atlanta,GA,30344
3856,Linda Long,19749 Oak,Durhamville,NY,13054
3861,Karen Murphy,11825 Oak,Lebanon,NE,69036
3866,William Jones,16089 Lake,Hettinger,ND,58639
3871,James Nelson,2486 Sixth,Elgin,IL,60121
3876,Susan Peterson,11811 View,Hermansville,MI,49847
3881,Mary Myers,19697 Cedar,Christiansted,VI,00821
3886,Linda Ward,13334 Ninth,Paden City,WV,26159
3891,William Davis,943 Evergreen,Danielson,CT,06239
3896,Michael Ramos,2502 Sixth,Venango,PA,16440
3901,Charles Williams,12323 Fifth,Los Angeles,CA,90055
3906,Barbara Hernandez,2664 Oak,Royal Oak,MD,21662
3911,William Wright,1071 Ninth,Glen Allen,VA,23060
3916,Robert Gray,1294 Hill,Gordon,NE,69343
3921,Robert Parker,6295 Maple,Elmhurst,NY,11380
3926,Barbara Anderson,16411 Cedar,San Rafael,CA,94903
3931,Jessica Ross,11147 View,Ridgewood,NJ,07451
3936,Barbara Lewis,18657 First,New London,OH,44851
3941,Karen Green,432 Washington,Sebring,FL,33870
3946,Robert Green,1738 Eighth,Encino,TX,78353
3951,Jennifer Foster,19467 Fourth,Austin,TX,78778
3956,Thomas Nelson,11822 Ninth,Herreid,SD,57632
3961,Linda Davis,15474 Park,Wingate,NC,28174
3966,Karen Harris,13613 Eighth,FPO,NY,09581
3971,James Gonzales,4465 Evergreen,Moulton,TX,77975
3976,Thomas Ortiz,12293 Oak,Richmond,VA,23237
3981,Barbara Brown,14396 Lake,Houston,TX,77273
3986,James Stewart,6554 First,Winn,MI,48896
3991,Richard Morris,8537 Cedar,Noxon,MT,59853
3996,Jessica Alvarez,13656 Elm,Winfield,IL,60190
4001,Jennifer Allen,1829 View,Nashville,TN,37222
4006,Sarah Jimenez,5771 Seventh,Cedar Lake,MI,48812
4011,Sarah Bailey,11254 Park,Coeburn,VA,24230
4016,William Wood,5255 Seventh,Millersville,PA,17551
4021,Elizabeth Ruiz,6626 Eighth,La Habra,CA,90633
4026,Michael Smith,15741 Evergreen,Collyer,KS,67631
4031,Thomas Brooks,8852 Ninth,Harbor City,CA,90710
4036,Karen Cook,9410 Second,Marble City,OK,74945
4041,Barbara Long,4179 Pine,Nelson,MN,56355
4046,Barbara Alvarez,12311 Evergreen,Whitman,MA,02382
4051,Jessica Wood,17146 Ninth,Lebanon,PA,17042
4056,Richard Collins,15874 Maple,Mollusk,VA,22517
4061,Jessica Kim,19126 Hill,Lawton,OK,73502
4066,Joseph Patel,19448 Eighth,Chartley,MA,02712
4071,Barbara Long,14186 Cedar,Superior,WY,82945
4076,Thomas Parker,2238 Washington,Davidson,NC,28036
4081,James Wright,6057 Ninth,Colorado City,CO,81019
4086,Richard Robinson,10229 Hill,Villanova,PA,19085
4091,David Scott,5855 Pine,Cochran,GA,31014
4096,Elizabeth Lopez,11497 Eighth,Washington,DC,20010
4101,James Cook,1095 Evergreen,Pedro,OH,45659
4106,Thomas Stewart,17934 Second,Cincinnati,OH,45205
4111,Richard Peterson,7106 Elm,Kenton,OK,73946
4116,Jessica Anderson,11746 Second,West Hyannisport,MA,02672
4121,Karen Bailey,12916 Lake,Rochester,NY,14642
4126,Susan Walker,16855 View,Louisville,KY,40201
4131,Thomas Young,4766 Park,Rio Rico,AZ,85648
4136,Robert Gomez,13651 Maple,Ozona,TX,76943
4141,James Edwards,5757 Fifth,Yukon,PA,15698
4146,Barbara Richardson,9711 Main,Scranton,PA,18502
4151,Elizabeth Baker,7001 Fifth,Tyler,TX,75713
4156,Elizabeth Hall,19358 Second,Orangeville,PA,17859
4161,Karen Jackson,4612 Maple,Sublette,IL,61367
4166,Charles Phillips,18876 View,Anaheim,CA,92899
4171,Susan Hughes,11916 Sixth,Norfolk,VA,23541
4176,Mary Watson,9873 Eighth,Lazear,CO,81420
4181,Sarah Ramirez,11370 Third,Huttonsville,WV,26273
4186,Linda Nguyen,17207 Seventh,Elizabethtown,IL,62931
4191,Joseph Anderson,2169 Main,Kent,OH,44242
4196,Linda Cruz,14593 Fourth,Oakdale,IL,62268
4201,William Wood,15022 Eighth,Pleasantville,NY,10570
4206,John Gonzales,13015 Ninth,Newark,OH,43058
4211,Thomas Turner,2347 Fourth,Warwick,RI,02887
4216,Jennifer Bailey,6988 Fourth,Silverton,CO,81433
4221,William Jimenez,4224 Fifth,Portage,UT,84331
4226,Robert Garcia,15436 Main,Fayette,OH,43521
4231,John Harris,4710 Washington,Williston,VT,05495
4236,William Lewis,12807 Sixth,Harrisburg,NC,28075
4241,James Watson,14381 Elm,Washington,DC,20203
4246,Sarah Wright,1200 Seventh,Silver Lake,NH,03875
4251,William Turner,3508 Eighth,Longmont,CO,80502
4256,John Wright,17873 Maple,North Hollywood,CA,91611
4261,James Clark,14212 Sixth,Leland,IL,60531
4266,Joseph Thompson,14753 Second,Whatley,AL,36482
4271,Joseph Campbell,1777 Second,Bonita Springs,FL,34135
4276,Joseph Allen,12551 Maple,Osceola Mills,PA,16666
4281,Jessica Ramos,153 Elm,Mesilla,NM,88046
4286,Richard Brown,9192 Maple,Franklin,NH,03235
4291,Thomas Ward,3414 Washington,Belgrade,ME,04917
4296,Susan Hall,4121 Second,Hartwick,NY,13348
4301,John Wood,4352 Elm,Tuscaloosa,AL,35402
4306,Jennifer Kelly,12919 Lake,Oilville,VA,23129
4311,Jessica Allen,7559 Cedar,Scranton,PA,18503
4316,Richard Young,9443 Ninth,Kissimmee,FL,34741
4321,Sarah Mendoza,5545 Cedar,New Orleans,LA,70165
4326,Mary Rivera,17234 Fifth,New Cambria,MO,63558
4331,Linda Myers,19571 Hill,Rockingham,NC,28380
4336,Sarah Foster,5948 Second,Fresno,CA,93702
4341,James Flores,8724 Maple,Kansas City,KS,66160
4346,Sarah Adams,13796 Oak,Conway,MI,49722
4351,Jennifer Jimenez,5941 First,Newell,WV,26050
4356,Karen Walker,15769 Cedar,Hinckley,ME,04944
4361,Patricia Gomez,7297 Ninth,Fort Walton Beach,FL,32547
4366,Jennifer Jimenez,15944 Hill,Lafitte,LA,70067
4371,Mary Davis,5024 Seventh,Lunenburg,MA,01462
4376,Robert Smith,2515 View,Carle Place,NY,11514
4381,Sarah Chavez,15146 Pine,Norwood,NY,13668
4386,James Williams,2917 Lake,East Calais,VT,05650
4391,Mary Nelson,10545 Ninth,Island Falls,ME,04747
4396,David Scott,18955 Main,Biddeford,ME,04007
4401,Jennifer Morris,6145 Pine,New Athens,OH,43981
4406,Thomas Collins,2322 Fifth,Euless,TX,76039
4411,Jennifer Peterson,10144 Washington,Champaign,IL,61824
4416,Linda Flores,9097 Hill,Poyen,AR,72128
4421,Robert Scott,1403 Seventh,Franklin,NE,68939
4426,Thomas Evans,19698 Evergreen,Howes Cave,NY,12092
4431,Joseph Rogers,10556 Cedar,Lenapah,OK,74042
4436,William Perez,15002 Cedar,DPO,NY,09769
4441,Jennifer Lopez,461 Hill,Byron,NY,14422
4446,Michael Morris,14310 Washington,Jesup,GA,31546
4451,Jennifer Bailey,11092 Washington,Smith River,CA,95567
4456,Barbara Martinez,11143 Third,Bangor,PA,18013
4461,Jessica King,8767 Ninth,Bristol,CT,06010
4466,Joseph Howard,1274 Ninth,Tulare,SD,57476
4471,John Phillips,11666 Second,Raleigh,NC,27617
4476,Joseph Rivera,13201 View,Gardendale,TX,79758
4481,Thomas Taylor,8707 Washington,Ivanhoe,VA,24350
4486,Jessica Morales,11378 Fifth,Huntington,WV,25776
4491,William Green,5968 Ninth,Sherburn,MN,56171
4496,Charles Thompson,17519 Eighth,South Wayne,WI,53587
4501,Susan King,19514 Third,Stockton,MD,21864
4506,Elizabeth Gonzales,7384 First,El Paso,TX,88565
4511,Richard Martin,3144 First,Ridge,NY,11961
4516,Michael Mitchell,16419 Oak,Centerburg,OH,43011
4521,Mary Harris,12103 Oak,Friendship,ME,04547
4526,Mary Cruz,2066 Second,Oxford,CT,06478
4531,Mary Hernandez,10077 View,Chinook,MT,59523
4536,David Nelson,18796 Pine,Tobaccoville,NC,27050
4541,Charles Sanchez,9406 Fifth,Crete,NE,68333
4546,William Edwards,3338 Sixth,Scuddy,KY,41760
4551,William Ortiz,848 Park,Greenleaf,KS,66943
4556,Linda Kelly,1022 View,Columbia,CA,95310
4561,Karen Martinez,15427 Fourth,Denver,CO,80223
4566,Mary Bailey,2042 Ninth,Skanee,MI,49962
4571,Michael Anderson,10875 Sixth,Iowa City,IA,52244
4576,Michael Williams,8234 Evergreen,Loma Mar,CA,94021
4581,Mary Ross,8662 Eighth,French Lick,IN,47432
4586,David Martinez,17317 Main,Key West,FL,33045
4591,Susan Nelson,15313 Oak,Gila,NM,88038
4596,Jennifer Ortiz,15478 Ninth,Houston,TX,77241
4601,Elizabeth Clark,4925 Third,Miami,FL,33196
4606,Karen Gutierrez,6794 Cedar,Fresno,CA,93779
4611,Michael Lee,14196 Pine,Harristown,IL,62537
4616,Susan Wilson,10098 Maple,Mount Pleasant,AR,72561
4621,Linda White,3083 Main,Franklin,ME,04634
4626,Sarah Jimenez,18198 First,Berkeley,CA,94712
4631,Jessica Castillo,2581 Eighth,Washington,DC,20310
4636,Barbara Reyes,1154 First,Thomasville,GA,31799
4641,Elizabeth Garcia,8563 Cedar,Tallahassee,FL,32315
4646,Elizabeth Miller,15662 Park,Ponte Vedra Beach,FL,32082
4651,Linda Castillo,8209 Park,Charlotte,NC,28227
4656,Susan Thompson,10613 Seventh,Evergreen,CO,80437
4661,James Campbell,573 Lake,Scottsmoor,FL,32775
4666,Sarah Davis,6824 Hill,Columbus,GA,31917
4671,John Morgan,4840 Washington,Bronx,NY,10467
4676,Susan Price,4236 Seventh,Red Ash,VA,24640
4681,Jennifer Carter,18756 Pine,Goodland,MN,55742
4686,Robert Rogers,8095 Second,Smyrna,GA,30082
4691,Patricia Long,17358 Eighth,Waterford,MI,48328
4696,Thomas Hughes,6383 Seventh,Luthersburg,PA,15848
4701,Mary Diaz,10609 Oak,Apache Junction,AZ,85178
4706,Joseph Harris,14454 Eighth,Glendale,AZ,85306
4711,Susan Myers,15079 Fourth,Richmond,KY,40476
4716,Elizabeth Davis,17501 Park,Palermo,ND,58769
4721,Charles Murphy,388 Park,Knox,IN,46534
4726,Susan Perez,18180 Hill,Muskego,WI,53150
4731,Richard Rivera,15381 Sixth,Bethany,WV,26032
4736,Jennifer Lopez,12281 Fourth,Pittsburg,IL,62974
4741,Susan Price,963 Cedar,Edgecomb,ME,04556
4746,Barbara Long,17262 Fifth,Lansdale,PA,19446
4751,Jennifer Perez,10145 View,Peterson,MN,55962
4756,Robert Jones,19370 Maple,APO,CA,96283
4761,Robert Watson,19639 Fifth,Dyke,VA,22935
4766,Joseph Jimenez,4624 Evergreen,Bessemer,AL,35023
4771,Mary Campbell,16154 Park,Stuyvesant Falls,NY,12174
4776,Richard Lopez,2880 Lake,Dickinson,ND,58602
4781,Charles Nelson,10811 Pine,Willard,OH,44888
4786,Elizabeth Morgan,15981 Oak,New Orleans,LA,70179
4791,Karen Hill,8854 Second,Auburn,WV,26325
4796,Patricia Sanchez,13438 Seventh,Sandstone,WV,25985
4801,David Morris,10882 Maple,Green Road,KY,40946
4806,Richard Hughes,15377 View,Morton,MS,39117
4811,Joseph Alvarez,19355 Eighth,Saint Petersburg,FL,33734
4816,Joseph Allen,655 Washington,Thornton,TX,76687
4821,Patricia Sanders,7582 Cedar,Lissie,TX,77454
4826,Charles Jones,5115 Fourth,Chamberlain,SD,57325
4831,David Robinson,5189 Maple,Sodus,NY,14551
4836,Patricia Rivera,17608 Eighth,DPO,NY,09709
4841,James Perez,3642 Oak,Romulus,MI,48174
4846,Elizabeth Allen,19015 Main,Boling,TX,77420
4851,Sarah Foster,12418 First,Shreveport,LA,71163
4856,John Anderson,19315 Maple,Piney Flats,TN,37686
4861,Patricia Wilson,11097 View,Rincon,PR,00677
4866,Susan Mendoza,13218 Fourth,West Covina,CA,91792
4871,Barbara Nguyen,16995 Maple,Shattuck,OK,73858
4876,William Cox,18563 Second,Bartlett,NH,03812
4881,Patricia Turner,12789 First,Victorville,CA,92394
4886,Thomas James,7032 First,Savannah,NY,13146
4891,James James,15953 Seventh,Clinton,OK,73601
4896,Barbara Lee,17891 Ninth,Dacono,CO,80514
4901,Susan Walker,363 Maple,White River Junction,VT,05001
4906,Joseph Ramirez,10195 Pine,Bushnell,IL,61422
4911,Linda Gonzales,7156 Park,Marion,NY,14505
4916,William Alvarez,4014 Maple,Indianapolis,IN,46213
4921,Linda Thompson,4141 Elm,Sandyville,WV,25275
4926,James Patel,112 Maple,Telegraph,TX,76883
4931,Richard Hall,14214 Ninth,New Matamoras,OH,45767
4936,Richard Patel,17316 Ninth,Kinderhook,IL,62345
4941,Sarah Clark,18350 View,Amarillo,TX,79114
4946,Elizabeth Nelson,8782 Fifth,Southampton,MA,01073
4951,Charles Castillo,10960 Fifth,Leedey,OK,73654
4956,Charles Stewart,15276 Second,West Ossipee,NH,03890
4961,Elizabeth Nguyen,13889 View,Spirit Lake,ID,83869
4966,Jessica Harris,4075 Evergreen,Nekoma,KS,67559
4971,Charles Phillips,19582 Ninth,Chula Vista,CA,91913
4976,Richard Rodriguez,6105 Elm,Lincoln,NE,68523
4981,Thomas Edwards,14103 View,Lumberport,WV,26386
4986,Charles Wilson,16839 Hill,Batesville,IN,47006
4991,David Ramos,16383 Cedar,New Haven,CT,06535
4996,Sarah Nelson,10173 Fifth,Elk Rapids,MI,49629
5001,Elizabeth Roberts,17662 First,Brooklyn,NY,11209
5006,Jessica Adams,1535 Hill,Santa Fe,NM,87508
5011,Joseph Myers,16921 Third,Albert,OK,73001
5016,Susan Gonzales,6072 Evergreen,Glenn,MI,49416
5021,Barbara Baker,1551 Ninth,Stockton,CA,95207
5026,Linda Jimenez,16808 Seventh,Bogue Chitto,MS,39629
5031,Barbara Peterson,10835 Third,Dwight,NE,68635
5036,Robert Garcia,19602 Fifth,Morgan City,MS,38946
5041,Susan Bennet,9700 Eighth,Lorton,VA,22079
5046,William Jimenez,12720 First,Slayden,TN,37165
5051,Robert Bailey,14461 Washington,Naples,FL,34101
5056,Barbara Watson,18262 Cedar,Augusta,GA,30907
5061,Mary Sanders,18807 Second,Rochester,NY,14646
5066,Robert Jimenez,10550 Fifth,Gypsum,KS,67448
5071,Patricia Morales,13114 Main,Glen Arm,MD,21057
5076,Michael Mitchell,10666 Oak,Glenwood,NY,14069
5081,Susan White,10660 Elm,New Llano,LA,71461
5086,Michael King,13271 Evergreen,Monroe,NE,68647
5091,Mary Chavez,11232 Main,Ellendale,ND,58436
5096,Sarah Lee,1164 Oak,Bailey Island,ME,04003
5101,William Diaz,18527 Evergreen,Hilton Head Island,SC,29926
5106,Karen Rogers,8949 Seventh,Norwalk,WI,54648
5111,Barbara Ramos,513 Main,Coulter,IA,50431
5116,Charles Hughes,10354 Fourth,Printer,KY,41655
5121,Patricia Cox,876 View,Houston,TX,77025
5126,Richard Rivera,9571 Fourth,Hamilton,AL,35570
5131,Michael Hall,7884 Lake,Davenport,FL,33897
5136,Joseph Martin,2069 Main,Shorterville,AL,36373
5141,Joseph Diaz,8486 Eighth,Duck River,TN,38454
5146,Linda Stewart,6452 Second,Hagarville,AR,72839
5151,Robert Chavez,6819 Maple,North East,PA,16428
5156,Robert Wood,12357 Elm,South Bloomingville,OH,43152
5161,Michael Cox,18906 Evergreen,Horse Shoe,NC,28742
5166,Jessica Reyes,2686 Maple,Celina,TX,75009
5171,Barbara Myers,13961 Maple,Titusville,PA,16354
5176,Jessica Lewis,4949 Sixth,Wayland,OH,44285
5181,Sarah Campbell,11423 Eighth,Sweet Grass,MT,59484
5186,Barbara Parker,17086 View,Brookfield,NY,13314
5191,Thomas Torres,13402 Lake,Burlington,NC,27216
5196,Jessica Hall,7032 Elm,Claremont,NC,28610
5201,Michael Wilson,3854 Lake,Eastport,ME,04631
5206,Jessica Foster,19320 View,Long Prairie,MN,56347
5211,Jessica Adams,6580 First,Copenhagen,NY,13626
5216,David Ramos,4167 View,Bird City,KS,67731
5221,Sarah Carter,3571 Fourth,Parcel Return Service,DC,56969
5226,Barbara Jackson,12433 Fourth,North Hollywood,CA,91603
5231,David Peterson,16895 Eighth,Deltona,FL,32739
5236,Jessica Watson,5968 Washington,Owenton,KY,40359
5241,Joseph Roberts,11088 Sixth,Grand Island,NE,68802
5246,David Scott,10720 Third,Lowmansville,KY,41232
5251,David Lopez,16292 Eighth,Moravian Falls,NC,28654
5256,Mary Campbell,19285 Ninth,South Bristol,ME,04568
5261,John Hughes,3852 Main,Virginia Beach,VA,23452
5266,Elizabeth Miller,308 Second,Potosi,WI,53820
5271,Patricia Price,15816 Pine,Wilcox,NE,68982
5276,John White,1310 Eighth,Martinsville,VA,24112
5281,Mary Smith,9431 Elm,Apex,NC,27523
5286,Elizabeth Campbell,14979 Lake,Rainsville,NM,87736
5291,Jennifer Baker,13765 Cedar,Arlington,WI,53911
5296,Charles Taylor,16682 Eighth,Truesdale,IA,50592
5301,Linda Perez,18849 Fifth,Elizabeth,IN,47117
5306,John Hernandez,1393 Third,Kellysville,WV,24732
5311,John Patel,19926 Maple,Clemmons,NC,27012
5316,Richard Morgan,1541 Lake,Salton City,CA,92275
5321,Elizabeth Jones,19458 Hill,Littlerock,CA,93543
5326,John Reyes,10318 Ninth,Elkland,MO,65644
5331,Mary Johnson,1700 Seventh,Leeton,MO,64761
5336,Barbara Martin,17120 Eighth,Baileyville,ME,04694
5341,Charles Miller,8507 Lake,Woodhull,IL,61490
5346,Richard Cox,629 Pine,Saint Paul,MN,55103
5351,John Wright,409 Cedar,Horseshoe Bend,ID,83629
5356,Charles Lewis,9629 Third,Sterling,ND,58572
5361,Joseph Wilson,6122 Elm,Stony Point,NC,28678
5366,Sarah Alvarez,13925 Eighth,Jones,MI,49061
5371,Mary Hall,70 Evergreen,Farmington,MI,48333
5376,David Hall,4247 Evergreen,Anamoose,ND,58710
5381,Sarah Lopez,3026 Ninth,Long Lake,WI,54542
5386,Joseph Clark,4161 Elm,Dover,ID,83825
5391,Michael Kim,19249 View,Las Vegas,NV,89128
5396,David Johnson,16481 Main,Hewitt,TX,76643
5401,Elizabeth Adams,10970 Evergreen,Pasadena,TX,77505
5406,Patricia Davis,9325 Sixth,Wilkinson,IN,46186
5411,Elizabeth Sanchez,13390 Lake,Wellington,UT,84542
5416,Jessica Miller,1661 First,Wheatley,AR,72392
5421,Karen Ramirez,2312 Seventh,Clifton,NJ,07014
5426,Linda Taylor,9173 Eighth,Grand Rapids,MI,49544
5431,Jessica Price,19183 Cedar,Washington,DC,20404
5436,Richard Cooper,1427 Evergreen,Thornburg,IA,50255
5441,Elizabeth Alvarez,5621 Fifth,McDowell,VA,24458
5446,David Sanders,15374 Pine,Fort Atkinson,WI,53538
5451,James Clark,10300 Sixth,Burbank,IL,60459
5456,John Smith,10300 Pine,Cook Springs,AL,35052
5461,James James,7053 Fifth,Orlando,FL,32856
5466,Richard Hill,17552 Pine,Wales,ND,58281
5471,Joseph Richardson,6048 Fifth,Philomont,VA,20131
5476,Elizabeth Jones,9621 Oak,Fort Lauderdale,FL,33348
5481,Joseph Nelson,6579 Eighth,Liberty,MO,64069
5486,James Campbell,13164 Ninth,Stillmore,GA,30464
5491,Linda Johnson,19328 Evergreen,Dallas,TX,75226
5496,Richard Peterson,19906 Oak,Salt Rock,WV,25559
5501,John Castillo,12249 Ninth,Columbus,OH,43228
5506,Susan Williams,19862 Oak,Philadelphia,PA,19106
5511,Joseph Nguyen,15363 Second,Corpus Christi,TX,78463
5516,Thomas Perez,2161 Evergreen,Portsmouth,VA,23701
5521,Michael Richardson,1011 First,Washington,DC,20403
5526,Sarah Clark,13712 View,Makinen,MN,55763
5531,Richard Harris,8391 Park,Russellville,AR,72811
5536,Sarah Davis,13817 Second,Lebanon,KS,66952
5541,Joseph Mendoza,14352 Pine,Frankfort,KY,40603
5546,James Allen,4689 Maple,Americus,KS,66835
5551,Joseph Jones,10097 Sixth,Withee,WI,54498
5556,Joseph Robinson,14930 Maple,Troutville,PA,15866
5561,Thomas Phillips,3198 Evergreen,Clermont,FL,34714
5566,David Green,316 Second,Bainbridge,IN,46105
5571,Karen Morgan,16254 First,Canton,OK,73724
5576,James White,6848 Lake,Toledo,IL,62468
5581,Linda Ramos,8487 Pine,Rockhill Furnace,PA,17249
5586,David Mendoza,7127 Lake,Dallas,TX,75371
5591,Susan Bailey,18906 Lake,Yarmouth Port,MA,02675
5596,James Alvarez,12870 Main,Albuquerque,NM,87115
5601,William Martinez,9982 Maple,FPO,NY,09520
5606,Patricia Rogers,1535 Seventh,Galena,MO,65656
5611,Linda Ruiz,2056 Third,Newport,MN,55055
5616,Linda Scott,1019 Fifth,Fortson,GA,31808
5621,Jennifer Castillo,7388 View,Howard Beach,NY,11414
5626,Patricia Walker,4908 Elm,Ellis,ID,83235
5631,Karen Jimenez,19843 Hill,Walls,MS,38686
5636,Mary Ramos,5902 Cedar,Carroll,OH,43112
5641,Robert Peterson,1320 Eighth,Franklin,TX,77856
5646,Linda Wilson,11869 Park,Booneville,KY,41314
5651,Mary Hill,18092 Elm,Dennis,TX,76439
5656,David Reed,11327 Washington,Berwyn,PA,19312
5661,James Cooper,3809 Cedar,Ventura,CA,93007
5666,Jessica Reyes,1062 Fifth,Atwater,OH,44201
5671,Richard Williams,11506 Sixth,North Branford,CT,06471
5676,Susan Anderson,13484 Washington,Miami,FL,33296
5681,Elizabeth Carter,5907 Washington,Gaithersburg,MD,20877
5686,Charles Stewart,5588 Second,Emigrant,MT,59027
5691,Mary Baker,11104 Pine,Richmond,VA,23292
5696,Linda Adams,10824 Maple,Maysville,GA,30558
5701,Elizabeth Gutierrez,6779 Hill,Black Canyon City,AZ,85324
5706,Jessica Ramos,7153 Hill,Amarillo,TX,79178
5711,Karen Rivera,1805 Ninth,Latham,MO,65050
5716,Patricia Allen,1049 Main,Bloomington,CA,92316
5721,Elizabeth Myers,18461 Sixth,Dallas,TX,75223
5726,Karen Perez,7077 Pine,Park Rapids,MN,56470
5731,Jessica Thomas,10433 Fifth,Belvidere,IL,61008
5736,James Rivera,18326 Main,Many,LA,71449
5741,Elizabeth Stewart,18752 Oak,Oklahoma City,OK,73154
5746,Joseph Roberts,9577 Evergreen,Roanoke,VA,24013
5751,Susan Cruz,13804 Fifth,Windom,TX,75492
5756,Robert Green,7104 View,Florence,VT,05744
5761,Jessica Stewart,13043 Oak,Hackensack,NJ,07602
5766,Linda Edwards,12772 Seventh,Milesburg,PA,16853
5771,Linda Walker,6798 Second,Delray Beach,FL,33483
5776,Linda Hernandez,8348 Sixth,Natchez,MS,39120
5781,Thomas Adams,7268 View,Orlando,FL,32830
5786,David Rivera,3595 Seventh,Savannah,GA,31421
5791,Michael Mitchell,15221 View,Oldtown,MD,21555
5796,Mary Johnson,18322 Elm,Newport News,VA,23612
5801,Barbara Johnson,9701 Third,Prudence Island,RI,02872
5806,Elizabeth Chavez,6532 Sixth,Plano,IA,52581
5811,Sarah Ross,3224 Maple,McLean,VA,22102
5816,Barbara Howard,462 Lake,Litchfield Park,AZ,85340
5821,Joseph Mitchell,9349 Main,Valles Mines,MO,63087
5826,Richard Scott,4905 Main,Kohler,WI,53044
5831,Susan Wilson,19374 Main,Tyner,NC,27980
5836,Mary Anderson,15689 Park,Chester,PA,19013
5841,Karen Diaz,9518 Maple,Silver Spring,MD,20907
5846,Michael Evans,4531 Washington,Abita Springs,LA,70420
5851,Patricia Anderson,11205 Maple,Marcus,IA,51035
5856,David Sanders,17729 Hill,Carmichael,CA,95608
5861,Jennifer Ruiz,5931 Cedar,Murray,ID,83874
5866,Charles Ross,10271 Seventh,New York,NY,10272
5871,Robert Thompson,11649 Main,Orwigsburg,PA,17961
5876,Michael Hernandez,11857 Cedar,Hope,ID,83836
5881,William Carter,16774 Lake,Blairsville,PA,15717
5886,Joseph Martin,8951 Cedar,Marathon,NY,13803
5891,Richard Davis,17825 Pine,Buda,IL,61314
5896,William Lewis,4788 Pine,Port Jefferson Station,NY,11776
5901,Patricia Alvarez,13613 View,Harperville,MS,39080
5906,Thomas Adams,13437 Washington,Augusta,GA,30919
5911,Barbara Ross,14263 Cedar,Milford,IN,46542
5916,Thomas Roberts,12724 Park,Bluefield,WV,24701
5921,Patricia Sanders,1336 First,Glendale,AZ,85312
5926,Elizabeth Moore,17896 Cedar,Reedsville,PA,17084
5931,William Cooper,18767 Ninth,Louisville,KY,40224
5936,Sarah Thompson,14287 Washington,Altmar,NY,13302
5941,Elizabeth Mendoza,5842 Ninth,Oceano,CA,93475
5946,Elizabeth Brooks,17601 View,Ann Arbor,MI,48108
5951,Karen Wright,5193 Cedar,Albion,MI,49224
5956,Richard Nguyen,8124 Lake,Pax,WV,25904
5961,Richard Ross,13993 Sixth,Sterling,VA,20163
5966,John Price,3483 Main,Monterey Park,CA,91756
5971,Susan Reed,1293 Main,South River,NJ,08882
5976,James Jones,5326 First,Dallas,TX,75371
5981,Richard Murphy,8386 Elm,Gillette,WY,82716
5986,Thomas Martin,15970 Main,Miami,FL,33199
5991,Richard Taylor,1082 Seventh,Arapahoe,CO,80802
5996,John Castillo,2907 Evergreen,Philadelphia,PA,19138
6001,James Rivera,157 Oak,Rose Hill,VA,24281
6006,Charles King,18703 Oak,Framingham,MA,01705
6011,Barbara Clark,945 Washington,Charlotte,NC,28274
6016,Susan Evans,14066 Fifth,Racine,WI,53407
6021,Linda Kim,10668 Washington,Wilson,NC,27894
6026,Susan Chavez,12733 Main,Morris,PA,16938
6031,Richard King,13199 Eighth,North Pembroke,MA,02358
6036,Thomas Martin,670 Oak,Jeffersonville,IN,47130
6041,Thomas Johnson,15049 Pine,Hillsboro,KS,67063
6046,Jessica James,9843 Sixth,Red Lion,PA,17356
6051,John Morales,7241 Maple,Goodman,MO,64843
6056,Sarah Wood,18661 Fourth,Winston Salem,NC,27107
6061,James Robinson,13321 Eighth,New York,NY,10155
6066,Patricia Peterson,11211 Washington,Kemah,TX,77565
6071,Robert Rodriguez,19979 Pine,Witter,AR,72776
6076,Mary Brown,3713 Washington,Dublin,MS,38739
6081,Elizabeth Ruiz,18788 Lake,South River,NJ,08882
6086,Mary Miller,11220 Eighth,Amarillo,TX,79107
6091,John Cook,11865 Oak,Atlanta,GA,30374
6096,Charles Nguyen,18699 View,Jenners,PA,15546
6101,John Lewis,4225 Second,Lenox Dale,MA,01242
6106,Charles Hughes,5244 Third,Nashua,NH,03064
6111,Joseph Garcia,4871 Second,Gardner,ND,58036
6116,Michael Kim,13677 First,Phoenix,AZ,85015
6121,Jessica Cruz,5989 Evergreen,Van Buren,MO,63965
6126,James King,19650 Seventh,Needham Heights,MA,02494
6131,Joseph Thompson,8406 Maple,Coleman,GA,39836
6136,Richard Reyes,16944 Fifth,Washington,DC,20390
6141,Mary Reed,7158 Ninth,Cedarville,CA,96104
6146,Linda Lewis,12276 Sixth,Clyde,NC,28721
6151,John Bailey,13827 Eighth,Farmington,NM,87402
6156,Jessica Watson,4714 Cedar,Nashville,TN,37229
6161,Mary Kim,13185 Park,Baconton,GA,31716
6166,Richard Murphy,245 Sixth,Kansas City,KS,66105
6171,Richard King,9190 Pine,Asheboro,NC,27205
6176,Mary Cox,16774 Hill,Midfield,TX,77458
6181,William Wilson,6540 Elm,Easton,PA,18040
6186,Richard Baker,16356 Pine,Naranjito,PR,00719
6191,Jennifer Ortiz,4378 View,Cheboygan,MI,49721
6196,Michael Cook,6112 Sixth,Winifred,MT,59489
6201,Linda Gomez,7953 Washington,Biggers,AR,72413
6206,Thomas Richardson,9307 Third,Noxon,MT,59853
6211,Jennifer Ruiz,4609 Park,Topeka,KS,66630
6216,Elizabeth Ramos,5056 Hill,Columbus,OH,43240
6221,James Ross,10793 View,Springfield,MA,01103
6226,Linda Williams,9408 Second,Brooklyn,NY,11214
6231,Jessica Gonzales,11551 Main,Bovina Center,NY,13740
6236,Robert Hughes,6995 Seventh,Snyder,OK,73566
6241,Linda Clark,16723 Cedar,Colonia,NJ,07067
6246,Mary Gray,10090 Eighth,Rio Frio,TX,78879
6251,Elizabeth Peterson,3496 Main,Penwell,TX,79776
6256,David Nguyen,3764 Lake,Albuquerque,NM,87111
6261,Barbara Jackson,4854 Evergreen,Crown Point,NY,12928
6266,Karen Thomas,6603 Eighth,Crossroads,NM,88114
6271,Thomas Ruiz,11845 Maple,Youngstown,OH,44501
6276,Michael Ramirez,8553 Evergreen,Henderson,NC,27537
6281,Joseph Gonzales,10314 Pine,Littleton,MA,01460
6286,Robert Collins,4483 Third,Virginia Beach,VA,23467
6291,Robert Castillo,18866 Hill,Walkersville,WV,26447
6296,Patricia Nguyen,18846 Elm,Clarkston,MI,48348
6301,Michael Perez,7641 Maple,Johnston,SC,29832
6306,William Perez,14263 Lake,Lodgepole,NE,69149
6311,Linda Clark,10069 Maple,Duncan,MS,38740
6316,Thomas Reyes,8845 Oak,Gifford,PA,16732
6321,Mary Baker,9509 Maple,Ashley,OH,43003
6326,Thomas Flores,7178 Maple,FPO,NY,09577
6331,Michael Lee,510 Hill,Copen,WV,26615
6336,Susan Nelson,15851 Seventh,Antes Fort,PA,17720
6341,Jessica Jones,15265 Cedar,Pascagoula,MS,39568
6346,Richard Wright,5183 Seventh,Grand Rapids,MI,49510
6351,Barbara Anderson,17671 Third,Saint Louis,MO,63117
6356,Sarah Torres,2419 Lake,Kellogg,MN,55945
6361,Joseph Howard,5186 Washington,Majestic,KY,41547
6366,Elizabeth Gray,6209 Third,Columbiaville,NY,12050
6371,David Hughes,19230 Oak,Jurupa Valley,CA,92509
6376,Jessica Parker,17511 Ninth,Lake Charles,LA,70612
6381,James Ward,8777 Cedar,Lafferty,OH,43951
6386,Michael Martin,19599 Pine,Jeffersonville,IN,47199
6391,Patricia Perez,8300 Ninth,El Centro,CA,92243
6396,Thomas Jones,17581 Seventh,Milton,DE,19968
6401,Thomas Lopez,5708 Third,Lasara,TX,78561
6406,Mary Reyes,11613 Evergreen,Lansing,MI,48916
6411,Karen Morales,2462 Pine,Fort Loramie,OH,45845
6416,Linda Castillo,13092 Fifth,Dayton,OH,45417
6421,Mary Alvarez,13574 Fifth,Waverly,IL,62692
6426,Barbara Gomez,19838 First,West Hartford,CT,06137
6431,Mary Stewart,4895 View,Plymouth,FL,32768
6436,John White,15414 Ninth,Tulsa,OK,74141
6441,Linda Cook,14658 Washington,Washingtonville,OH,44490
6446,Jessica Bennet,4209 Second,Grenada,MS,38902
6451,James Bennet,10823 Lake,Empire,CA,95319
6456,Richard Edwards,3668 Pine,Lecontes Mills,PA,16850
6461,Jessica Gutierrez,14828 Maple,Oakland,CA,94601
6466,Barbara Nguyen,4514 First,Columbia,MD,21045
6471,Charles Lee,14225 Elm,Austin,TX,78739
6476,Michael Richardson,6740 Eighth,Cannonville,UT,84718
6481,Robert Williams,13125 Third,Alexis,IL,61412
6486,Jennifer Foster,14722 Second,Tyner,KY,40486
6491,Sarah Hill,1852 Pine,Port Charlotte,FL,33981
6496,Susan Young,18730 Sixth,Novato,CA,94945
6501,Joseph Smith,2309 Sixth,Chatfield,MN,55923
6506,Linda Reyes,15089 Washington,Chattanooga,TN,37450
6511,Charles Jimenez,2135 Lake,Petaluma,CA,94953
6516,James Hernandez,16398 Second,Nevada,IA,50201
6521,John Scott,14591 Third,Groton,MA,01470
6526,Karen Robinson,14657 Oak,Grand Rapids,MI,49534
6531,Joseph Martinez,15519 Elm,Bolckow,MO,64427
6536,Thomas Morales,17370 First,Hiwasse,AR,72739
6541,Susan Scott,4732 View,Virginia,MN,55792
6546,Jennifer Moore,12650 Sixth,Oklahoma City,OK,73140
6551,Susan Brown,4475 Fourth,Geary,OK,73040
6556,Barbara Morales,4739 Main,Shobonier,IL,62885
6561,Joseph Long,5536 Hill,Baird,TX,79504
6566,Patricia Howard,3301 Eighth,Picayune,MS,39466
6571,Karen Alvarez,807 Second,Cincinnati,OH,45230
6576,Sarah Nguyen,9166 Pine,Glenwood,UT,84730
6581,Sarah Johnson,16939 Washington,Boone,CO,81025
6586,William Gray,6662 Main,Golden,CO,80401
6591,Richard Garcia,13300 Maple,Minneola,KS,67865
6596,James Mitchell,1079 Seventh,Charlotte,NC,28290
6601,Joseph Lewis,10631 Main,Des Moines,IA,50360
6606,Michael Richardson,8765 Sixth,Alton,KS,67623
6611,William Cooper,19638 Fifth,Novelty,OH,44073
6616,Linda Gray,1724 Fifth,Lyon Station,PA,19536
6621,Patricia Campbell,9064 Eighth,Baton Rouge,LA,70813
6626,Charles King,9732 Oak,Conesville,IA,52739
6631,Sarah Reed,18554 Sixth,Plato,MO,65552
6636,Sarah Roberts,9328 Ninth,Minneapolis,MN,55430
6641,Karen Perez,10466 Oak,Calhoun,GA,30701
6646,James Wood,5685 Fourth,Little Sioux,IA,51545
6651,Mary Robinson,19821 Pine,Evans,LA,70639
6656,Jessica Roberts,8820 Evergreen,Bayard,WV,26707
6661,Patricia Lewis,14589 Pine,Prairie Grove,AR,72753
6666,Richard Walker,1014 Third,Benkelman,NE,69021
6671,Patricia Green,11312 Fifth,Pauma Valley,CA,92061
6676,Jessica Rivera,19953 Eighth,Neola,IA,51559
6681,Patricia Kim,3507 Pine,Getzville,NY,14068
6686,Elizabeth Martin,16091 Elm,Blythe,CA,92226
6691,Patricia Long,967 Eighth,East Windsor,CT,06088
6696,John Foster,8494 Oak,Collinsville,CT,06022
6701,Susan Jackson,19441 Park,San Antonio,TX,78292
6706,Mary Mitchell,15531 Pine,Quasqueton,IA,52326
6711,David Ramirez,11286 Elm,Marion,NC,28752
6716,Sarah Young,5150 Sixth,Sudan,TX,79371
6721,Susan Ramos,18226 Lake,Centerville,NY,14029
6726,Robert Turner,14405 Fifth,Kennesaw,GA,30156
6731,Elizabeth Walker,16064 Second,Darwin,CA,93522
6736,Patricia Rogers,18650 Hill,Devault,PA,19432
6741,David Patel,16035 Fourth,Winnetka,CA,91396
6746,Thomas Patel,9982 Park,Sacramento,CA,95851
6751,Sarah Perez,931 Seventh,Tampa,FL,33650
6756,John Wilson,5755 Third,Slaughters,KY,42456
6761,Michael Gray,15567 Ninth,Henderson,AR,72544
6766,Charles Diaz,16493 Pine,Baileyville,ME,04694
6771,Charles Bailey,10335 Main,New Market,AL,35761
6776,Thomas Roberts,9501 Evergreen,Memphis,TN,38159
6781,Jennifer Reed,6876 Park,Santa Ana,CA,92712
6786,Charles Ross,12644 Oak,Tracy,CA,95304
6791,John Turner,7283 View,Richmond,VA,23221
6796,Richard Ross,2192 View,Biddeford,ME,04005
6801,Thomas Wilson,2283 Cedar,Armington,IL,61721
6806,Karen Sanchez,11521 Hill,Atlanta,GA,30328
6811,Thomas Ruiz,8456 Fourth,East Freedom,PA,16637
6816,Joseph Hill,3602 Hill,Caballo,NM,87931
6821,William Ramirez,7620 Fourth,Runnemede,NJ,08078
6826,Barbara Phillips,15699 Main,Houston,TX,77258
6831,Jessica Jimenez,8381 Oak,Lacoochee,FL,33537
6836,Linda Edwards,9172 Seventh,Little Rock,AR,72219
6841,Thomas Watson,3514 Sixth,Letts,IA,52754
6846,Jessica Hernandez,1437 Pine,Ocala,FL,34470
6851,Patricia Thompson,7976 Fifth,Las Cruces,NM,88005
6856,David Rivera,10856 First,Willowbrook,IL,60527
6861,Thomas Foster,14415 Lake,Clayton,GA,30525
6866,Linda Mendoza,19609 Lake,Jefferson City,MO,65105
6871,Barbara Ward,14869 View,Nipton,CA,92364
6876,Robert King,10359 Second,Albion,MI,49224
6881,Richard Lewis,12284 Second,Millersview,TX,76862
6886,Joseph Moore,501 Oak,Graysville,TN,37338
6891,Mary Parker,8594 Maple,Norcatur,KS,67653
6896,John Hernandez,14856 Main,Votaw,TX,77376
6901,Mary Sanchez,7967 View,Hermon,NY,13652
6906,Jennifer Jones,118 Fourth,Portland,PA,18351
6911,David Morris,1403 Main,Preston,MN,55965
6916,Susan Perez,8133 Fifth,Fort Bragg,NC,28307
6921,Thomas Ortiz,9095 Elm,Kingsbury,TX,78638
6926,Linda Lee,3063 Fourth,Rupert,ID,83350
6931,Joseph Rodriguez,3517 Evergreen,Cluster Springs,VA,24535
6936,Susan Brooks,14024 First,Belle Mina,AL,35615
6941,Robert Turner,1914 Oak,San Francisco,CA,94172
6946,Richard Allen,2334 Oak,North Hills,CA,91393
6951,Mary Jimenez,11551 Evergreen,Heathsville,VA,22473
6956,Charles Chavez,571 First,Laconia,NH,03247
6961,John Martinez,10123 Sixth,Noxon,MT,59853
6966,John Turner,384 Cedar,Portage,OH,43451
6971,John Perez,10377 Park,Strabane,PA,15363
6976,Thomas Hill,15752 Sixth,Coffeyville,KS,67337
6981,Sarah Reed,280 Fourth,Staplehurst,NE,68439
6986,Joseph Brooks,2321 Elm,Newland,NC,28657
6991,Patricia Hernandez,11722 Fifth,Burnham,ME,04922
6996,Jennifer Hernandez,9406 Pine,Circle,MT,59215
7001,Jennifer Thompson,16164 First,Allenwood,PA,17810
7006,Susan Gray,18435 Lake,Admire,KS,66830
7011,Charles Reed,297 Main,McGuffey,OH,45859
7016,Thomas Cook,1799 Ninth,Harrell,AR,71745
7021,Joseph Nelson,9120 Fifth,Elgin,IL,60121
7026,Thomas Lee,9894 Second,Dorr,MI,49323
7031,Joseph Ramirez,4198 Cedar,Linden,WI,53553
7036,Barbara Sanchez,19209 Lake,Winston Salem,NC,27106
7041,Susan Davis,16589 Oak,Maryus,VA,23107
7046,Jennifer Torres,19286 Hill,Kings Mountain,NC,28086
7051,Mary Nguyen,6047 First,Bronwood,GA,39826
7056,Patricia Gonzales,16486 Main,Foreman,AR,71836
7061,William Smith,13367 Third,Schley,VA,23154
7066,Thomas Rodriguez,15073 Washington,Asbury Park,NJ,07712
7071,Sarah Wilson,8885 First,Farmville,VA,23901
7076,Michael Alvarez,3582 Fifth,Tulsa,OK,74110
7081,Michael Ward,13849 Lake,San Antonio,TX,78265
7086,Jennifer Allen,3651 View,Woody Creek,CO,81656
7091,Patricia Morales,4102 Fifth,Paradise,PA,17562
7096,Barbara Jimenez,4605 Fifth,Lowry,VA,24570
7101,Susan Kim,5667 Second,Lake City,FL,32056
7106,Linda Morales,9617 Evergreen,Arcola,IN,46704
7111,David Gutierrez,10095 Ninth,Brooklyn,NY,11218
7116,Richard Walker,14734 Main,Jersey City,NJ,07399
7121,Elizabeth Clark,13835 Lake,Blairstown,MO,64726
7126,David Howard,1878 Pine,Sweet Valley,PA,18656
7131,Jessica Ramirez,4839 Fourth,Richwood,MN,56577
7136,Jennifer Chavez,3787 Washington,Houston,TX,77013
7141,Jessica Castillo,12965 Evergreen,Washington,DC,20013
7146,Thomas Perez,18162 View,South Fulton,TN,38257
7151,Robert Chavez,16644 Seventh,Rosemont,NJ,08556
7156,Karen Rogers,9412 Second,DPO,NY,09467
7161,John Ramos,9905 Washington,Morrisville,MO,65710
7166,Richard Rogers,17819 Main,Friendship,WI,53934
7171,Barbara Foster,8801 Second,Montcalm,WV,24737
7176,James Chavez,18275 Pine,Elmwood Park,IL,60707
7181,Richard Hughes,7672 Park,Sparland,IL,61565
7186,Karen Rodriguez,14512 Washington,Magness,AR,72553
7191,Michael Rivera,44 Third,San Diego,CA,92126
7196,Joseph Kim,13232 Main,Chattaroy,WV,25667
7201,Thomas Gomez,793 Seventh,Shreveport,LA,71130
7206,Mary Hill,16531 Sixth,New Orleans,LA,70179
7211,Charles Campbell,8614 First,Silver City,IA,51571
7216,Susan Price,11631 Park,Mineral,CA,96063
7221,Robert Miller,4794 Fourth,Brookline,MA,02445
7226,Linda Cox,11243 Sixth,Hephzibah,GA,30815
7231,Mary Martin,12362 Ninth,Oilville,VA,23129
7236,Robert Chavez,4228 Seventh,Walthill,NE,68067
7241,Thomas Jimenez,5623 Second,Frankenmuth,MI,48734
7246,Thomas Miller,4166 Lake,Ridgefield,CT,06877
7251,Barbara Foster,3685 Eighth,Tipton,PA,16684
7256,Sarah Cooper,11153 Eighth,Toulon,IL,61483
7261,Mary Gutierrez,19629 Seventh,Lead Hill,MO,72643
7266,Linda Baker,12611 Fourth,Fishers Landing,NY,13641
7271,Joseph Alvarez,2600 Third,Oakland,CA,94604
7276,Thomas Roberts,16122 Eighth,Doswell,VA,23047
7281,Susan Edwards,16105 View,Steele,MO,63877
7286,Robert James,7706 View,Ensenada,PR,00647
7291,Barbara Allen,11451 Eighth,Garvin,OK,74736
7296,David Stewart,6967 Fourth,Huxford,AL,36543
7301,Mary Gutierrez,13824 Washington,Oklahoma City,OK,73108
7306,Jessica Watson,7565 View,Hornbeak,TN,38232
7311,Jessica Sanchez,12558 Eighth,El Paso,TX,79943
7316,Charles Davis,1595 Lake,Quinebaug,CT,06262
7321,Jessica Johnson,17952 First,Kenner,LA,70063
7326,Richard James,9802 Ninth,Miami,FL,33130
7331,Robert Ramos,12781 Washington,Fort Worth,TX,76111
7336,Richard Lewis,7369 Second,APO,NY,09861
7341,Mary Kelly,12208 Hill,Ovett,MS,39464
7346,Karen Chavez,10371 Park,Williamsburg,KY,40769
7351,Thomas Morgan,3177 Washington,Walton,KY,41094
7356,Linda Gomez,9863 Sixth,Pensacola,FL,32524
7361,Thomas Ramirez,10995 View,Hammond,IN,46324
7366,Richard Morris,1240 Evergreen,Beaumont,TX,77725
7371,Michael Foster,18191 Fourth,Midland,MI,48670
7376,Charles James,15419 Second,Columbus,GA,31907
7381,Charles Collins,15083 View,Cedar Bluff,VA,24609
7386,Elizabeth Thompson,5934 Cedar,Teec Nos Pos,AZ,86514
7391,Richard Sanchez,5315 First,South Sutton,NH,03273
7396,Richard Adams,2389 Oak,Macon,GA,31207
7401,Karen Gutierrez,3457 Seventh,Sabael,NY,12864
7406,Thomas Parker,3629 Main,Grosse Pointe,MI,48230
7411,John Cox,7895 Eighth,Kirtland Air Force Base,NM,87117
7416,Joseph Thomas,19595 Second,Tyner,NC,27980
7421,Thomas Ruiz,17622 Eighth,Huntington,WV,25719
7426,James Bennet,13955 Ninth,Crescent Valley,NV,89821
7431,Robert Phillips,5180 Ninth,Springfield,MA,01104
7436,Jessica Moore,3385 Lake,Salt Lake City,UT,84143
7441,Susan James,5286 Main,Olds,IA,52647
7446,William Walker,8582 Fourth,Salt Lake City,UT,84109
7451,John Brown,2955 Oak,Lizemores,WV,25125
7456,Richard Price,16209 Cedar,Austin,TX,78734
7461,Sarah Martin,16723 Evergreen,Wilmer,TX,75172
7466,David Brooks,2908 Park,Perth Amboy,NJ,08862
7471,Susan Gray,13191 Third,Dry Run,PA,17220
7476,Robert Watson,8665 Seventh,San Diego,CA,92103
7481,Sarah Parker,264 Eighth,Ennis,MT,59729
7486,Linda Young,3391 Lake,Los Gatos,CA,95031
7491,Patricia Rodriguez,18270 Pine,Cedar Rapids,IA,52401
7496,Michael Sanchez,10571 Park,Brooklyn,NY,11218
7501,Charles Hill,18259 Fourth,Chili,WI,54420
7506,Mary Adams,18024 Main,North Chatham,NY,12132
7511,Richard Foster,8265 Sixth,Springfield,MA,01101
7516,Barbara Hernandez,17369 Second,Flensburg,MN,56328
7521,Robert Cruz,12226 Lake,McComb,MS,39648
7526,Joseph Gonzales,15256 Seventh,Smithsburg,MD,21783
7531,Robert Campbell,7708 Hill,Carrollton,GA,30112
7536,Sarah Collins,19650 Hill,Pawtucket,RI,02860
7541,Karen Ramirez,19817 Hill,Elizabethtown,IN,47232
7546,Jennifer Hughes,8617 Elm,Hydesville,CA,95547
7551,William Jones,1199 Hill,Magnolia,OH,44643
7556,William Mendoza,14386 Washington,Golden,MS,38847
7561,Richard Hernandez,7322 Second,Arco,MN,56113
7566,Jessica Cook,19506 Seventh,Prairie Hill,TX,76678
7571,John Kim,8794 Oak,Millerville,AL,36267
7576,Jennifer Nelson,16410 Seventh,Willards,MD,21874
7581,Charles Long,5025 Sixth,Sequatchie,TN,37374
7586,William Hall,10529 Pine,Pacific Grove,CA,93950
7591,Sarah Diaz,5333 Hill,Little Silver,NJ,07739
7596,Charles Lopez,10486 Seventh,Biddeford,ME,04005
7601,Mary Cox,6272 Hill,Samburg,TN,38254
7606,James Sanders,19923 Oak,Shoshone,ID,83352
7611,Jessica Clark,10604 Eighth,Converse,IN,46919
7616,Karen Reyes,11676 Oak,New Salem,ND,58563
7621,John Watson,12058 Park,Brady Lake,OH,44211
7626,Thomas Rivera,377 Ninth,Chelsea,MI,48118
7631,Karen Hill,10591 Second,Ardara,PA,15615
7636,Robert Nguyen,6601 Third,Niagara Falls,NY,14303
7641,Richard Davis,16075 Maple,Wilton,CA,95693
7646,Karen Morgan,19855 Maple,Waycross,GA,31502
7651,Linda Turner,14074 First,Fort Worth,TX,76190
7656,David Diaz,17282 Ninth,Gibbstown,NJ,08027
7661,Robert Castillo,6572 Eighth,Kingsport,TN,37664
7666,Joseph Parker,18816 Fifth,Reading,MN,56165
7671,Joseph Smith,11305 Pine,Northville,MI,48167
7676,James Rogers,9396 Hill,Bainville,MT,59212
7681,Mary King,8457 Fourth,North Norwich,NY,13814
7686,Michael Taylor,14170 Elm,Hayes,SD,57537
7691,Susan Miller,10970 Cedar,Beallsville,PA,15313
7696,Richard Brown,4893 View,Marshall,IN,47859
7701,Sarah Moore,609 Washington,Milton,IN,47357
7706,Linda Wright,4685 First,Ireland,WV,26376
7711,Robert Kim,14295 Evergreen,Tucson,AZ,85775
7716,Jessica Sanchez,16609 Seventh,Houston,TX,77236
7721,William Evans,1880 First,Benedict,MN,56436
7726,Jessica Gutierrez,19505 Eighth,Orogrande,NM,88342
7731,Robert Perez,17483 Washington,Malmo,NE,68040
7736,William White,1869 Pine,Carr,CO,80612
7741,Thomas Torres,9492 Seventh,Saint John,IN,46373
7746,John Wood,959 Ninth,Mound,MN,55364
7751,Michael Jones,15047 View,Montgomery,AL,36102
7756,Susan Rivera,2500 Park,Las Vegas,NV,89131
7761,Barbara Patel,8905 Fifth,Castro Valley,CA,94552
7766,Jennifer Collins,2059 Second,Amarillo,TX,79119
7771,David Hall,18947 Park,Winnetka,CA,91396
7776,John Hughes,18833 View,Benld,IL,62009
7781,Jessica Lopez,11296 Ninth,Nome,ND,58062
7786,Mary Wilson,9807 Seventh,New Melle,MO,63365
7791,Charles Evans,1762 Ninth,Toronto,KS,66777
7796,Michael Myers,10051 Washington,Spencer,WI,54479
7801,Jennifer Collins,7195 Elm,Buhl,ID,83316
7806,David Rogers,15185 Fifth,Baton Rouge,LA,70806
7811,Charles Ward,9115 Seventh,Deer,AR,72628
7816,John Lopez,19087 Oak,Springfield,MO,65805
7821,Linda Mitchell,2383 Third,Berwind,WV,24815
7826,Mary Baker,115 Main,Del Rio,TX,78847
7831,James Green,5393 Maple,Guasti,CA,91743
7836,Linda Green,11105 View,Minneapolis,MN,55406
7841,Joseph Scott,4269 Oak,Pueblo,CO,81010
7846,Jennifer White,5892 Main,Catheys Valley,CA,95306
7851,David Lewis,3633 Pine,Amboy,MN,56010
7856,David Mendoza,6564 Third,Ripon,CA,95366
7861,Patricia Myers,14396 Main,Vance,AL,35490
7866,Mary Scott,17044 View,Tyrone,OK,73951
7871,Patricia Wood,1089 Oak,Raynham Center,MA,02768
7876,Susan Mitchell,16154 Third,Columbus,MS,39705
7881,Karen Sanders,8359 Elm,Venus,FL,33960
7886,Richard Diaz,12472 Cedar,Mayhill,NM,88339
7891,Barbara Williams,1624 Park,Monmouth Junction,NJ,08852
7896,Mary Carter,18889 Third,Chicago,IL,60637
7901,John Hall,4386 Ninth,Saint Johnsbury Center,VT,05863
7906,Joseph Cook,15625 Third,Elk Grove,CA,95759
7911,Barbara Ross,4821 Lake,East Prairie,MO,63845
7916,David Foster,12856 Third,Colcord,WV,25048
7921,Sarah Rogers,3250 Washington,Sullivan,KY,42460
7926,Patricia Collins,11281 Hill,Channing,TX,79018
7931,Susan Foster,4226 Sixth,Birmingham,AL,35201
7936,Barbara Moore,2187 Main,Delaplaine,AR,72425
7941,David Castillo,8905 Third,Magnolia,NC,28453
7946,Richard Wood,19937 Sixth,Casmalia,CA,93429
7951,Charles Phillips,12631 Elm,Old Mystic,CT,06372
7956,Thomas Nelson,12880 Maple,Reston,VA,20191
7961,Richard Torres,17960 Fifth,Waterboro,ME,04087
7966,Jessica Brooks,3943 Fourth,Destin,FL,32541
7971,Patricia Stewart,9928 Hill,Furman,SC,29921
7976,Linda Allen,413 Fifth,Chicago,IL,60670
7981,David Lewis,10025 Cedar,Oklahoma City,OK,73116
7986,Karen Patel,11109 Park,Coffey,MO,64636
7991,David Hall,13392 Washington,Allen,NE,68710
7996,Jessica Diaz,9023 Third,Baltimore,MD,21215
8001,David Ortiz,8711 Pine,Newark,TX,76071
8006,Karen Morgan,8980 Maple,Twin Mountain,NH,03595
8011,Mary Smith,8337 Seventh,East Middlebury,VT,05740
8016,Patricia Jones,19530 Fifth,Keatchie,LA,71046
8021,Elizabeth Murphy,1506 Oak,Normantown,WV,25267
8026,Sarah Gutierrez,16547 Fourth,Philippi,WV,26416
8031,Barbara Gutierrez,5978 Fourth,Skaneateles,NY,13152
8036,Susan Ramos,15128 Maple,Greenville,WI,54942
8041,Michael Thomas,18898 Fifth,Lodi,NJ,07644
8046,James Allen,16993 Fifth,Elkins,AR,72727
8051,Patricia Hernandez,2365 Elm,APO,NY,09305
8056,Robert Gutierrez,3476 Park,Larchmont,NY,10538
8061,Barbara Jackson,908 Pine,Sweeny,TX,77480
8066,Joseph Gutierrez,14954 Park,APO,NY,09010
8071,David Gonzales,3553 Hill,Ingraham,IL,62434
8076,John Parker,15402 Fifth,Largo,FL,33774
8081,Elizabeth Hughes,9506 Evergreen,Plentywood,MT,59254
8086,William Johnson,13453 Oak,Swanton,NE,68445
8091,Elizabeth Mitchell,19219 Seventh,Pittsburgh,PA,15286
8096,Jessica Ortiz,16293 Ninth,Barstow,IL,61236
8101,Robert Thomas,3682 Main,Denver,CO,80266
8106,Elizabeth Reyes,528 Hill,Mansfield,IL,61854
8111,David Price,8674 Sixth,Russell,PA,16345
8116,Elizabeth Perez,5358 Hill,El Paso,TX,88518
8121,Susan Patel,8047 View,Aberdeen Proving Ground,MD,21005
8126,James Nguyen,8727 Evergreen,Sulphur,IN,47174
8131,Richard Anderson,45 View,Saint Cloud,FL,34773
8136,Barbara Martinez,9770 Fifth,Petersburg,MI,49270
8141,Mary Roberts,11231 Eighth,Cambridge,VT,05444
8146,John Kim,9861 Elm,Eldon,IA,52554
8151,William Cook,6318 Cedar,Santa Clara,CA,95056
8156,Thomas Wood,15796 Maple,Grant,OK,74738
8161,Jennifer Patel,15763 Cedar,Syracuse,NY,13209
8166,Barbara Ortiz,10971 Pine,Woodridge,NY,12789
8171,Jessica Brown,2325 Fourth,Pollock Pines,CA,95726
8176,James Rodriguez,6402 Maple,East Stone Gap,VA,24246
8181,John Hill,13190 Cedar,Dublin,VA,24084
8186,David Rogers,15929 Seventh,Inver Grove Heights,MN,55077
8191,James Rivera,7787 Oak,Dallas,TX,75260
8196,Elizabeth Long,19482 Fourth,Richmond,VA,23290
8201,David Hall,2116 Fifth,Lamberton,MN,56152
8206,Michael Robinson,11168 Third,Crimora,VA,24431
8211,Joseph Cook,2217 Oak,Walford,IA,52351
8216,John Diaz,18934 Sixth,Elizabethton,TN,37644
8221,Michael Ramirez,10082 Third,Sacaton,AZ,85147
8226,Patricia Ramos,9322 Second,Yerkes,KY,41778
8231,Michael Peterson,4742 Main,Jupiter,FL,33469
8236,Charles Evans,16443 Fourth,Fort Bliss,TX,79918
8241,Thomas Baker,12429 First,Wildorado,TX,79098
8246,Thomas Gonzales,19143 Seventh,Smyrna,MI,48887
8251,James Hill,2510 Evergreen,Adamsville,RI,02801
8256,John Roberts,15615 Fifth,Crescent City,FL,32112
8261,James Morris,9548 Oak,Pena Blanca,NM,87041
8266,John Howard,5842 First,Jacksonville,IL,62650
8271,David Wright,9115 Cedar,Coeymans,NY,12045
8276,Michael Stewart,13569 View,Holland,MI,49422
8281,James Cruz,17258 Park,Boyd,TX,76023
8286,Barbara Jones,13106 Maple,Bixby,OK,74008
8291,John Reed,19627 Third,Blairsville,GA,30514
8296,Elizabeth Rivera,10817 View,Kylertown,PA,16847
8301,Robert Turner,808 Ninth,Melfa,VA,23410
8306,William Gonzales,6863 View,Saint Petersburg,FL,33710
8311,Susan Clark,8625 First,San Diego,CA,92149
8316,David Thompson,2009 Cedar,Newark,NJ,07192
8321,William Mitchell,5264 Park,Offerman,GA,31556
8326,Susan Jones,9082 Pine,Oxford,NY,13830
8331,Michael Diaz,2851 Third,Vinton,CA,96135
8336,Sarah Rivera,435 Second,Wildwood,PA,15091
8341,Michael Jackson,1080 Evergreen,Thompson Falls,MT,59873
8346,Jennifer Hill,14341 Seventh,Ruby,NY,12475
8351,Richard Cox,13083 Third,Barium Springs,NC,28010
8356,Sarah Carter,6977 Fifth,Murdock,FL,33938
8361,William Edwards,9593 Sixth,Pender,NE,68047
8366,Jennifer Ramos,4278 Washington,Lincolnshire,IL,60069
8371,Mary Parker,16785 Hill,Santa Isabel,PR,00757
8376,Patricia Phillips,17314 Sixth,Franklin,WI,53132
8381,Barbara Cooper,10556 Lake,Albany,KY,42602
8386,Thomas Cook,7072 Park,Rancho Cucamonga,CA,91729
8391,Richard Rogers,1258 Oak,Osco,IL,61274
8396,Charles Ramirez,1928 Maple,Austerlitz,NY,12017
8401,Elizabeth Price,12398 Park,Spring Hill,FL,34609
8406,Thomas Baker,2051 Washington,Altamont,NY,12009
8411,David Lopez,7222 Second,Marine on Saint Croix,MN,55047
8416,Mary Gray,15724 Park,Solon,ME,04979
8421,Mary Scott,16877 View,Titusville,FL,32780
8426,Barbara Cook,6949 Seventh,Killbuck,OH,44637
8431,Robert Reed,5448 Hill,Mansfield,AR,72944
8436,David Flores,3521 Fifth,Littlestown,PA,17340
8441,Sarah Flores,7711 Eighth,Charenton,LA,70523
8446,Barbara Kim,19954 Main,Coram,NY,11727
8451,John Johnson,1681 Eighth,Bangor,MI,49013
8456,Elizabeth Rodriguez,18223 Seventh,Roanoke,VA,24005
8461,Michael Wright,1399 Second,Westtown,PA,19395
8466,Linda Sanders,3013 Seventh,Dayton,OH,45409
8471,Jessica Mendoza,13126 Ninth,Minneapolis,MN,55413
8476,Mary Johnson,11030 Fourth,Fisher,LA,71426
8481,Jennifer Moore,7084 Evergreen,Woodbury,VT,05681
8486,Elizabeth Ward,7255 Fifth,Checotah,OK,74426
8491,James Ortiz,15462 View,Sacramento,CA,94248
8496,Joseph Harris,9891 First,Chilo,OH,45112
8501,Mary Thompson,6327 Fifth,Truth or Consequences,NM,87901
8506,Linda Cooper,6965 First,San Antonio,TX,78203
8511,Charles Evans,18136 Cedar,Martinsville,IN,46151
8516,David Cooper,14043 Maple,North Las Vegas,NV,89032
8521,Karen Williams,6197 Third,FPO,NY,09625
8526,Susan Green,12140 Maple,Des Allemands,LA,70030
8531,Thomas Bailey,9239 Second,Manassas,VA,20113
8536,Jessica Gomez,5577 Fourth,Reedy,WV,25270
8541,Robert Ramos,12499 Lake,Cedar Rapids,IA,52411
8546,Jessica Taylor,3966 Maple,Eitzen,MN,55931
8551,James Alvarez,11216 Elm,Amarillo,TX,79120
8556,Linda Miller,15965 View,Reddick,FL,32686
8561,Linda Bailey,3775 Cedar,Denver,CO,80249
8566,Susan Miller,16965 First,McDowell,VA,24458
8571,Barbara Young,16839 Eighth,Picatinny Arsenal,NJ,07806
8576,Linda Stewart,2087 Second,Santa Fe,NM,87503
8581,Charles Hughes,1859 Third,Mauckport,IN,47142
8586,Karen Watson,7682 Lake,Rapid River,MI,49878
8591,David Robinson,849 Maple,El Paso,TX,88536
8596,Sarah Williams,12578 Hill,Holmdel,NJ,07733
8601,Robert Chavez,9831 Third,Indianapolis,IN,46239
8606,Barbara Reed,811 Oak,Nova,OH,44859
8611,Barbara Scott,8085 View,Kent,OH,44242
8616,Barbara Allen,12496 Elm,Lima,IL,62348
8621,Charles Peterson,6933 First,Pine Level,NC,27568
8626,Thomas Reyes,13830 Third,Bogart,GA,30622
8631,Robert Johnson,6546 Evergreen,Hastings,NE,68901
8636,Joseph Wright,6733 Cedar,Taft,OK,74463
8641,Sarah Jackson,17451 Eighth,Boca Raton,FL,33481
8646,James Martin,19715 Eighth,Mars Hill,NC,28754
8651,Charles Collins,12763 Evergreen,Spring Valley,CA,91978
8656,Jessica Mitchell,9298 Hill,Stockbridge,WI,53088
8661,Linda Clark,19295 First,San Rafael,CA,94903
8666,Thomas Williams,18487 First,Pleasant Hill,MO,64080
8671,Jessica Thomas,15677 Sixth,Exeter,MO,65647
8676,John Gutierrez,3190 Ninth,Milwaukee,WI,53293
8681,Elizabeth Peterson,17708 Cedar,Poughkeepsie,AR,72569
8686,Sarah Adams,11716 Fifth,Richwood,OH,43344
8691,Charles Kelly,10976 Oak,Blanchard,ID,83804
8696,Karen Clark,11900 Seventh,Chicago Heights,IL,60411
8701,Patricia Morris,3304 Main,Nadeau,MI,49863
8706,Charles Hughes,19535 Seventh,Afton,TN,37616
8711,Karen Murphy,19161 Cedar,Spring Hill,FL,34610
8716,Sarah Jimenez,1884 First,Bleiblerville,TX,78931
8721,Michael Brown,835 Ninth,Pawnee Rock,KS,67567
8726,Richard Young,284 Fourth,North Jackson,OH,44451
8731,Richard Ramirez,8040 Oak,Moore,ID,83255
8736,Susan Robinson,9754 Fifth,Burlington,VT,05402
8741,Michael Richardson,1198 Park,Wilmington,NC,28404
8746,Jessica Alvarez,1316 First,Burlington,VT,05402
8751,Jessica White,8376 Fourth,Truro,MA,02666
8756,Patricia Gutierrez,13646 Oak,Wilmington,OH,45177
8761,Jennifer Lopez,16880 Park,Conyers,GA,30094
8766,John Bailey,1840 Main,Waldorf,MD,20601
8771,Charles Morales,7612 Lake,Livonia,MO,63551
8776,Patricia Peterson,5850 Eighth,Ropesville,TX,79358
8781,David Diaz,18445 Ninth,Perkins,MI,49872
8786,Barbara Young,2698 Oak,El Paso,TX,88556
8791,James Turner,18410 Ninth,Yuba City,CA,95993
8796,Jessica Kelly,1787 Elm,FPO,CA,96382
8801,William Sanchez,3871 Maple,Tarlton,OH,43156
8806,Patricia Diaz,9532 Sixth,Pecos,TX,79772
8811,Linda Watson,12884 Fourth,Silver Spring,MD,20903
8816,Jessica Jimenez,3301 Maple,Robards,KY,42452
8821,David Allen,3753 Seventh,Rome,GA,30165
8826,Robert Hughes,17333 Fifth,Madison,WI,53707
8831,Barbara Brown,16987 Ninth,Clinton,OK,73601
8836,Elizabeth Adams,2526 Cedar,Media,PA,19091
8841,James Morris,17050 Pine,Cumberland,VA,23040
8846,John Hall,9018 Third,Hacienda Heights,CA,91745
8851,Susan Cruz,16267 Pine,Plaucheville,LA,71362
8856,Elizabeth Roberts,4742 Washington,Henrico,VA,23231
8861,Susan Miller,1537 Pine,Wilmington,OH,45177
8866,Robert Cooper,1536 Park,Kidder,MO,64649
8871,Michael Sanders,19012 Elm,Eastlake,CO,80614
8876,William Campbell,12834 Ninth,Porter,MN,56280
8881,Richard Sanders,5973 Pine,Nampa,ID,83651
8886,Linda Reyes,17840 Eighth,Kitts Hill,OH,45645
8891,Robert Collins,2011 First,Muddy,IL,62965
8896,Robert Chavez,2916 Park,Carson City,NV,89714
8901,John Castillo,13819 Evergreen,SaintThomas,VI,00801
8906,John Gonzales,10362 Fifth,East Sparta,OH,44626
8911,Charles Torres,7688 View,Tacna,AZ,85352
8916,Susan Hall,4334 View,Hammond,IN,46325
8921,David Ramos,3258 Fifth,Cape Vincent,NY,13618
8926,Barbara Wood,2521 Park,College Station,TX,77843
8931,Sarah Scott,2621 Hill,Fort Gratiot,MI,48059
8936,Karen Nguyen,11244 Lake,Newcomb,TN,37819
8941,Barbara Alvarez,3737 Cedar,Mountain,ND,58262
8946,David Wood,9569 Maple,Narrows,VA,24124
8951,Jennifer Clark,7538 Washington,Albert Lea,MN,56007
8956,Barbara Morris,5485 Hill,Red Valley,AZ,86544
8961,Patricia Johnson,18350 Pine,Essexville,MI,48732
8966,Michael Phillips,15949 Lake,Long Island,ME,04050
8971,James Harris,15009 Maple,Orlando,FL,32820
8976,Susan Cruz,9730 Fourth,Marlboro,NY,12542
8981,Jennifer Wood,1878 Fourth,Shuqualak,MS,39361
8986,Robert Reed,19835 Eighth,Rochdale,MA,01542
8991,Jennifer Ramirez,625 Hill,Milwaukee,WI,53288
8996,Jennifer Evans,4887 Washington,Deer River,NY,13627
9001,Barbara Lewis,16439 View,Maxwelton,WV,24957
9006,John Ward,12966 Lake,Bristol,RI,02809
9011,John Diaz,311 Maple,Duluth,MN,55812
9016,Karen Baker,18452 Fourth,Bartley,WV,24813
9021,Patricia Young,7713 Eighth,Raleigh,IL,62977
9026,Richard Evans,5250 Fifth,Walworth,WI,53184
9031,Mary Peterson,19189 Elm,Almond,NC,28702
9036,Karen Hernandez,7368 Fifth,Shawnee,KS,66226
9041,Richard Turner,10159 Seventh,Naperville,IL,60540
9046,Karen Kim,12643 Third,Oxford,AL,36203
9051,Robert King,1952 Evergreen,Phoenix,AZ,85071
9056,Jennifer Young,9931 Eighth,Commack,NY,11725
9061,Robert Harris,13400 Park,Anza,CA,92539
9066,Jessica Nelson,1894 Fifth,Nelson,MO,65347
9071,Mary Perez,4552 Second,North Turner,ME,04266
9076,Charles Foster,14750 Third,Hop Bottom,PA,18824
9081,Mary Mitchell,19886 Sixth,Woodlawn,TN,37191
9086,Elizabeth Wilson,16503 Oak,Tatamy,PA,18085
9091,Karen Nguyen,15318 Third,West Sacramento,CA,95605
9096,Karen Lewis,1024 Sixth,Roxbury,NY,12474
9101,Jennifer Rivera,871 Fourth,New Limerick,ME,04761
9106,John Reyes,18083 Washington,Pennville,IN,47369
9111,Robert Moore,15269 Oak,Blythe,CA,92225
9116,Susan Wilson,9634 Cedar,New York,NY,10027
9121,Robert Davis,18649 Ninth,Shelbyville,MI,49344
9126,Charles Williams,14196 Sixth,Wichita,KS,67232
9131,John Thomas,7232 Main,Vandalia,MO,63382
9136,James Miller,3912 Elm,Middletown,RI,02842
9141,Michael Nguyen,1295 Maple,Gallup,NM,87302
9146,William Williams,12988 Second,Aubrey,TX,76227
9151,James Walker,1654 Oak,Brookline,MA,02446
9156,Barbara Johnson,8893 Main,Sheridan,IL,60551
9161,Thomas Jimenez,7849 Elm,Lower Salem,OH,45745
9166,Michael Gonzales,11184 Fourth,Stetsonville,WI,54480
9171,Charles Rodriguez,14540 First,APO,NY,09069
9176,Mary Campbell,16630 Second,Sullivan,NH,03445
9181,Susan Castillo,9879 View,Valley Forge,PA,19484
9186,Elizabeth Price,11219 Eighth,Jarvisburg,NC,27947
9191,Charles Jackson,4310 Sixth,Newport,VT,05855
9196,Karen Harris,12403 Park,Chicopee,MA,01020
9201,James Kim,8541 Second,Bridgeville,PA,15017
9206,William Morales,17768 Lake,Indianapolis,IN,46208
9211,Sarah Moore,10824 Eighth,Randolph,UT,84064
9216,Karen Scott,1613 First,Kansas City,MO,64198
9221,Jessica Collins,2457 Hill,Albertville,AL,35950
9226,Linda Ortiz,4956 Main,Lynnville,TN,38472
9231,James Harris,19424 Second,West Hills,CA,91308
9236,Mary Moore,15745 Fourth,Campbell,OH,44405
9241,Karen Clark,14483 Maple,Cannon Ball,ND,58528
9246,Sarah Ortiz,8742 View,Gladstone,NM,88422
9251,Karen Ramirez,8914 Maple,Naperville,IL,60563
9256,William Peterson,4297 Evergreen,Pleasant Plain,OH,45162
9261,Elizabeth Price,17698 Hill,Port Charlotte,FL,33952
9266,Thomas Reed,19148 Lake,Hazelwood,MO,63042
9271,Sarah Sanders,15452 Pine,Castle,OK,74833
9276,Patricia Nguyen,16216 Lake,Winchester,ID,83555
9281,Joseph Rogers,2545 Maple,Rockford,MN,55373
9286,Jennifer Evans,18160 Seventh,Riga,MI,49276
9291,Robert Carter,3022 First,Wyandotte,OK,74370
9296,Elizabeth Gray,421 Sixth,Whitehall,PA,18052
9301,Linda Rogers,3270 Pine,Fresno,CA,93715
9306,Charles Ross,13139 Washington,Summitville,NY,12781
9311,Richard Nguyen,15339 Ninth,Tecopa,CA,92389
9316,Susan Garcia,18540 Maple,Lexington,KY,40509
9321,Elizabeth Diaz,3851 Evergreen,Angeles,PR,00611
9326,Richard Wood,17739 Main,La Fontaine,IN,46940
9331,Linda Lee,652 Washington,North Java,NY,14113
9336,Michael Jimenez,14189 Evergreen,Meadows of Dan,VA,24120
9341,Elizabeth White,282 Fifth,Wade,NC,28395
9346,John Stewart,6244 Eighth,Warren,PA,16366
9351,William Campbell,15660 Lake,Forrest City,AR,72336
9356,Linda Rivera,18147 Cedar,Otley,IA,50214
9361,Robert Howard,9019 Cedar,Spartanburg,SC,29301
9366,Jennifer Long,373 Eighth,Andrews,TX,79714
9371,Mary Reyes,19352 Third,Saint David,AZ,85630
9376,Linda Smith,1205 View,Orange,CT,06477
9381,Robert Young,7961 Ninth,Farmington,NY,14425
9386,William Wright,11648 Evergreen,Rio Vista,TX,76093
9391,Patricia Peterson,7127 Seventh,Jelm,WY,82063
9396,Linda Martinez,7411 Evergreen,Arlington,VA,22226
9401,Patricia Murphy,6248 Eighth,Sand Springs,MT,59077
9406,Sarah Martinez,980 Cedar,Dixon,IL,61021
9411,Thomas Harris,6570 View,Evansville,IN,47725
9416,Jessica Alvarez,9229 Ninth,Belle Plaine,KS,67013
9421,Patricia Nguyen,14034 Elm,Lewiston,ID,83501
9426,Joseph Foster,8138 Cedar,Oakfield,ME,04763
9431,Barbara Diaz,8261 Seventh,Gambier,OH,43022
9436,Linda Walker,5292 Fifth,Roanoke,IN,46783
9441,David Torres,13958 Elm,Waters,MI,49797
9446,Elizabeth Ortiz,17053 Washington,Summertown,TN,38483
9451,Thomas Lopez,7011 Main,Minneapolis,MN,55414
9456,Richard Cook,2137 Ninth,Limestone,PA,16234
9461,Jessica Anderson,19367 Washington,McKinney,TX,75069
9466,Sarah Richardson,4363 First,Marble Falls,TX,78654
9471,Karen Bennet,5732 Oak,Shreveport,LA,71154
9476,Mary Walker,11718 Maple,Albany,GA,31707
9481,Jessica Chavez,16742 Evergreen,North Arlington,NJ,07031
9486,John Alvarez,793 Second,Cranston,RI,02910
9491,Mary Richardson,14691 Oak,Knotts Island,NC,27950
9496,Michael Edwards,16152 Second,Hickory,NC,28602
9501,Susan Gonzales,13194 Oak,Douglas,AL,35964
9506,Patricia Nelson,14997 Hill,South Lake Tahoe,CA,96155
9511,Elizabeth Walker,18145 View,APO,CA,96264
9516,Robert Baker,19127 Fifth,Sedona,AZ,86336
9521,Linda Johnson,3284 Seventh,Auburn,PA,17922
9526,Patricia Kelly,16324 Third,Washington,DC,20506
9531,Joseph Anderson,639 Main,Start,LA,71279
9536,John Lewis,6471 First,Dumas,MS,38625
9541,Robert Kim,2846 Cedar,Denver,CO,80262
9546,Joseph Baker,13984 Seventh,Dawsonville,GA,30534
9551,Charles Green,11099 Fourth,Los Angeles,CA,90058
9556,Joseph White,9833 View,Erie,PA,16522
9561,Jennifer Stewart,9080 Eighth,Maple Springs,NY,14756
9566,John Nguyen,8187 Lake,Sacramento,CA,94296
9571,Mary Cook,10651 Oak,Westville,OH,43083
9576,Jennifer Collins,3959 Fifth,Bronx,NY,10466
9581,Susan King,8366 Park,Winthrop,MN,55396
9586,Joseph Rodriguez,8019 Park,Fort Wayne,IN,46835
9591,Linda Wood,11142 First,Merkel,TX,79536
9596,John Rogers,19338 First,Phenix,VA,23959
9601,John Torres,14031 Second,Amana,IA,52204
9606,Richard White,13128 Eighth,Knoxboro,NY,13362
9611,John Ramirez,7433 Sixth,APO,NY,09852
9616,James Martinez,4370 First,Mill Valley,CA,94942
9621,Jessica Moore,4432 Park,Simsboro,LA,71275
9626,Mary Martin,9908 Lake,Wells,ME,04090
9631,Karen Young,17385 Washington,Jelm,WY,82063
9636,David Morgan,10246 Ninth,FPO,NY,09556
9641,Richard Carter,9278 Hill,Akaska,SD,57420
9646,Linda Wilson,15835 Hill,Denton,TX,76203
9651,Patricia Campbell,10977 Washington,North Canton,CT,06059
9656,Karen Adams,19895 View,Turkey,TX,79261
9661,John Stewart,13875 Evergreen,Harrisburg,PA,17109
9666,Linda Roberts,4709 Fifth,Oelwein,IA,50662
9671,Mary Patel,5451 Park,East Texas,PA,18046
9676,Patricia Taylor,4658 Eighth,Houston,TX,77263
9681,William Allen,10902 Pine,Belhaven,NC,27810
9686,Sarah Castillo,12916 Washington,Drayton Plains,MI,48330
9691,James Lee,11608 Lake,Bandy,VA,24602
9696,Barbara Lewis,4932 Main,Malden,IL,61337
9701,Richard Murphy,13210 Washington,Shock,WV,26638
9706,Linda Martinez,12932 Lake,Locust Fork,AL,35097
9711,John Kim,13681 Oak,Tannersville,NY,12485
9716,Susan Turner,11453 Ninth,Coopers Mills,ME,04341
9721,Patricia Chavez,16792 Elm,Grimsley,TN,38565
9726,Barbara Alvarez,7142 Pine,Rex,GA,30273
9731,Karen Chavez,4400 Pine,Stanardsville,VA,22973
9736,Jessica Parker,15610 Fifth,Davenport,IA,52802
9741,David Morris,1771 Lake,Plattekill,NY,12568
9746,Elizabeth Miller,4855 Pine,Atlanta,GA,30349
9751,Karen Patel,1970 View,Brooksville,KY,41004
9756,Patricia Cox,11052 Seventh,Minneapolis,MN,55419
9761,William Robinson,16060 Ninth,Onemo,VA,23130
9766,Thomas Baker,8827 Second,Tulsa,OK,74172
9771,James Stewart,19067 Fifth,DPO,NY,09860
9776,Barbara Thomas,16541 Fifth,Center Point,TX,78010
9781,Joseph Sanchez,12787 Sixth,Chipley,FL,32428
9786,Robert Carter,1588 Cedar,Newbury Park,CA,91320
9791,Barbara Murphy,1229 Oak,Chester,WV,26034
9796,Jessica Ortiz,17008 First,Calabasas,CA,91302
9801,John Patel,4443 Park,Norcross,GA,30003
9806,Linda Peterson,5508 Ninth,Arkansaw,WI,54721
9811,Robert Phillips,4198 Seventh,Wamsutter,WY,82336
9816,Robert Lewis,16011 Elm,Tampa,FL,33616
9821,James Hall,17876 Second,Sentinel Butte,ND,58654
9826,Michael Lewis,532 Ninth,Viola,DE,19979
9831,Susan Ramirez,10374 Maple,Portlandville,NY,13834
9836,John Bailey,7801 Third,Nottingham,NH,03290
9841,Robert Clark,3940 Park,Farmersville Station,NY,14060
9846,Susan Young,12042 Oak,FPO,FL,34092
9851,Joseph Gray,5607 Eighth,Bluffton,IN,46714
9856,Sarah Sanchez,4958 Third,West Columbia,SC,29172
9861,Joseph Rivera,6699 Evergreen,Davis,IL,61019
9866,Joseph Alvarez,9702 Maple,Somerset,MI,49281
9871,Charles Richardson,323 First,Clarkston,MI,48346
9876,Linda Flores,3494 Eighth,Ridgefield Park,NJ,07660
9881,Joseph Baker,12557 View,Crescent City,FL,32112
9886,Barbara Peterson,12311 Fifth,Cloutierville,LA,71416
9891,Linda Carter,14136 Third,Lafayette,LA,70503
9896,Jessica Foster,13287 Main,Pisgah Forest,NC,28768
9901,Thomas Johnson,16854 Eighth,Wellfleet,NE,69170
9906,James Bennet,5588 Maple,El Verano,CA,95433
9911,Sarah Ward,6239 Fifth,Orlinda,TN,37141
9916,Mary Brown,8403 Eighth,Laura,OH,45337
9921,Robert Mendoza,18678 Eighth,Monrovia,IN,46157
9926,Jennifer Sanders,10251 Hill,Dolliver,IA,50531
9931,Mary Bennet,2216 Pine,San Francisco,CA,94102
9936,Elizabeth Stewart,7743 First,Grand Rapids,MI,49503
9941,Richard Wright,18897 View,Huntington,UT,84528
9946,Thomas Rodriguez,8386 Evergreen,Otto,WY,82434
9951,Barbara Robinson,5963 Second,New Holland,OH,43145
9956,Susan Ramos,16233 Elm,Mannsville,NY,13661
9961,Charles Reed,618 Second,Far Rockaway,NY,11690
9966,Michael Young,4358 Fourth,Josephine,WV,25857
9971,Charles Castillo,16614 Ninth,Kinston,NC,28502
9976,Mary Mendoza,12083 Ninth,Placerville,ID,83666
9981,Sarah Rogers,13475 Fourth,Merton,WI,53056
9986,Linda Brooks,2650 View,Valier,MT,59486
9991,David Cook,11501 Elm,Hebron,CT,06248
9996,Linda Watson,19522 Fourth,Shasta Lake,CA,96089
10000A,Joseph J. Mendoza Sr. ,13947 Main Apt 2,Huddy,KY,41534
9995A,Linda L. Richardson,15283 9th St,Hudson,OH,44237
