id,name,street,city,state,zip
5,Jessica Cox,7109 Eighth,Gilbert,AZ,85296
10,Elizabeth Ross,8044 Maple,Monticello,WI,53570
15,Jessica Miller,2938 Seventh,Birmingham,AL,35202
20,William Evans,7589 Oak,Happy,TX,79042
25,Charles Hill,4342 Evergreen,Douglas,WY,82633
30,Patricia Wilson,19196 Third,Overland Park,KS,66207
35,Susan Wright,7478 Lake,Lansing,MI,48916
40,Sarah Cruz,3282 Ninth,Knoxville,AR,72845
45,Barbara Murphy,9695 Eighth,Buford,GA,30515
50,Thomas Hall,18165 Third,Virginia,MN,55792
55,Michael Lee,3337 Main,Woodston,KS,67675
60,Susan Ross,1374 Cedar,Wheat Ridge,CO,80033
65,Linda Reed,7606 Oak,Guntown,MS,38849
70,Mary Rodriguez,17124 Seventh,Millersport,OH,43046
75,David Flores,12430 Fifth,Miami,FL,33188
80,Charles Kelly,4978 Fourth,Ewan,NJ,08025
85,Elizabeth Jackson,8801 Hill,Suffolk,VA,23434
90,Patricia Johnson,1904 Seventh,Phoenix,AZ,85068
95,James Cooper,9093 Main,Houston,TX,77272
100,Robert Hernandez,12021 Oak,Northumberland,PA,17857
105,Jennifer Price,9416 Eighth,San Pedro,CA,90733
110,Barbara Wood,2833 Cedar,Missoula,MT,59808
115,Robert Edwards,16522 Second,Caryville,FL,32427
120,Susan Rogers,16650 Maple,Azalia,MI,48110
125,Thomas Wright,11578 Oak,Colorado Springs,CO,80907
130,William Thompson,15961 Ninth,Fort Wayne,IN,46815
135,Mary Cook,8579 Pine,Godwin,NC,28344
140,Sarah Ross,15145 View,Rentiesville,OK,74459
145,Joseph James,12215 Fourth,Roanoke,VA,24003
150,Susan Flores,1845 View,Okeene,OK,73763
155,Jennifer White,11687 Hill,Bowling Green,MO,63334
160,Karen Hernandez,10562 Cedar,Atlanta,MO,63530
165,Richard Hill,9901 Park,Anderson,IN,46015
170,William Reed,10683 Third,New London,NH,03257
175,John Perez,5574 Seventh,New York,NY,10001
180,John Ross,4704 Seventh,Carleton,MI,48117
185,Karen Gray,16537 Lake,Jackson,MS,39212
190,Charles Cruz,17596 Fifth,Leesburg,FL,34748
195,David Campbell,12868 Sixth,Black Lick,PA,15716
200,Jennifer Clark,1934 Fifth,Shepherdsville,KY,40165
205,Sarah Chavez,894 View,Mill Creek,IN,46365
210,Karen Clark,10207 View,Fayetteville,NC,28314
215,Karen Parker,13515 Fourth,Danvers,IL,61732
220,Joseph Watson,19184 Main,Williamsburg,NM,87942
225,James Richardson,10323 Main,Castroville,TX,78009
230,Patricia Foster,15536 Third,Ogema,WI,54459
235,Susan Murphy,12810 Fourth,Centreville,AL,35042
240,Patricia Robinson,8586 Maple,Indianapolis,IN,46240
245,Robert Robinson,15473 First,Beverly,OH,45715
250,John Morgan,17589 Elm,Foristell,MO,63348
255,Robert Reyes,18443 Second,Beaumont,TX,77703
260,Joseph Cruz,5154 First,New Canaan,CT,06840
265,Karen Rogers,19433 First,Independence,MO,64050
270,Richard Hernandez,4986 View,Springfield,VA,22153
275,Mary Young,1754 First,Lake Waccamaw,NC,28450
280,Richard Scott,19081 Sixth,Railroad,PA,17355
285,Patricia Diaz,3449 Ninth,Lakeland,FL,33813
290,Karen James,12726 Second,West Poland,ME,04291
295,David Reed,10928 Park,Altair,TX,77412
300,Patricia Ramirez,11824 Second,Sodus,NY,14551
305,Linda Thompson,19425 Ninth,Medina,TN,38355
310,John Mitchell,6117 Hill,Alexander,IL,62601
315,Thomas Diaz,13101 Main,Washington,DC,20447
320,Patricia Allen,31 Sixth,Charlestown,MA,02129
325,Mary Myers,14338 Fifth,Bandera,TX,78003
330,James Allen,6214 Sixth,Franklin,TN,37067
335,John White,18099 Hill,North Port,FL,34290
340,Linda Howard,3632 Hill,Grand Rapids,MI,49523
345,Thomas Nelson,19292 Maple,Southampton,MA,01073
350,Thomas Myers,6007 Lake,Minneapolis,MN,55415
355,Karen Cook,8567 Evergreen,Louisville,KY,40257
360,Patricia Moore,14579 Sixth,Lastrup,MN,56344
365,Karen Martin,19137 Lake,East Ryegate,VT,05042
370,Karen White,14036 Seventh,Addieville,IL,62214
375,Linda Phillips,15847 Seventh,Faith,NC,28041
380,Linda Rivera,3916 View,Waldorf,MD,20603
385,Elizabeth Ortiz,16732 Sixth,Winesburg,OH,44690
390,Karen Gray,16426 Washington,New Orleans,LA,70141
395,Susan Miller,542 Washington,Dallas,TX,75211
400,Robert Gutierrez,10156 Maple,Scotland Neck,NC,27874
405,John Cook,8202 Washington,Cornucopia,WI,54827
410,Richard Collins,14727 Sixth,Council,ID,83612
415,James Diaz,5010 Third,Rio Rancho,NM,87124
420,Richard Martinez,15548 Main,Vanceboro,NC,28586
425,Joseph Mendoza,6697 View,Jefferson City,MO,65101
430,William Castillo,6230 Pine,Milano,TX,76556
435,Joseph Chavez,17646 Second,Chambersburg,PA,17202
440,Mary Kim,2245 Ninth,Clifton,VA,20124
445,Barbara Turner,14649 Eighth,Dexter,KS,67038
450,William Flores,12456 Ninth,Hartville,WY,82215
455,William Mitchell,6111 Maple,Buchanan,TN,38222
460,Jennifer Hill,13655 Elm,Orlando,FL,32887
465,Elizabeth Chavez,13808 Washington,Brooklyn,NY,11247
470,Joseph Cruz,13513 Third,Omaha,NE,68142
475,Richard Nguyen,597 Pine,Juncos,PR,00777
480,Thomas Mendoza,13648 Maple,Madison,SD,57042
485,Jennifer Adams,10455 Maple,Womelsdorf,PA,19567
490,James Kelly,7380 Elm,Melrose,OH,45861
495,Joseph Myers,5795 Oak,Oklahoma City,OK,73125
500,Karen Bennet,10478 Pine,Fenton,MO,63099
505,Mary Johnson,5770 Oak,Gretna,FL,32332
510,Charles Thompson,15351 Elm,Ontario,CA,91764
515,Richard Hughes,12995 Cedar,Saratoga Springs,NY,12866
520,Thomas Ortiz,8524 Cedar,Anawalt,WV,24808
525,Karen Robinson,13618 Third,Kingsville,TX,78363
530,Sarah Brooks,16095 Lake,Shreveport,LA,71162
535,Linda Murphy,8322 Maple,Manhattan,KS,66506
540,Jessica Lee,888 Eighth,National City,MI,48748
545,Sarah Robinson,6250 Park,Petersburg,MI,49270
550,David Davis,17632 Pine,Lone Tree,IA,52755
555,Robert Ross,6719 Third,Pontiac,MI,48343
560,Jennifer Morris,16900 Lake,Castor,LA,71016
565,Linda Castillo,6725 Pine,Galesburg,IL,61401
570,James Diaz,17473 Washington,San Angelo,TX,76903
575,Mary Jimenez,8682 Pine,Wales,MA,01081
580,John Edwards,7101 Eighth,Boston,MA,02222
585,Mary Castillo,709 View,Lynnville,IA,50153
590,Joseph Thompson,7237 View,Meridian,MS,39301
595,Thomas Nelson,17954 Maple,Rockville,MO,64780
600,William Nguyen,15541 Ninth,Broomfield,CO,80021
605,Robert Hughes,16555 Main,La Jolla,CA,92092
610,Jessica Nguyen,18060 First,New Windsor,MD,21776
615,Charles Moore,7942 Pine,Rumford,RI,02916
620,Jessica Martinez,16346 Lake,Fresno,CA,93708
625,Sarah Flores,13287 Washington,Waterbury,CT,06725
630,Susan Hernandez,7157 Second,Donovan,IL,60931
635,Jessica Lopez,15373 First,Ft Mitchell,KY,41017
640,John Ward,16212 Main,Barbeau,MI,49710
645,Sarah Taylor,15439 Ninth,Lincoln,NE,68509
650,Robert Williams,16083 Washington,San Antonio,TX,78265
655,Patricia Torres,16784 Third,Novi,MI,48374
660,William Davis,19733 Main,Iron River,WI,54847
665,Richard Chavez,255 Third,APO,NY,09630
670,Joseph Davis,7934 Second,APO,NY,09752
675,Linda Williams,18308 Main,Lexington,SC,29072
680,David Hill,3612 Evergreen,Green Bank,WV,24944
685,Jessica Martinez,10436 Seventh,Mer Rouge,LA,71261
690,Mary Myers,14096 Washington,Salina,UT,84654
695,James Harris,1516 Evergreen,Libby,MT,59923
700,Michael Watson,16184 Maple,Detroit,MI,48221
705,Sarah Howard,15353 Park,Rawson,OH,45881
710,Linda Adams,18610 Main,Topanga,CA,90290
715,James Stewart,6707 First,Rancho Palos Verdes,CA,90275
720,Karen Kelly,3585 Fifth,Hutsonville,IL,62433
725,Elizabeth Cook,5765 Seventh,Laporte,MN,56461
730,Jennifer Ortiz,1588 Sixth,Washington,DC,20527
735,Sarah Nelson,8293 Pine,Lakeshore,MS,39558
740,Thomas Myers,1377 Sixth,Forest Park,IL,60130
745,Richard Scott,15009 Ninth,Omaha,NE,68106
750,Elizabeth Stewart,1307 View,Newton,AL,36352
755,John Cooper,14025 Evergreen,Lynchburg,VA,24506
760,Elizabeth Ward,9081 Fifth,Foresthill,CA,95631
765,Karen Wright,19237 Evergreen,APO,CA,96323
770,Charles Watson,16426 Hill,Shreveport,LA,71154
775,John Kim,9556 Second,Gile,WI,54525
780,Sarah Ramos,6837 Lake,Brady,TX,76825
785,Jessica Jones,367 Pine,East Canaan,CT,06024
790,John Carter,68 Main,Panama City Beach,FL,32407
795,Jessica Jimenez,14160 Seventh,Washington Navy Yard,DC,20398
800,Karen Kelly,15402 Washington,Leesburg,FL,34749
805,Mary Peterson,15103 Fifth,Louisville,KY,40202
810,Susan Wood,13686 Pine,Harrisburg,AR,72432
815,David Jones,7796 First,Bronaugh,MO,64728
820,John Gutierrez,1905 Third,Charlotte Hall,MD,20622
825,Patricia Allen,18356 Pine,Roberts,WI,54023
830,Patricia Miller,16387 Fifth,Novato,CA,94998
835,Susan Cox,8531 Third,Madison,WI,53794
840,Joseph Cook,17928 Washington,Oyster Bay,NY,11771
845,Karen Martinez,2378 Hill,Brighton,CO,80601
850,John Castillo,15724 Pine,Highland,MD,20777
855,Richard Lee,1946 Eighth,Angels Camp,CA,95222
860,William Baker,16288 Fourth,Doniphan,NE,68832
865,Jessica Campbell,11253 Maple,Encino,CA,91416
870,Barbara Wood,12874 Third,Minneapolis,MN,55424
875,Jennifer Cooper,13969 Fifth,Lafferty,OH,43951
880,Linda Peterson,5503 Fourth,Clearwater,FL,33755
885,Susan Diaz,18750 Second,Allenport,PA,15412
890,Sarah Martinez,1739 Maple,San Francisco,CA,94124
895,Sarah King,15528 Lake,Drexel Hill,PA,19026
900,Sarah Foster,11846 Fourth,Pekin,ND,58361
905,Charles Lee,1492 Ninth,Trexlertown,PA,18087
910,Barbara Martinez,18986 First,Penn,PA,15675
915,Michael Wilson,19011 Maple,Salisbury,NH,03268
920,Thomas Davis,17407 Third,Marydel,MD,21649
925,Michael Rogers,1178 Third,Bernalillo,NM,87004
930,Karen Young,1794 Oak,San Diego,CA,92175
935,John Nguyen,5075 Pine,Kempton,PA,19529
940,Thomas Cook,19486 Fourth,Science Hill,KY,42553
945,Sarah Davis,9682 First,Brant,NY,14027
950,Jennifer Hernandez,3341 Seventh,Denver,CO,80222
955,William Rogers,17705 Evergreen,Evington,VA,24550
960,Mary Long,16397 Eighth,Coeymans Hollow,NY,12046
965,Linda Miller,3092 Elm,Los Angeles,CA,90096
970,Linda Cooper,1962 Fifth,Milwaukee,WI,53211
975,Michael Chavez,13168 Fourth,Fredericksburg,OH,44627
980,Michael Collins,77 View,Vincennes,IN,47591
985,Barbara Diaz,3910 Main,Medina,OH,44258
990,Mary Wilson,8119 Fifth,East New Market,MD,21631
995,Linda Jackson,19829 Fourth,Radisson,WI,54867
1000,Sarah Nguyen,5168 Ninth,Belden,NE,68717
1005,John Perez,4585 Ninth,Garnavillo,IA,52049
1010,Karen White,10174 Third,Fishers Island,NY,06390
1015,Sarah Sanchez,15893 View,Milo,IA,50166
1020,Richard Wilson,5381 Pine,Gilroy,CA,95020
1025,Robert Lewis,15164 Lake,Little Orleans,MD,21766
1030,James Scott,4684 Washington,Naples,NY,14512
1035,William Morgan,2765 Washington,Las Vegas,NV,89126
1040,Sarah Morris,3164 Hill,Muncie,IN,47306
1045,Karen Bennet,13881 Seventh,DPO,NY,09171
1050,Mary Allen,17849 Main,Elko New Market,MN,55020
1055,Mary Gray,2228 Hill,Brownstown,PA,17508
1060,John Rivera,2885 View,Morgantown,PA,19543
1065,Jessica Rogers,16266 Eighth,Jamaica,NY,11436
1070,Barbara Murphy,3165 Maple,Warnerville,NY,12187
1075,Karen Scott,10035 Maple,Tamworth,NH,03886
1080,Patricia Hernandez,18364 Ninth,Climax,CO,80429
1085,Jessica Wood,15017 Eighth,Albany,NY,12257
1090,Elizabeth Nguyen,8935 Pine,Archer,FL,32618
1095,Joseph Lopez,9409 Seventh,Patterson,GA,31557
1100,Thomas Evans,13922 Oak,Washington,DC,20429
1105,James Cooper,4354 Ninth,Anacoco,LA,71403
1110,Robert Miller,4933 Washington,North Wilkesboro,NC,28656
1115,Linda Cooper,12331 Lake,Worthington,IN,47471
1120,Jessica Castillo,12815 Fifth,Markle,IN,46770
1125,Joseph Torres,7823 Cedar,San Diego,CA,92169
1130,Charles Gutierrez,8535 Washington,Marshfield Hills,MA,02051
1135,William Long,7761 First,Cutten,CA,95534
1140,John Williams,19924 Maple,Rochester,NY,14624
1145,Joseph Rivera,16488 Maple,Cranston,RI,02920
1150,Karen Rogers,12407 Sixth,Denmark,WI,54208
1155,Richard Lewis,18916 Third,Stanley,NC,28164
1160,Sarah Gomez,1693 Hill,Scottsdale,AZ,85261
1165,Elizabeth Williams,19194 First,Bovina,TX,79009
1170,Sarah Diaz,8200 Elm,Wartburg,TN,37887
1175,Susan Evans,10173 Pine,Larrabee,IA,51029
1180,Sarah Garcia,6003 Oak,McGrath,MN,56350
1185,Jessica Gray,14978 Elm,Hoschton,GA,30548
1190,Patricia Young,1046 Pine,Litchfield,ME,04350
1195,Michael Cruz,11790 Lake,Wausaukee,WI,54177
1200,Mary Foster,11114 Fifth,Bath Springs,TN,38311
1205,Elizabeth Lopez,17991 Park,Avondale,WV,24811
1210,William Garcia,16444 Ninth,Boynton Beach,FL,33437
1215,Michael Wilson,19990 Washington,Dallardsville,TX,77332
1220,Jennifer Reed,3826 View,Newcastle,ME,04553
1225,Karen James,8675 Fifth,Columbus,OH,43268
1230,Mary Ruiz,10067 Third,Woodstock,AL,35188
1235,Linda Rodriguez,19230 Park,Smith Center,KS,66967
1240,Jessica Scott,11346 Oak,Evansville,IN,47733
1245,Patricia Stewart,5494 Pine,Bronx,NY,10470
1250,Barbara Parker,18903 Washington,East Moline,IL,61244
1255,John Jones,12857 View,Austin,IN,47102
1260,Charles Wilson,18728 First,Merryville,LA,70653
1265,Linda Hughes,370 Pine,Shepherd,MI,48883
1270,James Collins,18244 Oak,Loomis,CA,95650
1275,Jennifer Bailey,6015 View,Una,SC,29378
1280,Patricia Allen,13633 Fifth,Columbus,MS,39710
1285,Patricia Kim,18316 Seventh,McCall Creek,MS,39647
1290,Jessica Kim,4567 First,Coppell,TX,75099
1295,Michael Wright,12258 Washington,Willow Street,PA,17584
1300,Jessica Diaz,19909 Fifth,Port Bolivar,TX,77650
1305,Sarah Morgan,979 Fifth,Pueblo,CO,81003
1310,Jessica Cox,14216 Eighth,La Grange,IL,60525
1315,Patricia Walker,9347 Hill,Washington,DC,20551
1320,Linda Rogers,13164 Second,Saint Charles,MN,55972
1325,Charles Clark,8157 Sixth,Preston,MN,55965
1330,Thomas Young,14460 Cedar,Holy City,CA,95026
1335,Charles Flores,9750 Main,Thendara,NY,13472
1340,Jennifer Green,11276 Fourth,Bronx,NY,10459
1345,James Green,10865 Main,Glendora,CA,91740
1350,David Hernandez,15478 Washington,Grand Rapids,MI,49599
1355,Joseph James,5921 Lake,Monroe,WI,53566
1360,Robert Roberts,14759 Ninth,Napa,CA,94581
1365,Thomas Ruiz,18898 Hill,Sadsburyville,PA,19369
1370,Linda Gomez,7670 Seventh,Elmo,TX,75118
1375,Jennifer Morris,19956 Washington,Latham,KS,67072
1380,Jennifer James,18278 Second,Scottsmoor,FL,32775
1385,Robert Walker,15717 Second,Luna Pier,MI,48157
1390,John Ortiz,3597 Maple,San Diego,CA,92166
1395,Robert Gutierrez,2025 Cedar,Charter Oak,IA,51439
1400,Michael Campbell,12134 Cedar,San Diego,CA,92139
1405,Robert Hernandez,17403 Evergreen,Tallmansville,WV,26237
1410,Jennifer Johnson,10941 Sixth,Lavon,TX,75166
1415,Sarah Lewis,16224 Third,Conklin,MI,49403
1420,Robert Adams,7425 Third,Shallotte,NC,28470
1425,Karen Thomas,18102 Fourth,Lambert,MT,59243
1430,Patricia Alvarez,12692 Eighth,Hazel Hurst,PA,16733
1435,Joseph Morales,92 Hill,Whitetop,VA,24292
1440,William Parker,4626 Seventh,Roanoke,VA,24002
1445,Joseph Ross,13040 Ninth,Manlius,NY,13104
1450,John James,4905 Oak,Las Vegas,NV,89148
1455,Jessica Morgan,318 Pine,Wickenburg,AZ,85390
1460,Mary Torres,13176 Fourth,Kincaid,WV,25119
1465,David Rivera,4560 Park,Garden Grove,CA,92844
1470,Mary Torres,11649 View,Denver,CO,80208
1475,Linda Rogers,18346 Washington,Four States,WV,26572
1480,William Brown,13197 Hill,FPO,NY,09520
1485,James Martin,2367 Fourth,Sacramento,CA,95816
1490,Mary King,8548 Maple,Ogden,UT,84412
1495,Richard Scott,8777 Cedar,Chicago,IL,60694
1500,Robert Gomez,8094 Lake,Advent,WV,25231
1505,Jessica Walker,10978 Main,Wheelwright,MA,01094
1510,Richard Nelson,12320 First,De Soto,GA,31743
1515,Barbara Moore,11290 Second,San Jose,IL,62682
1520,William Davis,12163 Eighth,San Francisco,CA,94140
1525,Mary Lee,17635 Main,Huntsville,AL,35813
1530,Elizabeth Howard,17108 Main,Brusly,LA,70719
1535,Richard Robinson,18459 Third,North Port,FL,34287
1540,Elizabeth Rodriguez,4514 First,Minong,WI,54859
1545,Sarah Chavez,18198 Cedar,Dayton,OH,45405
1550,Jennifer Price,8718 Evergreen,Roxbury,ME,04275
1555,Elizabeth Gomez,5296 Cedar,Macon,MS,39341
1560,Susan Wood,8213 Eighth,Hope,NJ,07844
1565,Joseph Cruz,18194 Oak,Childress,TX,79201
1570,Jessica Watson,19672 Elm,Village Mills,TX,77663
1575,James Scott,19857 Park,Fall River,MA,02722
1580,Richard Lewis,15823 Elm,Rio Rancho,NM,87144
1585,Barbara Allen,17828 Third,Round Hill,VA,20141
1590,Joseph Bennet,6524 Lake,Goldsboro,NC,27534
1595,Richard Ruiz,15891 Evergreen,Tyler,TX,75701
1600,Susan Moore,18986 View,Stillwater,OK,74076
1605,Elizabeth Stewart,13369 Main,Fresno,CA,93755
1610,Robert Foster,17477 Ninth,Fenton,IL,61251
1615,Jennifer Peterson,645 Lake,Berne,NY,12023
1620,Charles Foster,11124 Maple,Manchester,NH,03108
1625,Karen Torres,12866 Washington,West Jordan,UT,84081
1630,Patricia Morales,16196 Eighth,Ashby,NE,69333
1635,Robert Martinez,12295 Oak,Aguadilla,PR,00604
1640,Jennifer Lopez,6831 Lake,Duluth,MN,55814
1645,Charles Foster,12808 First,Milford,DE,19963
1650,Patricia James,6161 Ninth,Whitelaw,WI,54247
1655,Thomas Mendoza,10058 Lake,Cassville,PA,16623
1660,Richard Martinez,6082 Main,West Cornwall,CT,06796
1665,Sarah Peterson,7709 Main,Wilton,MN,56687
1670,Mary Hill,13683 View,Gabriels,NY,12939
1675,Richard Taylor,19182 Third,Bellaire,TX,77402
1680,Jessica Torres,17621 Oak,Adams,ND,58210
1685,Barbara Scott,13920 Hill,Saint Martin,MN,56376
1690,Richard Mitchell,5943 Hill,Burbank,CA,91522
1695,James Rivera,15978 Maple,San Francisco,CA,94117
1700,Jessica Cook,13627 First,Hobbs,NM,88240
1705,Karen Hughes,15543 Main,Coaldale,PA,18218
1710,Michael Brown,17788 Lake,Greeneville,TN,37743
1715,Joseph Green,15391 Oak,Manhattan,KS,66503
1720,Sarah Diaz,13708 Washington,New Milford,PA,18834
1725,Sarah Cook,9129 Oak,Belgium,WI,53004
1730,Jessica Williams,15442 Maple,Boothbay,ME,04537
1735,David Young,17163 Fourth,Washington,DC,20522
1740,Elizabeth Jimenez,277 Cedar,Florence,IN,47020
1745,Karen Bennet,7817 Washington,Biwabik,MN,55708
1750,Patricia Ross,13337 Washington,Brookside,NJ,07926
1755,Robert Jackson,9770 Washington,Calumet,MI,49913
1760,Patricia Chavez,7770 Second,Detroit,MI,48204
1765,Joseph Phillips,10038 Second,Peoria,IL,61639
1770,Elizabeth Ward,14852 Cedar,Sandusky,NY,14133
1775,Elizabeth Roberts,4345 Fourth,Carbon,TX,76435
1780,Patricia Gonzales,5009 Seventh,Fayette,UT,84630
1785,William Lopez,11751 Hill,Fruitland,ID,83619
1790,John Hughes,12402 Fifth,Overland Park,KS,66225
1795,Jennifer Long,16575 Fourth,Charleston,WV,25313
1800,Thomas King,6684 Lake,Pensacola,FL,32509
1805,Elizabeth Parker,19574 Second,Waterford,MS,38685
1810,James King,8388 View,San Jose,CA,95136
1815,William Cox,15946 Seventh,Friendship,ME,04547
1820,Elizabeth Stewart,6831 Washington,Unionville,CT,06085
1825,Susan Price,8051 Second,Dracut,MA,01826
1830,Michael Morris,10486 View,Los Altos,CA,94023
1835,Linda Gomez,12713 Seventh,Hillview,KY,40129
1840,Barbara Parker,15565 Fifth,West Yellowstone,MT,59758
1845,Mary Martinez,4673 Pine,Morganton,NC,28655
1850,Mary King,96 Evergreen,Washington,DC,20410
1855,Joseph Reed,7429 Eighth,Milton,FL,32570
1860,James Rodriguez,16480 First,Greensboro,NC,27408
1865,Jessica Martin,4084 Washington,Jenners,PA,15546
1870,Barbara Baker,13991 Fourth,Claremont,CA,91711
1875,Linda Walker,8007 Lake,Exton,PA,19341
1880,Jennifer Lopez,12302 Eighth,Westlake,LA,70669
1885,Jennifer Ramos,14824 Seventh,New Haven,CT,06536
1890,Elizabeth Ross,8641 Elm,Fort Atkinson,WI,53538
1895,Robert Nguyen,12557 Main,New Waverly,IN,46961
1900,Jennifer Brown,3996 Fourth,Keeseville,NY,12944
1905,Barbara Peterson,6329 Washington,Grangeville,ID,83530
1910,Mary Cruz,3940 Eighth,Washburn,ND,58577
1915,Mary Hill,8040 Oak,Colbert,OK,74733
1920,Richard Anderson,15072 Ninth,Portsmouth,VA,23707
1925,James Chavez,1992 Third,New Port Richey,FL,34652
1930,Patricia Thomas,4722 Sixth,Glendale,MA,01229
1935,Sarah Bailey,4188 Second,Bark River,MI,49807
1940,William Ramos,11433 First,Dutton,AL,35744
1945,Linda Cooper,1706 Hill,Basye,VA,22810
1950,Susan Ramirez,268 Oak,Smithfield,IL,61477
1955,Susan Lee,13626 Fourth,Oakland,CA,94611
1960,Robert Taylor,12268 Maple,Cushman,AR,72526
1965,Barbara Jackson,19450 View,Woodland Hills,CA,91365
1970,Joseph Mendoza,3334 Third,Kansas City,MO,64116
1975,Sarah Morales,6929 Third,Roanoke,VA,24026
1980,Michael Thomas,6119 View,Turtle Lake,ND,58575
1985,Elizabeth Chavez,15018 First,Cedar Rapids,IA,52401
1990,Elizabeth Robinson,14802 View,Polo,MO,64671
1995,William Chavez,9596 First,Kimmell,IN,46760
2000,John Robinson,14125 Fourth,Loup City,NE,68853
2005,James Rogers,11588 Sixth,Gwynedd Valley,PA,19437
2010,Patricia Phillips,12632 First,Bloomer,WI,54724
2015,Mary Nguyen,671 Park,McWilliams,AL,36753
2020,Mary Edwards,2584 Washington,West Swanzey,NH,03469
2025,Karen Gonzales,6693 Fourth,APO,NY,09337
2030,Linda Nguyen,2881 Evergreen,Hill City,KS,67642
2035,Susan Brown,826 Third,Bethel,OH,45106
2040,Thomas Murphy,207 Fifth,Douglas,WY,82633
2045,Richard Johnson,484 Hill,Brookston,IN,47923
2050,James Phillips,19010 Main,Greenville,SC,29606
2055,Karen Gray,6980 Sixth,Selbyville,WV,26236
2060,Michael Ross,4459 Fourth,Silver Grove,KY,41085
2065,Charles Cook,18966 First,Piedmont,MO,63957
2070,Patricia Hughes,16472 Fourth,Chocowinity,NC,27817
2075,Mary Ruiz,19860 Main,Lincoln,NE,68522
2080,Jennifer Jones,7081 Elm,Royal Oak,MI,48073
2085,Robert Green,15390 Pine,Stockertown,PA,18083
2090,Robert Ramos,10223 View,San Antonio,TX,78242
2095,Jennifer Richardson,18334 Oak,San Antonio,TX,78221
2100,Barbara Thomas,17076 Eighth,Hagerstown,MD,21746
2105,Michael Walker,2444 First,Rising Sun,IN,47040
2110,Joseph Chavez,16174 Second,Colcord,OK,74338
2115,Thomas Garcia,5992 Ninth,Rockaway,NJ,07866
2120,William Garcia,591 Main,Greenville,IA,51343
2125,James Bennet,14584 Evergreen,McGregor,IA,52157
2130,Linda James,5470 First,Montgomery,AL,36115
2135,Linda Jimenez,15708 Lake,Denver,CO,80208
2140,John Reed,15694 Fourth,Beaver,AR,72613
2145,Patricia Bailey,8324 Park,Keeling,VA,24566
2150,Mary Price,18465 Washington,Saragosa,TX,79780
2155,James Thompson,15387 Pine,Conover,WI,54519
2160,John Young,13721 Cedar,Atlanta,GA,31192
2165,Sarah Miller,16820 Elm,Newfield,NY,14867
2170,Karen Garcia,13153 Maple,Detroit,MI,48217
2175,James Davis,16362 Ninth,Mona,UT,84645
2180,Sarah Nguyen,14682 Washington,Cumberland,MD,21503
2185,Elizabeth Reyes,4009 View,Yellville,AR,72687
2190,Elizabeth Jones,11142 Washington,New York,NY,10138
2195,Charles Green,6092 Elm,Luzerne,IA,52257
2200,Sarah Kelly,5028 Sixth,Harwich Port,MA,02646
2205,Karen Smith,68 Fifth,Oak Park,IL,60302
2210,David Rodriguez,8193 Evergreen,Corryton,TN,37721
2215,Jennifer Moore,5879 Third,Lamont,OK,74643
2220,Mary Campbell,1369 Cedar,Warminster,PA,18991
2225,Patricia Young,9772 Park,Manchester,CT,06041
2230,Mary Patel,238 Fifth,Irvington,KY,40146
2235,Sarah Morales,13869 Fourth,Geraldine,MT,59446
2240,Linda Rivera,6037 Hill,Smithville,AR,72466
2245,Karen Allen,13557 Washington,Jackson,MS,39282
2250,Elizabeth Jones,5134 Cedar,Dallas,TX,75221
2255,Charles Foster,15224 Lake,Chester,VA,23831
2260,James Williams,3892 Lake,Howe,ID,83244
2265,Robert Roberts,5128 Oak,East Thetford,VT,05043
2270,Linda Martin,5866 Pine,Superior,MT,59872
2275,Robert Smith,1087 Hill,Inverness,MS,38753
2280,Richard Clark,15116 Park,Florissant,MO,63031
2285,Michael Clark,15736 Oak,Jacksonville,FL,32211
2290,Joseph James,15383 Pine,Houston,MS,38851
2295,Jennifer Reyes,4601 Second,Woodhull,IL,61490
2300,Jennifer Evans,16897 Lake,Owensville,MO,65066
2305,Jessica Diaz,3957 Cedar,Dinosaur,CO,81610
2310,Karen Baker,18453 Maple,Asheville,NC,28801
2315,John Reyes,18172 Park,Campbell,OH,44405
2320,William Brooks,14933 Ninth,Sacramento,CA,94277
2325,Michael Cook,7456 Seventh,Lincoln,KS,67455
2330,Robert Green,17156 Maple,Washington,DC,20216
2335,Thomas Patel,5552 First,Brandon,FL,33510
2340,Robert Long,12157 Oak,Greeneville,TN,37743
2345,Charles Reed,11101 Seventh,Los Angeles,CA,90034
2350,William Johnson,10205 Sixth,Pierceville,KS,67868
2355,Jennifer Thomas,14492 Pine,Evansville,IN,47714
2360,Jennifer Lewis,19402 Second,New Orleans,LA,70114
2365,Karen Thomas,19581 Pine,West Townsend,MA,01474
2370,Robert Ortiz,8181 Hill,Hidalgo,TX,78557
2375,Jennifer Thompson,17138 Oak,San Jose,NM,87565
2380,Patricia Perez,17064 Oak,Pinson,TN,38366
2385,John Gray,2846 Third,Orrington,ME,04474
2390,Karen Stewart,11836 Washington,Louisa,KY,41230
2395,Richard Jackson,8246 Third,Louisville,KY,40242
2400,Linda Walker,16566 Eighth,Salt Lake City,UT,84104
2405,James Taylor,17185 Seventh,Lester,IA,51242
2410,John Cruz,12675 Maple,Melbourne,FL,32940
2415,Thomas Lopez,15614 Fifth,Ludlow,VT,05149
2420,Jessica Chavez,15489 Oak,Albertville,AL,35950
2425,James Collins,4173 Second,Brookhaven,MS,39602
2430,Karen Hernandez,6896 Fifth,Nelson,GA,30151
2435,Barbara Taylor,10396 Lake,Bayamon,PR,00957
2440,Michael Myers,5708 Main,Briggsville,AR,72828
2445,Robert Carter,7833 First,Big Sur,CA,93920
2450,Michael Johnson,17435 Evergreen,APO,NY,09309
2455,Jessica Martin,1804 Pine,Honeoye Falls,NY,14472
2460,Mary Williams,16501 Sixth,Brea,CA,92823
2465,Patricia Edwards,4785 Sixth,Warrendale,PA,15086
2470,Patricia Green,1028 Sixth,Charlotte,NC,28271
2475,Joseph Flores,1411 First,Grayling,MI,49739
2480,Robert Richardson,3148 Pine,Defuniak Springs,FL,32433
2485,David Robinson,10414 Park,FPO,CA,96382
2490,William Foster,4386 Lake,Breese,IL,62230
2495,Linda Hall,7295 Third,Bell Gardens,CA,90201
2500,Sarah Moore,5571 View,Ellabell,GA,31308
2505,Charles Williams,4367 View,Comstock,WI,54826
2510,William James,4321 Main,Pueblo,CO,81012
2515,Sarah Turner,4113 First,Ochlocknee,GA,31773
2520,John Walker,14321 Fifth,Navarre,OH,44662
2525,Karen Thompson,11391 Evergreen,Darlington,MO,64438
2530,James Martin,11879 Third,Netawaka,KS,66516
2535,Joseph Baker,3710 Third,Erie,PA,16506
2540,Robert Gonzales,1111 Fourth,Amo,IN,46103
2545,Jessica Robinson,5108 Main,Greenwell Springs,LA,70739
2550,William Ortiz,15220 Fourth,Ona,WV,25545
2555,Susan Phillips,283 View,Jakin,GA,39861
2560,Richard King,12511 Evergreen,Los Alamos,NM,87544
2565,Elizabeth Murphy,17225 Pine,Byron Center,MI,49315
2570,James Foster,979 Second,Litchfield,MN,55355
2575,Susan Nguyen,14342 Evergreen,Warwick,RI,02888
2580,Joseph Ward,18350 View,Amarillo,TX,79121
2585,Jennifer Ramirez,7107 Second,Grulla,TX,78548
2590,Mary Thomas,11221 Main,Berwyn,IL,60402
2595,John Lewis,4865 Elm,Erie,PA,16503
2600,Sarah Cooper,12027 Fifth,San Marcos,CA,92078
2605,Jessica Bennet,17608 Washington,Jarratt,VA,23870
2610,Robert Murphy,8806 Eighth,Canyon Country,CA,91386
2615,Michael Rogers,14305 Eighth,Conway,AR,72032
2620,Patricia Chavez,17505 Fourth,Ottertail,MN,56571
2625,Karen Thomas,19476 Ninth,Guntersville,AL,35976
2630,James Anderson,18998 Ninth,San Antonio,TX,78220
2635,Barbara Foster,2089 Fifth,Fowler,IL,62338
2640,Elizabeth Nelson,5728 Lake,Satsuma,FL,32189
2645,Susan Edwards,4885 Washington,Charlotte,NC,28213
2650,Mary Ramirez,11070 Seventh,Robinsonville,MS,38664
2655,Jennifer Perez,10445 Third,Avoca,MI,48006
2660,Patricia Ramos,11807 Hill,Arlington,TX,76011
2665,Barbara Reed,16986 Eighth,Jefferson,NY,12093
2670,Patricia Ruiz,1787 Second,Lone Grove,OK,73443
2675,David Torres,1598 Eighth,Santa Monica,CA,90410
2680,Elizabeth Cruz,5640 Oak,Sheridan,MT,59749
2685,Linda Rivera,1307 Evergreen,Longstreet,LA,71050
2690,Joseph Roberts,13708 Hill,Kalamazoo,MI,49048
2695,John Thompson,5438 Eighth,Isleton,CA,95641
2700,Jessica Nelson,10427 Seventh,Willisville,IL,62997
2705,Linda Flores,11691 Main,Skyforest,CA,92385
2710,Jessica Phillips,1535 Maple,Dayton,MD,21036
2715,John Sanders,9351 Elm,Cazadero,CA,95421
2720,Robert Thomas,7310 Ninth,Grafton,ND,58237
2725,Jessica Collins,13888 Ninth,Norwalk,CA,90650
2730,Mary Allen,12349 Park,Mannford,OK,74044
2735,David Jones,2242 Seventh,Rule,TX,79547
2740,David Wilson,9484 Main,Wilmington,DE,19891
2745,Sarah Cox,5306 Evergreen,Moulton,TX,77975
2750,Michael Parker,14925 Oak,Frankfort,KS,66427
2755,James Turner,11511 Evergreen,Sandstone,WV,25985
2760,Jessica Anderson,14805 Washington,Crab Orchard,WV,25827
2765,William Brown,13786 View,Washington,DC,20055
2770,Linda Clark,15046 View,Turlock,CA,95380
2775,Richard King,3467 Oak,Elmwood,MA,02337
2780,Barbara Smith,9434 Second,Spring City,TN,37381
2785,Elizabeth Smith,12533 Seventh,Oakland,CA,94605
2790,Jessica Phillips,18138 Fifth,Denniston,KY,40316
2795,Patricia Edwards,10437 Cedar,Murfreesboro,TN,37129
2800,Linda Adams,3156 Fifth,Chester Heights,PA,19017
2805,Robert Flores,19684 Pine,Cherry Plain,NY,12040
2810,Charles Rogers,11097 Hill,DPO,NJ,09977
2815,Linda Torres,6849 Elm,Frederick,IL,62639
2820,Patricia Green,16659 Park,Eustace,TX,75124
2825,James Bennet,8044 Sixth,Creedmoor,NC,27522
2830,David Ross,5520 Main,Woodworth,ND,58496
2835,Sarah Bailey,18297 Evergreen,North Canton,OH,44720
2840,Patricia Perez,19279 Evergreen,Alpine,TX,79832
2845,Barbara Alvarez,19555 Fifth,Granville,ND,58741
2850,William Thomas,13726 Main,Salina,KS,67402
2855,Richard Miller,4397 Main,Venetia,PA,15367
2860,Karen Wood,3378 Lake,Goshen,MA,01032
2865,Elizabeth Diaz,15502 Elm,Howell,MI,48843
2870,Jessica King,18342 Ninth,Myrtle Beach,SC,29578
2875,Patricia Ruiz,8597 Maple,South Gibson,PA,18842
2880,Barbara Turner,7617 Washington,Farwell,TX,79325
2885,Joseph Edwards,11271 Park,Tyler,TX,75799
2890,Jennifer Smith,7510 Second,Balaton,MN,56115
2895,Richard Sanchez,3288 Cedar,Caddo,OK,74729
2900,Mary Sanders,16160 Eighth,Isle,MN,56342
2905,Robert Nelson,13101 Seventh,Vandemere,NC,28587
2910,Patricia Evans,17764 Eighth,Stanford,KY,40484
2915,Richard Price,13743 Fourth,Garrison,MN,56450
2920,Jessica Baker,18760 Cedar,Warren,MI,48088
2925,David Hernandez,11989 Second,Mehoopany,PA,18629
2930,Thomas Alvarez,376 Fifth,Holmes City,MN,56341
2935,Robert Flores,4785 Lake,DPO,FL,34011
2940,Richard Perez,18149 First,Hudson,ME,04449
2945,Jennifer Robinson,19319 Park,Angwin,CA,94508
2950,Robert Smith,17534 Elm,Carson City,NV,89702
2955,Mary Perez,18599 Cedar,Johannesburg,CA,93528
2960,Barbara Kim,8813 Elm,Orange,CA,92864
2965,Susan Davis,12042 Fourth,Brattleboro,VT,05303
2970,Charles Baker,1589 Lake,Walled Lake,MI,48390
2975,Linda Patel,9937 Fourth,Blue Hill,ME,04614
2980,William Roberts,3829 Seventh,Des Moines,IA,50312
2985,Susan Perez,14014 First,Ancram,NY,12502
2990,Jennifer Jones,13911 Seventh,Great Neck,NY,11024
2995,Charles Evans,196 First,Gideon,MO,63848
3000,David Watson,7889 Main,Brookhaven,MS,39601
3005,Robert Diaz,3351 Seventh,Mack,CO,81525
3010,Barbara White,3660 First,East Lynn,WV,25512
3015,John Robinson,1411 Third,Enterprise,UT,84725
3020,Karen Rivera,18691 Fourth,Attica,IN,47918
3025,William Lopez,3954 View,Lawrence,MI,49064
3030,Barbara Harris,10553 Main,FPO,CA,96310
3035,Sarah Lewis,5009 Fourth,Castle Rock,CO,80104
3040,Susan Howard,2714 Pine,Cedar Ridge,CA,95924
3045,Linda Cooper,3488 Park,Orlando,FL,32891
3050,James White,18181 Park,Campbell,NY,14821
3055,John Gray,3170 Second,Centreville,MS,39631
3060,John Price,2402 Pine,Trenton,NJ,08646
3065,William Garcia,2270 Maple,Belgrade,ME,04917
3070,Robert Williams,5160 View,Spring,TX,77379
3075,William Cox,3697 Main,Orient,ME,04471
3080,Elizabeth Ortiz,18329 Sixth,North Concord,VT,05858
3085,Jennifer Chavez,7611 Lake,University,MS,38677
3090,Sarah Bailey,7384 Lake,Farmington Falls,ME,04940
3095,Jessica Sanders,1219 First,Salvo,NC,27972
3100,Robert Reyes,16136 Washington,Riggins,ID,83549
3105,Richard Mendoza,3018 Maple,Thurman,IA,51654
3110,Mary Reed,6688 Sixth,Westminster,CO,80031
3115,Robert Patel,6623 Seventh,Maugansville,MD,21767
3120,John Gomez,18204 Oak,Denton,TX,76202
3125,Elizabeth Perez,10090 Park,Hemet,CA,92546
3130,Jennifer Phillips,8346 Oak,Orbisonia,PA,17243
3135,Richard Gonzales,17355 Second,Donnelly,MN,56235
3140,Richard Gutierrez,3636 Seventh,Austin,TX,78758
3145,Linda Carter,9536 First,Bridgeport,NE,69336
3150,Karen Gutierrez,6810 Evergreen,Spring,TX,77382
3155,Jennifer Campbell,13309 Pine,Clementon,NJ,08021
3160,Karen Sanchez,4256 Sixth,Pride,LA,70770
3165,Jessica Rogers,18386 Fourth,Knife River,MN,55609
3170,Barbara Howard,9105 Maple,Medway,ME,04460
3175,William Patel,16947 Cedar,Stanville,KY,41659
3180,Barbara Wright,2283 Park,Stillman Valley,IL,61084
3185,John Green,16494 Pine,Elgin,TN,37732
3190,Michael Bennet,2578 Lake,Lorain,OH,44055
3195,Sarah Price,9875 Maple,Fort Myers,FL,33965
3200,Joseph Johnson,12370 Oak,Los Angeles,CA,90002
3205,Mary Kelly,6277 Seventh,Longview,TX,75608
3210,Robert Hughes,4077 Oak,Southampton,NY,11968
3215,Sarah Thompson,2954 Lake,Stafford Springs,CT,06076
3220,Karen Ramos,8962 Sixth,Winterset,IA,50273
3225,Thomas Lee,119 Main,Loganville,WI,53943
3230,Robert Adams,16147 Evergreen,Lawrence,MA,01840
3235,Thomas Cooper,13874 First,Wichita,KS,67216
3240,Patricia Torres,19588 Lake,Portland,ME,04103
3245,Mary Hughes,2455 Maple,Deer Creek,IL,61733
3250,Michael Taylor,2891 Oak,Taneytown,MD,21787
3255,Barbara Torres,7470 Evergreen,Sarcoxie,MO,64862
3260,Richard Ward,399 Seventh,Queen Creek,AZ,85142
3265,Jennifer Young,12 Ninth,Fremont Center,NY,12736
3270,Karen Lee,18434 Cedar,Friendship,OH,45630
3275,Robert Foster,15976 First,Langley,SC,29834
3280,Karen Garcia,14469 Main,Bastrop,LA,71220
3285,William Rivera,12076 Hill,Miami,FL,33243
3290,David Taylor,14732 Park,Burlington,NC,27215
3295,David Thomas,7890 Third,Millwood,NY,10546
3300,Elizabeth Peterson,18660 Lake,Cottonwood,MN,56229
3305,James Gonzales,15171 Fifth,Moundridge,KS,67107
3310,Richard Jones,19972 Sixth,Arlington,TX,76016
3315,Michael Adams,4941 Seventh,Des Moines,IA,50306
3320,Jessica Scott,8698 Sixth,Philadelphia,PA,19113
3325,Robert Allen,4932 Cedar,Villamont,VA,24178
3330,Elizabeth Wright,9411 Oak,Reno,NV,89506
3335,Jessica Moore,9991 Hill,Hartford,CT,06112
3340,Karen Cook,8345 Eighth,Clarion,PA,16214
3345,William Evans,5497 View,Westgate,IA,50681
3350,Robert Hall,18282 View,Dumfries,VA,22026
3355,Karen Ramirez,18295 Third,Grand Rapids,MI,49501
3360,Mary James,2519 Second,Brownville Junction,ME,04415
3365,Sarah Baker,16279 Cedar,Star,NC,27356
3370,Patricia Garcia,15945 Oak,Gainesville,FL,32607
3375,Patricia Brown,12674 Sixth,Dundalk,MD,21222
3380,Patricia Cook,13426 View,West Hartford,CT,06127
3385,Jessica Clark,18499 Third,Hookstown,PA,15050
3390,Michael Sanchez,11618 Elm,Salt Lake City,UT,84131
3395,Joseph Long,2370 Fifth,Tigerville,SC,29688
3400,Robert Peterson,759 Second,Falkland,NC,27827
3405,Karen Lee,8284 Third,Carson City,NV,89702
3410,Michael Hall,9680 Washington,Granite Bay,CA,95746
3415,Sarah Lewis,19846 Eighth,East Liberty,OH,43319
3420,Thomas Lopez,19721 Ninth,Estes Park,CO,80511
3425,Karen Richardson,15607 Second,Hearne,TX,77859
3430,Patricia Morgan,2202 Ninth,Daytona Beach,FL,32114
3435,James Ross,8297 Ninth,Keene,VA,22946
3440,Mary Turner,12114 First,Webber,KS,66970
3445,Richard Stewart,3747 Sixth,Saratoga,IN,47382
3450,Richard Foster,6397 Elm,El Cajon,CA,92022
3455,Linda Price,10660 Sixth,Jurupa Valley,CA,92509
3460,Michael Jimenez,18603 Lake,San Mateo,CA,94401
3465,William Turner,17219 View,Limestone,TN,37681
3470,William Flores,16652 Third,Norfolk,VA,23502
3475,Robert Hall,4695 Sixth,Falfurrias,TX,78355
3480,David Kelly,9007 Oak,Pearland,TX,77584
3485,Linda Nguyen,19992 Sixth,Premont,TX,78375
3490,William Murphy,4239 Lake,Salem,NE,68433
3495,Mary James,18054 Sixth,Elmira,NY,14904
3500,Charles Morales,18661 Washington,Springfield,MA,01105
3505,Karen Ward,14400 Second,Kresgeville,PA,18333
3510,David Evans,10114 Fifth,Lake Alfred,FL,33850
3515,Sarah Cook,19962 Park,Mirror Lake,NH,03853
3520,Michael Rogers,13160 Pine,Dunnellon,FL,34433
3525,Elizabeth Cruz,12270 Hill,Oreland,PA,19075
3530,Karen Gomez,7283 Third,Reva,VA,22735
3535,Jennifer Gutierrez,12433 Ninth,Smoot,WY,83126
3540,Karen Thompson,16588 View,Holdrege,NE,68949
3545,Richard Wilson,5065 Sixth,Rockvale,TN,37153
3550,Karen King,13036 Cedar,Sutton,ND,58484
3555,Barbara Ramos,17534 First,Santa Fe Springs,CA,90670
3560,James Allen,14086 Sixth,Muddy,IL,62965
3565,Sarah Davis,3203 Elm,Seanor,PA,15953
3570,Linda Gray,9570 First,Monroe,GA,30655
3575,Barbara Campbell,6898 Maple,Brandon,FL,33509
3580,Jessica Campbell,11164 Elm,San Lucas,CA,93954
3585,Mary Sanders,475 Evergreen,FPO,CA,96388
3590,Thomas Cox,9755 First,Houghton Lake Heights,MI,48630
3595,Jennifer Bennet,15312 Park,Washington,DC,20239
3600,Karen Moore,17122 First,Ace,TX,77326
3605,Barbara Thompson,9871 Second,Wood River,IL,62095
3610,Mary Cook,14991 Washington,McLoud,OK,74851
3615,David Baker,2757 Main,Smithville,MO,64089
3620,Barbara Castillo,19578 Eighth,Poyen,AR,72128
3625,John Garcia,17044 Park,Carlisle,IN,47838
3630,Elizabeth Bennet,3887 Washington,Oriskany,NY,13424
3635,Jessica Wood,10692 Second,Walcott,ND,58077
3640,Joseph Diaz,6108 Fourth,Dallas,TX,75398
3645,James Miller,2565 Second,Earl,NC,28038
3650,Jennifer Martinez,6883 Sixth,Willis,VA,24380
3655,Karen Williams,11623 Fifth,Manasquan,NJ,08736
3660,Elizabeth Adams,7846 Elm,Raymond,IL,62560
3665,Richard Harris,13597 Seventh,Sun City Center,FL,33573
3670,Sarah Thomas,5473 Washington,Canyon Country,CA,91386
3675,Jennifer Baker,14700 Pine,Venango,PA,16440
3680,Sarah Hill,19775 Sixth,Angle Inlet,MN,56711
3685,Susan Collins,2234 Main,Wheeling,IL,60090
3690,Susan Hernandez,5503 Evergreen,Lufkin,TX,75915
3695,Patricia Morris,7107 Fourth,Olive,MT,59343
3700,Elizabeth Baker,2086 Second,Houston,TX,77098
3705,Robert Edwards,6799 Seventh,Howe,ID,83244
3710,James James,7705 Sixth,Buffalo,NY,14217
3715,Barbara Robinson,11083 Hill,Clay,AL,35048
3720,Charles Cox,17344 Elm,West Columbia,SC,29172
3725,Mary Sanchez,9588 Hill,Culver,IN,46511
3730,Linda Edwards,2666 Park,East Baldwin,ME,04024
3735,Sarah White,4981 Third,Padroni,CO,80745
3740,Linda Mitchell,14569 Park,Landenberg,PA,19350
3745,Joseph Green,15349 Second,Fort Washington,MD,20749
3750,Linda White,1515 Ninth,Binghamton,NY,13901
3755,Sarah Martin,15359 Fifth,Pell City,AL,35125
3760,Patricia Roberts,16614 Washington,Wolf Island,MO,63881
3765,Jessica Ortiz,3953 Elm,Heber,AZ,85928
3770,Susan Castillo,11686 Hill,Ackworth,IA,50001
3775,Robert Parker,2009 Eighth,New City,NY,10956
3780,Richard Flores,12047 View,Tarawa Terrace,NC,28543
3785,Barbara Murphy,2896 Pine,Rio Grande,PR,00745
3790,Robert Davis,4967 Fourth,Clinton,NY,13323
3795,Patricia Cooper,7684 Fourth,Baskerville,VA,23915
3800,Robert Brooks,6082 Sixth,Osseo,MN,55569
3805,David Gomez,10232 Elm,Marshall,VA,20115
3810,Linda Chavez,10039 Ninth,West Hartford,CT,06117
3815,Thomas Gomez,6458 Pine,Abbott,TX,76621
3820,Patricia Edwards,14997 Elm,Cape Fair,MO,65624
3825,William Diaz,9661 Ninth,Brighton,TN,38011
3830,Joseph Sanders,11765 Park,Odell,TX,79247
3835,John Gray,18196 Lake,Hill City,ID,83337
3840,Sarah Reyes,1904 Hill,Townsend,WI,54175
3845,Robert Bailey,806 Washington,Buffalo,NY,14211
3850,John Cox,3618 Washington,Johnsonville,IL,62850
3855,Jessica Bailey,8314 Evergreen,New Bedford,PA,16140
3860,Joseph Ramos,17784 Third,Guy,AR,72061
3865,Jessica Campbell,18791 Lake,Brookfield,NY,13314
3870,Charles Turner,174 Hill,Penn Run,PA,15765
3875,David Phillips,4552 Hill,Hartford,AL,36344
3880,James Gutierrez,2511 Sixth,Mount Sidney,VA,24467
3885,Charles Sanders,12514 Elm,Burton,MI,48509
3890,David Jackson,13320 Third,Rochester,NY,14644
3895,Mary Reed,9336 Elm,San Luis Obispo,CA,93403
3900,Michael Foster,3350 Ninth,Lockney,TX,79241
3905,Karen Sanders,4807 View,Cartersville,GA,30120
3910,Karen Phillips,9013 Seventh,Tuppers Plains,OH,45783
3915,Michael Ramirez,7583 Ninth,San Antonio,TX,78263
3920,Richard Peterson,10253 Evergreen,Oklahoma City,OK,73169
3925,William Anderson,14476 Ninth,Ludlow,IL,60949
3930,Jessica Roberts,7335 Park,Martinez,CA,94553
3935,John Lee,15431 Park,Goodlettsville,TN,37070
3940,Richard Gutierrez,2839 Main,Boise,ID,83706
3945,James Scott,4861 Elm,Bleiblerville,TX,78931
3950,Thomas Morgan,7164 Eighth,Rice,MN,56367
3955,Richard Jones,16271 Hill,Farwell,MN,56327
3960,Sarah Hernandez,8394 Washington,San Diego,CA,92138
3965,Joseph Hernandez,10244 Third,Carrollton,TX,75011
3970,Karen Wood,5319 Park,San Antonio,TX,78289
3975,Robert Chavez,12076 Third,Danby,VT,05739
3980,Patricia Martinez,11198 Cedar,Bonita,CA,91902
3985,David Long,10857 Seventh,Red Bank,NJ,07701
3990,Sarah Wright,5582 Third,Elk Rapids,MI,49629
3995,David Turner,11301 First,Madelia,MN,56062
4000,William Roberts,16719 First,Long Beach,CA,90833
4005,Patricia Baker,19730 Second,Mesa,ID,83643
4010,Jennifer Gutierrez,5267 First,Beckwourth,CA,96129
4015,Robert Williams,13069 Lake,Bush,LA,70431
4020,James Long,10614 Fifth,Pinnacle,NC,27043
4025,John Castillo,8041 Fourth,Jim Falls,WI,54748
4030,Elizabeth Rogers,11557 Oak,Oktaha,OK,74450
4035,John Cox,17804 Oak,Shelton,NE,68876
4040,John Adams,16875 Park,Guildhall,VT,05905
4045,Patricia Parker,242 Seventh,Moss,TN,38575
4050,Jessica Nguyen,2368 Hill,Orestes,IN,46063
4055,Michael Harris,735 Evergreen,Commerce,MO,63742
4060,James Flores,17695 Fifth,Bostwick,FL,32007
4065,Patricia Walker,5503 Evergreen,Waverly,OH,45690
4070,Susan Lee,14836 Lake,Central,IN,47110
4075,Jennifer Ramirez,19382 Washington,Farmington,ME,04938
4080,Michael Garcia,14925 Evergreen,Orlando,FL,32878
4085,Sarah Flores,11571 Park,Wakpala,SD,57658
4090,Karen Hall,12078 Third,Twinsburg,OH,44087
4095,Sarah White,1320 Ninth,Fullerton,NE,68638
4100,David Gomez,4195 View,Ruston,LA,71272
4105,David Perez,6435 Fifth,Worcester,MA,01602
4110,Robert Parker,17747 View,Ainsworth,NE,69210
4115,William Castillo,11776 Main,Pittsburgh,PA,15234
4120,Robert Rogers,17197 Maple,Berlin,CT,06037
4125,John Hughes,16240 Elm,Haverhill,IA,50120
4130,Patricia Scott,5553 Pine,Lewis,KS,67552
4135,James Smith,15893 Pine,Clifton Hill,MO,65244
4140,Robert Kim,17774 Seventh,Brooklyn,NY,11214
4145,Barbara Rogers,14941 View,Astoria,NY,11102
4150,John Kim,9835 Main,Havana,FL,32333
4155,Jessica Campbell,6885 Lake,Hammond,IL,61929
4160,David Brooks,16993 Eighth,Saint Louis,MO,63140
4165,Linda Cook,3001 Cedar,Evanston,WY,82930
4170,William Thompson,12851 Evergreen,Rochelle,GA,31079
4175,John Myers,11319 Hill,Vulcan,MI,49892
4180,Joseph Ortiz,12062 Washington,Fort Myers Beach,FL,33931
4185,James Bailey,5716 Elm,Brandywine,MD,20613
4190,Robert Ward,12199 First,Lanse,PA,16849
4195,Richard Wood,19740 Elm,Saint Louis,MO,63102
4200,Jessica Gomez,17078 Eighth,Ovid,NY,14521
4205,Linda Bennet,7422 Lake,Doe Run,MO,63637
4210,Barbara Robinson,19170 Main,Mount Juliet,TN,37122
4215,Joseph Scott,348 Eighth,Keaton,KY,41226
4220,Karen Howard,4957 Second,Sacramento,KY,42372
4225,John Cook,878 Eighth,Ether,NC,27247
4230,Susan Hill,2556 Maple,San Juan,PR,00955
4235,Jennifer Jackson,14394 Park,Toledo,OH,43657
4240,Michael Wood,1664 Sixth,Benedicta,ME,04733
4245,Karen Long,5969 Maple,Mansfield,TN,38236
4250,Susan Gutierrez,3285 Ninth,Norwood,LA,70761
4255,Jessica Edwards,15107 Sixth,Dover,ID,83825
4260,Jessica Jimenez,16507 Second,Sherrill,IA,52073
4265,Susan Jimenez,4551 Third,Orient,OH,43146
4270,Thomas Young,7313 Fifth,Canadian,TX,79014
4275,David Kim,3147 Park,Worthington,IA,52078
4280,Jessica Castillo,14318 Third,Thorntown,IN,46071
4285,Michael Harris,8618 Seventh,Treadwell,NY,13846
4290,Michael Castillo,7040 Fourth,Chaplin,CT,06235
4295,Thomas Walker,6794 Elm,Orangeville,PA,17859
4300,David Carter,807 View,Coalinga,CA,93210
4305,Elizabeth Walker,10418 Main,Austin,IN,47102
4310,Mary Martinez,2568 First,Kooskia,ID,83539
4315,Jennifer Jimenez,14783 Cedar,Hillview,KY,40129
4320,Thomas White,10362 Washington,Winston Salem,NC,27116
4325,Charles Moore,9497 Pine,Fair Haven,NJ,07704
4330,Karen Turner,963 Main,Tulsa,OK,74108
4335,Robert Rivera,3311 Cedar,Bowling Green,KY,42104
4340,Jennifer Peterson,19998 Main,Delafield,WI,53018
4345,William Walker,16136 View,Schenectady,NY,12307
4350,Robert Foster,6200 Maple,Perdue Hill,AL,36470
4355,Jennifer Sanders,12011 Third,Springvale,ME,04083
4360,William Lewis,1827 Hill,Dyersburg,TN,38024
4365,Jessica Thomas,11874 Elm,Lacombe,LA,70445
4370,Patricia Watson,9798 Seventh,Scottsdale,AZ,85258
4375,Thomas Mitchell,14647 Eighth,Sardinia,SC,29143
4380,John Brooks,9297 Third,Sawyer,KS,67134
4385,Patricia Brown,10022 Sixth,Washington,DC,20566
4390,Mary Lee,5152 Sixth,Smethport,PA,16749
4395,Richard Parker,3043 Evergreen,Roanoke,VA,24002
4400,Elizabeth Hall,11552 Oak,Wainwright,OK,74468
4405,William Lewis,9407 Sixth,Ruby Valley,NV,89833
4410,William Ortiz,2722 Fourth,Chatsworth,CA,91313
4415,Thomas Gutierrez,14188 First,Bradenton,FL,34203
4420,Susan Young,18850 Elm,Lemmon,SD,57638
4425,Barbara Ramirez,1798 Main,North Berwick,ME,03906
4430,William Diaz,3886 Hill,Kirbyville,TX,75956
4435,Elizabeth Chavez,308 Washington,Compton,CA,90222
4440,Patricia Collins,12067 Eighth,Anderson,IN,46012
4445,Susan Evans,12262 Park,Minoa,NY,13116
4450,Barbara Martin,19 Fifth,San Antonio,TX,78239
4455,Mary Ruiz,14525 Hill,Oklahoma City,OK,73165
4460,Elizabeth Gutierrez,12258 Oak,Tallahassee,FL,32305
4465,Susan Taylor,5933 Seventh,Pandora,OH,45877
4470,Susan Perez,2331 Main,Vanderbilt,MI,49795
4475,Jennifer Wright,7406 Washington,Elk Horn,IA,51531
4480,Sarah Allen,9302 Evergreen,Greenville,CA,95947
4485,Barbara Harris,424 Maple,Hibbs,PA,15443
4490,Joseph Cooper,15717 Pine,Castaic,CA,91384
4495,James Scott,12728 Eighth,Deltona,FL,32739
4500,Linda Turner,19596 Sixth,Salt Point,NY,12578
4505,Mary Hernandez,17053 View,FPO,CA,96212
4510,Charles Collins,433 Oak,McGaheysville,VA,22840
4515,James Jackson,17043 Fourth,Winston Salem,NC,27127
4520,Linda Lopez,4153 Park,West Sand Lake,NY,12196
4525,Patricia Allen,19400 Elm,Baton Rouge,LA,70894
4530,Jennifer Nelson,14061 Fifth,Aguilar,CO,81020
4535,Robert Green,12337 View,Alhambra,IL,62001
4540,John Richardson,15315 Washington,Wolcott,NY,14590
4545,Charles Ross,12909 Lake,Goodfellow Air Force Base,TX,76908
4550,Barbara Thompson,3870 Lake,Grain Valley,MO,64029
4555,Robert Martin,7182 Third,Sarasota,FL,34236
4560,Jessica Evans,10850 Oak,Goose Rock,KY,40944
4565,Jennifer White,17521 Maple,Folcroft,PA,19032
4570,Elizabeth Nguyen,12149 Oak,Grundy,VA,24614
4575,William Anderson,3878 Evergreen,Hobucken,NC,28537
4580,Richard Bailey,11731 Ninth,Hyannis Port,MA,02647
4585,Elizabeth Jimenez,19855 Eighth,Pembroke Pines,FL,33028
4590,William Davis,422 Washington,Parlin,NJ,08859
4595,Elizabeth Robinson,2257 Park,Woodbine,IA,51579
4600,Sarah Thomas,14073 Park,Tucson,AZ,85715
4605,Linda Williams,7581 Elm,Keystone,NE,69144
4610,Patricia Hill,6150 Cedar,Norfolk,VA,23509
4615,Jennifer Turner,10112 Sixth,Monterey,IN,46960
4620,Richard Davis,15220 Evergreen,San Ysidro,CA,92173
4625,William Adams,13842 Second,Texico,NM,88135
4630,Karen Young,13015 Third,Yettem,CA,93670
4635,Karen Jackson,13290 Hill,Palm Harbor,FL,34684
4640,David Bennet,7177 Maple,West Hartford,VT,05084
4645,Thomas Gomez,9320 Cedar,Walnut,IA,51577
4650,Michael Collins,18271 Evergreen,APO,NY,09365
4655,Jennifer Carter,12548 Evergreen,Westfield,NJ,07090
4660,Jessica Martin,11069 Maple,Port Salerno,FL,34992
4665,Jennifer Lewis,13166 Lake,Readfield,ME,04355
4670,Joseph Cruz,620 First,Valley City,ND,58072
4675,Joseph Watson,991 Eighth,Pinedale,AZ,85934
4680,Patricia Morris,14202 Evergreen,Chamberlain,ME,04541
4685,Joseph Peterson,13096 Main,Visalia,CA,93279
4690,James Richardson,5686 Cedar,Bondville,VT,05340
4695,Patricia Nguyen,19419 Maple,Brunswick,GA,31521
4700,David Wood,4864 Fifth,Nevis,MN,56467
4705,Barbara Lopez,2680 Seventh,Amherst,CO,80721
4710,Sarah Jones,7446 Evergreen,Boiling Springs,NC,28017
4715,Linda Ward,17324 Ninth,Fort Smith,AR,72904
4720,Linda Cox,18677 Cedar,Saint Joseph,MO,64506
4725,Susan Jones,15194 Fifth,Oroville,CA,95965
4730,Charles Adams,8553 First,Twin Peaks,CA,92391
4735,Robert Watson,9441 Evergreen,Stryker,OH,43557
4740,Charles Green,19201 Oak,Calvin,PA,16622
4745,John Morris,1646 Ninth,Browning,IL,62624
4750,Elizabeth Morales,12999 Seventh,Oakland,IL,61943
4755,Robert Martinez,11665 Fifth,Meadow Bridge,WV,25976
4760,Jessica Murphy,9806 Ninth,Staten Island,NY,10310
4765,Jennifer Morales,2586 First,Wadesboro,NC,28170
4770,James Smith,15933 Oak,Martinsville,OH,45146
4775,Jennifer Jackson,13517 Evergreen,Fort Lauderdale,FL,33320
4780,Jessica Collins,19663 Eighth,Doctors Inlet,FL,32030
4785,John Kim,12918 Lake,Weed,NM,88354
4790,David Myers,19667 Eighth,La Jolla,CA,92037
4795,Linda Myers,11536 Elm,Rogers,TX,76569
4800,David Harris,8353 Pine,Empire,CA,95319
4805,Elizabeth Cruz,3778 Maple,Webster,MN,55088
4810,Thomas Murphy,3551 Maple,Lothair,MT,59461
4815,Joseph Sanchez,1124 Park,Silver Spring,MD,20914
4820,Jessica Clark,16139 First,Dayville,CT,06241
4825,Michael Collins,14339 Elm,Rexburg,ID,83440
4830,Susan Parker,5454 Main,Cypress,IL,62923
4835,Karen Reyes,5025 Pine,Gilbert,LA,71336
4840,Jennifer Bennet,10385 Oak,Vega,TX,79092
4845,Karen Chavez,11035 First,Chestnut Hill,MA,02467
4850,William Phillips,10417 Fifth,Ansonia,CT,06401
4855,Joseph Murphy,6731 View,Woodlyn,PA,19094
4860,John Rodriguez,8490 Ninth,Dallas,TX,75397
4865,Jennifer Hughes,6928 Seventh,Palmdale,CA,93551
4870,Karen Turner,19054 Maple,APO,NY,09316
4875,Sarah Nelson,916 Ninth,Alachua,FL,32615
4880,Robert Hill,812 View,Kiln,MS,39556
4885,Jennifer Evans,15417 First,Custer,WI,54423
4890,David Nelson,10056 Washington,Laurel,MS,39443
4895,Mary Garcia,19519 Fifth,Swartz,LA,71281
4900,David Bennet,17310 Oak,Carbon,IA,50839
4905,Thomas Ortiz,19444 Main,Hale Center,TX,79041
4910,Susan Reyes,7925 Washington,Colorado Springs,CO,80931
4915,Jessica Baker,17974 Second,Clinton,IL,61727
4920,William Murphy,14904 Pine,Ghent,WV,25843
4925,Jennifer Flores,15789 Lake,Columbia,MO,65212
4930,Jessica Ross,13798 Evergreen,Chuckey,TN,37641
4935,Karen Mitchell,17482 Eighth,Cave Creek,AZ,85327
4940,Mary Nelson,6309 Washington,Panguitch,UT,84759
4945,William Peterson,15030 Main,Cincinnati,OH,45271
4950,Elizabeth Chavez,15182 Oak,Centralia,IL,62801
4955,Susan Green,13795 Ninth,Maple City,MI,49664
4960,David Thompson,4860 Maple,Harbor Springs,MI,49740
4965,Jennifer Myers,12728 Third,Brice,OH,43109
4970,Barbara Peterson,17319 First,Davilla,TX,76523
4975,Michael Thomas,13560 Lake,Yorkville,TN,38389
4980,Elizabeth Bailey,8362 Fifth,Sioux City,IA,51105
4985,William Foster,1386 Pine,Rollinsville,CO,80474
4990,Patricia Adams,15265 Main,Oelwein,IA,50662
4995,Charles Morgan,16966 Fifth,Osnabrock,ND,58269
5000,John Thompson,9911 Oak,Camp Verde,AZ,86322
5005,Mary Rodriguez,10317 Fourth,Sadler,TX,76264
5010,Michael Patel,9654 Maple,Erwinville,LA,70729
5015,William Chavez,5133 Hill,Opal,WY,83124
5020,Sarah Garcia,4947 Eighth,Turnerville,GA,30580
5025,Jennifer Thomas,13125 Maple,Frankfort,KY,40604
5030,Michael Wright,721 Third,Utica,IL,61373
5035,Thomas Wood,7587 Lake,Oak Hill,NY,12460
5040,Richard Martinez,12596 Third,Bronte,TX,76933
5045,Thomas Peterson,17330 First,San Antonio,TX,78203
5050,Michael Alvarez,19768 Maple,Deadwood,SD,57732
5055,Joseph Hernandez,13914 Washington,Solomon,AZ,85551
5060,Joseph Rivera,9525 Fifth,Waterbury,CT,06710
5065,Michael Perez,12565 Main,Washington,DC,20049
5070,William Cooper,17189 Main,Nederland,TX,77627
5075,David King,6715 Fourth,Coolidge,AZ,85128
5080,Linda Jackson,10764 Maple,Greensboro,NC,27411
5085,Richard Scott,8671 Lake,Sebring,FL,33870
5090,Elizabeth Kim,947 View,Sebring,FL,33872
5095,Patricia Kelly,2237 Seventh,Philadelphia,PA,19152
5100,James Morales,793 Cedar,Wardville,OK,74576
5105,John Young,18619 Seventh,Northwood,NH,03261
5110,Joseph Alvarez,2973 Fourth,Loxley,AL,36551
5115,Charles Smith,546 Ninth,Weldon,IA,50264
5120,John Mitchell,6890 Elm,Oblong,IL,62449
5125,Mary Howard,1134 Oak,East Springfield,OH,43925
5130,Jennifer Roberts,13770 Oak,De Pere,WI,54115
5135,Sarah Turner,17502 Ninth,Union,WV,24983
5140,Jennifer Baker,4169 View,Everton,AR,72633
5145,Karen Long,10172 Park,Charlottesville,VA,22910
5150,John Green,12503 Maple,Soso,MS,39480
5155,Mary Wood,15630 Eighth,Melvindale,MI,48122
5160,Charles Brooks,10034 Fifth,Hastings,IA,51540
5165,Charles Stewart,4212 Lake,Helm,CA,93627
5170,Richard Lee,7040 Seventh,Rangely,CO,81648
5175,Richard Ramos,18342 Third,Gaithersburg,MD,20898
5180,Mary James,8443 Lake,Guilford,ME,04443
5185,Jessica Torres,14243 View,Northampton,MA,01061
5190,Susan Chavez,5350 Ninth,Mantorville,MN,55955
5195,Elizabeth Garcia,6962 Fourth,Arnold,CA,95223
5200,Jessica Gomez,7928 Park,Summit Argo,IL,60501
5205,Sarah Sanders,11071 Fourth,Gillett,TX,78116
5210,Elizabeth Adams,7592 Eighth,Grasonville,MD,21638
5215,William Cooper,17989 Cedar,Benjamin,TX,79505
5220,James Perez,6232 View,APO,NY,09116
5225,Thomas Hernandez,10551 Hill,Saint Ann,MO,63074
5230,Charles Cox,9367 Maple,West Columbia,SC,29171
5235,Elizabeth Davis,4465 Sixth,Desdemona,TX,76445
5240,John Clark,15777 First,Conneautville,PA,16406
5245,Patricia Ramirez,15765 First,Ivydale,WV,25113
5250,Sarah Torres,2266 Lake,Swiftown,MS,38959
5255,Robert Reed,16922 Oak,Anguilla,MS,38721
5260,John Walker,17834 Main,Colchester,VT,05439
5265,Jessica White,1684 Hill,Solon Springs,WI,54873
5270,Jennifer Ramos,13131 Seventh,Meredosia,IL,62665
5275,Michael Morris,17493 Fourth,Dayton,OH,45406
5280,Karen Ruiz,7464 Fourth,Jones Mills,PA,15646
5285,Mary Ramirez,14559 Oak,Grand Rapids,MI,49548
5290,Elizabeth Moore,19907 Pine,Neelyton,PA,17239
5295,Thomas Torres,9235 Oak,Brockport,NY,14420
5300,William Bailey,9932 Elm,Caruthers,CA,93609
5305,Richard Nelson,4578 Cedar,Oakland,TX,78951
5310,Jennifer Wood,6568 Third,Lincoln,NE,68522
5315,Joseph Roberts,8368 Elm,Beaver Falls,NY,13305
5320,Charles Kim,15535 Maple,Woodruff,AZ,85942
5325,Sarah Taylor,13503 Elm,Clermont,GA,30527
5330,Thomas Castillo,1749 Pine,Greensboro,NC,27412
5335,Michael Kelly,4317 Eighth,Biloxi,MS,39533
5340,David Nguyen,14111 Third,Crestline,CA,92325
5345,Barbara Reed,7240 Lake,Farwell,MI,48622
5350,Sarah Turner,5381 Fourth,Ireton,IA,51027
5355,Richard Patel,15870 Park,Centre,AL,35960
5360,William Castillo,15002 First,Rexville,NY,14877
5365,John Watson,9329 Third,Grangeville,ID,83530
5370,Jennifer James,4656 Pine,Lansing,MI,48915
5375,Robert Edwards,850 Oak,Charleston,WV,25313
5380,Joseph Green,18577 Evergreen,Star,TX,76880
5385,John Garcia,2337 Cedar,Forestburg,TX,76239
5390,Jessica Walker,551 Lake,Oneida,IL,61467
5395,John Bennet,12507 Hill,Geneva,GA,31810
5400,Patricia Castillo,6137 Eighth,Carrier Mills,IL,62917
5405,Elizabeth Anderson,11233 Elm,Saint Louis,MO,63122
5410,Richard Alvarez,6744 Sixth,Sidney,TX,76474
5415,Barbara Rodriguez,533 Fifth,Delavan,WI,53115
5420,Mary Nelson,11412 Pine,Little Rock,AR,72214
5425,Joseph Cooper,6622 First,Grayling,MI,49739
5430,Charles Morgan,715 Washington,Somerset Center,MI,49282
5435,Jennifer James,16670 Ninth,Craig,CO,81626
5440,Joseph Ruiz,17970 Elm,Warda,TX,78960
5445,John Jimenez,18459 Main,Erwinville,LA,70729
5450,Michael Lopez,18042 Fifth,Ojai,CA,93024
5455,Robert Torres,8080 Lake,Tidioute,PA,16351
5460,Karen Davis,17058 Park,Pavo,GA,31778
5465,Charles Collins,1625 Fifth,Jacksonville,FL,32236
5470,Jennifer Kelly,3464 Park,Casper,WY,82601
5475,Charles Cox,16763 Oak,Clearlake Park,CA,95424
5480,Susan Evans,8487 Oak,Crowder,OK,74430
5485,Mary Phillips,5101 Elm,Culloden,GA,31016
5490,William Watson,18312 Eighth,West Monroe,LA,71292
5495,Sarah Sanchez,2772 View,Palmer,TN,37365
5500,Elizabeth Hughes,11597 Evergreen,Okolona,OH,43550
5505,Jennifer Sanders,1357 Washington,Dingmans Ferry,PA,18328
5510,Mary Peterson,19814 Lake,Alto,NM,88312
5515,Barbara Murphy,12641 Park,Norfork,AR,72659
5520,Robert Bailey,8435 Lake,Emerson,GA,30137
5525,Jessica Gonzales,10478 Maple,Lobelville,TN,37097
5530,Charles Bennet,16627 Ninth,Becker,MS,38825
5535,Karen Nguyen,5131 Cedar,Silver Creek,NE,68663
5540,Richard Green,3554 Elm,Jessieville,AR,71949
5545,Robert Harris,16123 Washington,Rochester,MA,02770
5550,Michael Stewart,14631 Oak,Owls Head,ME,04854
5555,Jessica Cooper,5420 Eighth,East Saint Louis,IL,62204
5560,Richard Brown,14751 Second,Summit Point,WV,25446
5565,Charles Nelson,14153 Oak,Canby,MN,56220
5570,Joseph Howard,5305 Cedar,Detroit,MI,48244
5575,Patricia Martinez,15169 First,Durham,PA,18039
5580,Barbara Howard,4720 Cedar,La Mirada,CA,90638
5585,Patricia Taylor,16729 Fourth,Readlyn,IA,50668
5590,Charles Taylor,13521 Elm,Virginia Beach,VA,23465
5595,Jennifer White,6805 Sixth,Montgomery,AL,36104
5600,Jennifer Gonzales,4254 Eighth,Fort Worth,TX,76192
5605,Barbara Moore,1011 Seventh,Tuolumne,CA,95379
5610,Thomas Kelly,2797 Ninth,Fresno,TX,77545
5615,Michael Price,10231 View,York,PA,17402
5620,Sarah Mendoza,18579 Cedar,Woodbine,NJ,08270
5625,Charles Reyes,17330 Pine,Rockville,UT,84763
5630,Thomas Young,16457 Sixth,Grandville,MI,49418
5635,Thomas Price,12041 Sixth,Goodells,MI,48027
5640,John Ruiz,4729 Fourth,Delano,CA,93216
5645,Karen Murphy,9030 View,Hobbs,NM,88241
5650,Thomas Scott,8292 Cedar,San Diego,CA,92155
5655,Robert Young,10616 Evergreen,Burr,NE,68324
5660,Jessica Stewart,14042 Pine,Motley,MN,56466
5665,Elizabeth Harris,5387 Fifth,Mason,WV,25260
5670,Charles Watson,4112 Main,Mount Olive,IL,62069
5675,James Thompson,10910 Fifth,Eldon,IA,52554
5680,Richard Wood,15383 First,Palomar Mountain,CA,92060
5685,Mary Turner,9207 Maple,Carson,ND,58529
5690,Elizabeth Thomas,16665 Third,Millport,AL,35576
5695,David Hall,16647 First,Luckey,OH,43443
5700,Sarah Jones,15859 Main,Pompano Beach,FL,33077
5705,Joseph Anderson,7523 Third,Stamford,CT,06904
5710,Barbara Scott,8776 Second,Middletown,IN,47356
5715,William Adams,15433 Main,Louisville,KY,40201
5720,John Cooper,6859 Pine,Goldthwaite,TX,76844
5725,Jennifer Anderson,16519 Second,El Rito,NM,87530
5730,Jessica Ross,13569 Ninth,Lenoxville,PA,18441
5735,Robert Thompson,16425 Washington,Miami,FL,33169
5740,Linda Turner,11463 Third,Niagara University,NY,14109
5745,Michael Perez,6449 Elm,Bethlehem,PA,18015
5750,Sarah Rogers,240 Seventh,Castaner,PR,00631
5755,Joseph Scott,1484 Second,Sibley,IL,61773
5760,Robert Castillo,4130 Second,North Eastham,MA,02651
5765,Linda Howard,8848 Lake,Bronx,NY,10464
5770,Barbara Cook,10254 Oak,Elk Grove,CA,95759
5775,John Garcia,15366 Third,Severy,KS,67137
5780,Barbara Martinez,6450 First,Pleasant Plains,IL,62677
5785,Richard Stewart,12430 Lake,Bayamon,PR,00960
5790,Susan Gutierrez,17455 Sixth,New York,NY,10168
5795,Charles Kelly,17892 Hill,New Orleans,LA,70189
5800,Karen Edwards,1419 Main,Union City,TN,38281
5805,James Allen,2604 Maple,Ivanhoe,TX,75447
5810,Karen Mendoza,146 Cedar,Butterfield,MO,65623
5815,Richard Diaz,19704 First,Fitzhugh,OK,74843
5820,Mary Lewis,4250 View,Cranberry,PA,16319
5825,Charles Ramos,543 Fifth,Malmo,NE,68040
5830,Barbara Taylor,7543 Third,Conyers,GA,30094
5835,Robert Roberts,10201 Oak,Panora,IA,50216
5840,Charles Phillips,1295 Pine,Forest Dale,VT,05745
5845,Elizabeth Adams,11727 Hill,Saltillo,TN,38370
5850,Richard Baker,7926 Third,Aultman,PA,15713
5855,William Stewart,16242 Third,Hagan,GA,30429
5860,Linda Rivera,14292 First,Ipswich,MA,01938
5865,Charles Mitchell,7481 Washington,Ada,OK,74820
5870,Charles Edwards,10249 Second,Amarillo,TX,79110
5875,Linda Lee,11444 Cedar,Goleta,CA,93117
5880,Mary Jimenez,3379 Seventh,Istachatta,FL,34636
5885,Robert Cooper,13739 Hill,Moscow,ID,83843
5890,Richard Scott,8048 Lake,Uniondale,NY,11556
5895,Robert Perez,8675 Sixth,Irondale,MO,63648
5900,Elizabeth Torres,12381 Pine,Cedar,IA,52543
5905,Mary Young,3813 Evergreen,Atlantic,PA,16111
5910,David Nguyen,8511 Fifth,Rocky Hill,CT,06067
5915,David Ortiz,3097 Fourth,Trenton,KY,42286
5920,Thomas Moore,9707 Lake,Edison,NE,68936
5925,Charles Ramos,19820 Hill,Pitkin,LA,70656
5930,Jennifer King,2291 Maple,El Cajon,CA,92019
5935,Robert Taylor,17781 Fourth,Bluffs,IL,62621
5940,Robert Thompson,298 Fourth,Los Fresnos,TX,78566
5945,William Ortiz,18407 Evergreen,Norfolk,VA,23510
5950,William Lee,12742 View,Albert Lea,MN,56007
5955,Charles Morales,8017 Lake,Houston,TX,77205
5960,Joseph Turner,10758 Pine,Lexington,VA,24450
5965,Jessica King,2333 Lake,Gouldbusk,TX,76845
5970,William Ward,5776 Maple,Longville,MN,56655
5975,Karen King,17007 Lake,Coyote Springs,NV,89037
5980,Barbara Long,3649 First,Beloit,KS,67420
5985,Elizabeth Gray,19622 First,Lake George,MN,56458
5990,Richard Hall,13442 Fifth,San Rafael,CA,94913
5995,Michael Hernandez,7299 Fourth,Winston Salem,NC,27127
6000,Robert Castillo,15159 Third,Madison,OH,44057
6005,Jessica Collins,11989 Elm,Bethel Springs,TN,38315
6010,Jennifer Baker,9986 Elm,Alexandria,VA,22303
6015,Patricia Ortiz,6409 Evergreen,Gainestown,AL,36540
6020,Charles Reed,9121 Evergreen,Rochester,NY,14639
6025,William Chavez,18125 Third,Cadillac,MI,49601
6030,Thomas Kim,15856 Park,Cypress,FL,32432
6035,Susan Peterson,18435 Washington,Portageville,MO,63873
6040,Robert Diaz,12666 Second,New Holland,PA,17557
6045,Sarah Murphy,17710 Third,Egnar,CO,81325
6050,Michael Garcia,18212 Cedar,Rock,MI,49880
6055,Michael Carter,808 Sixth,Pullman,MI,49450
6060,Joseph Miller,9176 Pine,Tremont City,OH,45372
6065,Mary Bennet,9145 Eighth,Foster,MO,64745
6070,Jennifer Gutierrez,4668 Pine,Summerfield,LA,71079
6075,Richard Ramirez,19649 Ninth,Townsend,TN,37882
6080,John Flores,12678 Sixth,State College,PA,16805
6085,Jennifer King,6496 Lake,Savannah,TN,38372
6090,Joseph Reyes,11508 Sixth,Plaucheville,LA,71362
6095,Charles Wilson,11028 Main,Maryville,IL,62062
6100,James Robinson,8049 Lake,West Creek,NJ,08092
6105,Jessica White,18148 Hill,Oak City,NC,27857
6110,Karen Smith,9678 Oak,Palm Springs,CA,92264
6115,Mary Jimenez,11348 Second,Twin Oaks,OK,74368
6120,Linda Cox,1401 View,Sunray,TX,79086
6125,Mary Nelson,13453 Park,Williamsburg,NM,87942
6130,Elizabeth Watson,17542 Third,Millers Creek,NC,28651
6135,Michael Taylor,19534 Fourth,Beallsville,PA,15313
6140,Joseph Taylor,8416 First,Readyville,TN,37149
6145,Barbara Reyes,7620 Ninth,New Haven,WV,25265
6150,James Mendoza,13947 Fourth,Prairie City,SD,57649
6155,John Hernandez,8084 Oak,Dawson,ND,58428
6160,Karen Garcia,2089 First,Wolf Lake,IL,62998
6165,Thomas Smith,10593 Third,Schenectady,NY,12304
6170,William Kim,828 Main,Abilene,TX,79605
6175,Jennifer Murphy,16145 Eighth,Pioneer,OH,43554
6180,William Kelly,15100 Elm,Hammond,MT,59332
6185,Mary Kim,16633 Third,South Mountain,PA,17261
6190,Jennifer Gray,5876 Fifth,Houston,TX,77091
6195,Richard Lewis,19459 Pine,Kennerdell,PA,16374
6200,Richard Phillips,8942 View,Hoffman,IL,62250
6205,Linda Kelly,5421 Hill,North Bennington,VT,05257
6210,William Ramirez,11123 Hill,Denver,CO,80293
6215,Linda Torres,7757 Oak,Greeneville,TN,37745
6220,Barbara James,5605 Fifth,Argyle,WI,53504
6225,Linda Rivera,3317 Main,Carmine,TX,78932
6230,Mary Thompson,958 Main,Riverview,FL,33568
6235,David Ruiz,18092 Main,Appleton,WI,54914
6240,Patricia Jimenez,1549 Hill,Wilcoe,WV,24895
6245,Jessica Rogers,17121 Sixth,Nahunta,GA,31553
6250,Karen Alvarez,8328 Maple,Redwood City,CA,94064
6255,David Perez,11439 Second,Pensacola,FL,32516
6260,Richard Jones,9462 Evergreen,Eustace,TX,75124
6265,Elizabeth Price,7752 Cedar,Lake Creek,TX,75450
6270,Patricia Williams,1222 Washington,Truro,MA,02666
6275,Jessica Taylor,14179 Seventh,Dresher,PA,19025
6280,Richard Peterson,9235 View,Martinsville,IL,62442
6285,John Sanders,14849 Oak,Myrtle,MO,65778
6290,Sarah Sanchez,11267 Sixth,San Diego,CA,92102
6295,Mary Howard,7166 Elm,Paeonian Springs,VA,20129
6300,Richard Turner,8173 Washington,Dothan,AL,36302
6305,Robert Williams,8610 Seventh,La Cygne,KS,66040
6310,Jessica Wood,3680 Elm,Chicago,IL,60685
6315,Barbara White,3258 Fourth,Frohna,MO,63748
6320,Jennifer Martin,4080 Sixth,Beaufort,SC,29904
6325,Mary Watson,318 Cedar,Saint Louis,MO,63164
6330,Linda Wilson,8939 Third,Las Vegas,NV,89185
6335,William Jones,17368 Cedar,Newbury,MA,01951
6340,John Morales,18330 Pine,North Branch,NY,12766
6345,Michael Bailey,19521 First,Winterthur,DE,19735
6350,Richard Phillips,5450 Washington,DPO,NY,09777
6355,Susan Foster,6710 Seventh,McQueeney,TX,78123
6360,Barbara Flores,13023 Fourth,Perley,MN,56574
6365,James Rogers,9123 Pine,Conrath,WI,54731
6370,Michael Bailey,12145 Maple,College Station,TX,77842
6375,Patricia Rodriguez,3799 Fifth,Williston,ND,58802
6380,Barbara Allen,10563 Second,Rhineland,MO,65069
6385,Michael Anderson,3525 Seventh,Adams,MA,01220
6390,Barbara Hill,2186 Hill,Morristown,TN,37816
6395,Susan Myers,10690 Third,Whiteface,TX,79379
6400,Michael Baker,19193 Main,Finksburg,MD,21048
6405,Susan Bennet,4884 Evergreen,Nevis,MN,56467
6410,Michael Evans,8009 Evergreen,Panorama City,CA,91402
6415,Susan Collins,11004 First,Lucile,ID,83542
6420,James Taylor,15872 Pine,Mastic Beach,NY,11951
6425,John Watson,3789 Second,McAlester,OK,74501
6430,Jessica Gonzales,15629 Main,North Dartmouth,MA,02747
6435,Charles Ramos,9580 Lake,Pound,VA,24279
6440,William Roberts,9581 Seventh,Pleasant Garden,NC,27313
6445,Michael Carter,12046 Elm,New York,NY,10045
6450,Charles Patel,11748 First,Belleville,IL,62222
6455,Mary Myers,6784 Main,Huron,IN,47437
6460,Linda Jones,5307 Third,Benton,PA,17814
6465,Jennifer Long,7553 Ninth,Cuervo,NM,88417
6470,Robert Richardson,6911 Fifth,Fowlerton,IN,46930
6475,Michael Allen,4751 Ninth,Grand Junction,CO,81505
6480,David Bennet,5301 First,Cincinnati,OH,45214
6485,Charles Parker,13275 Ninth,Jerusalem,OH,43747
6490,Mary Robinson,17637 Hill,Adams Basin,NY,14410
6495,Joseph Hill,2027 Sixth,Bluffton,MN,56518
6500,Karen Gutierrez,256 Evergreen,Monroeville,IN,46773
6505,Richard Ward,18093 View,Saint Mary,KY,40063
6510,Susan Sanders,1212 Seventh,Star,ID,83669
6515,Jessica Evans,1699 Second,Salisbury Mills,NY,12577
6520,Thomas Green,10150 Cedar,Mobile,AL,36640
6525,Jessica Scott,14594 Elm,Bradley,ME,04411
6530,Sarah Clark,18634 Park,Talco,TX,75487
6535,John Rivera,12193 Second,Sheldon,ND,58068
6540,Jennifer Gutierrez,13337 Oak,Atlanta,NE,68923
6545,Jennifer Ross,16966 Seventh,Ponce,PR,00730
6550,Mary Rogers,2352 Eighth,Kimberling City,MO,65686
6555,Karen Reyes,7664 Pine,Pulaski,PA,16143
6560,Jennifer Lewis,5427 Main,Lakeville,PA,18438
6565,Barbara Roberts,18753 Hill,Petersburg,MI,49270
6570,Elizabeth Martinez,17906 Maple,Greenville,CA,95947
6575,Thomas Davis,15317 Fifth,Warren,RI,02885
6580,Jennifer Kim,19865 Ninth,Aulander,NC,27805
6585,David Lewis,10041 Park,Saint Charles,MO,63303
6590,Richard Murphy,9869 Main,Alleman,IA,50007
6595,Michael Ruiz,6760 View,Elgin,AZ,85611
6600,James Morales,4350 Evergreen,South Padre Island,TX,78597
6605,Susan Wright,2017 Fourth,Canoga Park,CA,91304
6610,Richard Chavez,12427 Maple,Cohasset,MA,02025
6615,Elizabeth Watson,18492 Ninth,Dennis,TX,76439
6620,Richard Ramos,18737 Seventh,Valmy,NV,89438
6625,Richard Ramos,17792 Third,Prospect,PA,16052
6630,James Morgan,8952 Evergreen,Capitol Heights,MD,20731
6635,Mary Cruz,14853 Oak,West Point,NY,10997
6640,David Price,15310 Ninth,Panama City Beach,FL,32407
6645,Robert Brooks,17576 Washington,New Braunfels,TX,78132
6650,Jennifer Garcia,11439 View,Detroit,MI,48205
6655,Robert Reyes,3935 Maple,Charlevoix,MI,49720
6660,Richard Evans,7222 Lake,Wolbach,NE,68882
6665,Jessica Young,6793 Sixth,Redwood,VA,24146
6670,Joseph King,105 Cedar,Corpus Christi,TX,78419
6675,Linda Walker,7890 Ninth,Myra,WV,25544
6680,Thomas Richardson,253 Second,Quinnesec,MI,49876
6685,William Jimenez,19609 Maple,Elmira,MI,49730
6690,Robert Murphy,11289 Lake,Galesville,MD,20765
6695,Charles Hernandez,6418 Fourth,Idledale,CO,80453
6700,Karen Rodriguez,14693 Cedar,Spirit Lake,IA,51360
6705,Joseph Martin,15987 Third,East Syracuse,NY,13057
6710,Thomas Scott,3839 Seventh,Knotts Island,NC,27950
6715,James Thompson,9104 Hill,Amsterdam,OH,43903
6720,Barbara Reed,12198 Hill,Ridgeland,MS,39158
6725,Barbara Roberts,3457 Hill,Terrell,TX,75160
6730,Jennifer Sanchez,14255 Evergreen,Richards,MO,64778
6735,Jennifer Parker,5485 Ninth,Bar Mills,ME,04004
6740,Sarah Davis,18002 Park,APO,NY,09890
6745,Jennifer Gomez,1304 Washington,Dinero,TX,78350
6750,Sarah Cox,1507 Eighth,West Simsbury,CT,06092
6755,William Watson,8954 Oak,Axtell,KS,66403
6760,Thomas Nelson,3412 Washington,Lewisburg,WV,24901
6765,John Sanchez,13174 Cedar,Clune,PA,15727
6770,Michael Rogers,6794 Fourth,Climax Springs,MO,65324
6775,David Gonzales,5579 Washington,Sealevel,NC,28577
6780,Elizabeth Morris,12843 Seventh,Belen,NM,87002
6785,Robert Torres,5553 Elm,Bastrop,TX,78602
6790,Joseph Martin,13274 Sixth,Gordon,PA,17936
6795,James Wood,10086 First,Tampa,FL,33685
6800,John Peterson,6883 Fourth,Monroe,TN,38573
6805,Thomas Anderson,18663 Seventh,Louisville,KY,40280
6810,James Peterson,18901 Lake,San Antonio,TX,78291
6815,Robert Morgan,628 Pine,Corolla,NC,27927
6820,Linda Williams,522 Pine,Dallas,TX,75326
6825,John Garcia,3216 Main,Flint,MI,48506
6830,Susan Turner,11523 Maple,Glendale Heights,IL,60139
6835,Mary Hughes,14625 View,Amboy,IN,46911
6840,Charles Cruz,5237 Eighth,Bottineau,ND,58318
6845,Jessica Robinson,13946 Second,Huntington,AR,72940
6850,Robert Wright,8096 Lake,Chicago,IL,60621
6855,David Ruiz,468 Eighth,Callender,IA,50523
6860,William Rogers,6462 Sixth,Wheatland,IA,52777
6865,Jessica Bailey,10946 Elm,Arvin,CA,93203
6870,Jessica Gomez,14809 Sixth,Warnerville,NY,12187
6875,Charles Robinson,4991 Hill,Weidman,MI,48893
6880,Joseph Baker,7094 Evergreen,Niles,IL,60714
6885,Robert James,5808 Second,Lancaster,PA,17573
6890,Linda Jackson,2184 Evergreen,Hartford,TN,37753
6895,William Phillips,17072 Sixth,Acme,MI,49610
6900,John Phillips,9742 Evergreen,Memphis,TN,38145
6905,Michael Richardson,19559 Maple,Pascagoula,MS,39569
6910,Jessica Jones,7520 Third,Coral Springs,FL,33075
6915,William Foster,3019 Lake,Holstein,NE,68950
6920,Linda Torres,6170 Evergreen,Advance,IN,46102
6925,Susan Anderson,1241 Washington,Englewood,CO,80155
6930,James Hernandez,7258 Ninth,Jessup,PA,18434
6935,Karen Cox,8645 Fourth,New Haven,CT,06508
6940,Elizabeth Williams,1559 Oak,Amesbury,MA,01913
6945,Karen Phillips,12307 Lake,Atlanta,MI,49709
6950,William Richardson,840 First,Littleton,CO,80130
6955,William Diaz,904 Evergreen,Elloree,SC,29047
6960,Patricia Collins,185 Second,Patchogue,NY,11772
6965,Sarah Hill,787 Hill,Tiverton,RI,02878
6970,Patricia Jones,19992 View,Elm Grove,WI,53122
6975,Michael Kim,7047 Park,West Bend,WI,53095
6980,Joseph Morgan,1095 Park,Corbin,KY,40702
6985,Mary Gonzales,4858 Oak,La Fargeville,NY,13656
6990,Patricia Gutierrez,5031 Ninth,Linn,MO,65051
6995,Richard Murphy,19765 View,Columbia,SC,29250
7000,Sarah Taylor,18360 Fifth,Stamford,CT,06904
7005,John Hughes,13021 Lake,Savonburg,KS,66772
7010,Patricia Howard,4355 Park,Rio Blanco,PR,00744
7015,Barbara Sanders,11705 View,Xenia,OH,45385
7020,James Morris,260 Ninth,Vera,OK,74082
7025,Jennifer Bennet,17382 Oak,Houston,TX,77202
7030,James Morgan,11135 Elm,Riley,IN,47871
7035,Robert Cook,14070 Park,Palmetto,FL,34220
7040,Richard Moore,18184 Park,Oregon,WI,53575
7045,Joseph Richardson,16348 Maple,Harrison,MT,59735
7050,Joseph Carter,14315 Eighth,Downey,CA,90241
7055,Linda Lewis,89 Main,Boone,NC,28607
7060,Sarah Cruz,2503 Eighth,Fort Bridger,WY,82933
7065,Robert Reed,14956 Park,Dana,IL,61321
7070,Jessica Moore,14160 Washington,Corning,KS,66417
7075,Thomas Myers,19377 Ninth,Kinross,MI,49752
7080,Jennifer Williams,3665 Second,Las Vegas,NV,89150
7085,Charles Harris,16675 Main,Interlachen,FL,32148
7090,Mary Smith,16806 Hill,Westfield,NJ,07091
7095,Jennifer Murphy,14238 Hill,Fort Benning,GA,31905
7100,Jennifer Smith,2326 Pine,Great Cacapon,WV,25422
7105,Richard Rivera,13240 Oak,Purlear,NC,28665
7110,Karen Hernandez,19088 Cedar,Rockbridge,MO,65741
7115,Susan Adams,1156 Cedar,Reidsville,GA,30499
7120,Robert Roberts,10347 Pine,Billings,MT,59108
7125,John Wood,18613 Cedar,Louisville,KY,40201
7130,Richard Sanchez,12107 First,Great Falls,MT,59406
7135,Jennifer Morales,9582 View,Fresno,CA,93793
7140,Linda Nelson,10642 Ninth,Gustine,CA,95322
7145,Karen Stewart,3746 Lake,Theresa,WI,53091
7150,Barbara Robinson,13911 Fourth,North Andover,MA,01845
7155,Linda Jackson,1800 Evergreen,Hensonville,NY,12439
7160,Patricia Brooks,8666 Pine,Waco,NE,68460
7165,Thomas Myers,15501 Seventh,Perris,CA,92570
7170,Robert Peterson,3084 Pine,Niantic,IL,62551
7175,John Reyes,15207 Maple,Schell City,MO,64783
7180,Sarah Robinson,4515 Second,Saint Meinrad,IN,47577
7185,Charles Taylor,4561 Washington,Bellefontaine,MS,39737
7190,Jessica Reyes,1766 Sixth,Lees Summit,MO,64064
7195,Jennifer Moore,11666 Washington,Valencia,PA,16059
7200,David Rivera,15393 Hill,Gardena,CA,90248
7205,Susan Jones,12225 Evergreen,Mantador,ND,58058
7210,Thomas Kim,15851 Lake,Fremont,NE,68025
7215,Joseph Wood,16886 Second,Atlanta,GA,30362
7220,William Parker,18910 Pine,FPO,NY,09712
7225,Jennifer Hernandez,9501 Ninth,Cincinnati,OH,45271
7230,Mary Long,17493 Lake,Perkinsville,VT,05151
7235,Richard Davis,16948 Elm,Rochester,NY,14646
7240,Michael Flores,12788 Washington,Denio,NV,89404
7245,David Kelly,9752 Washington,Sterling,KS,67579
7250,Richard Baker,17784 Maple,Saint Louis,MO,63188
7255,James Jones,15364 Hill,Umatilla,FL,32784
7260,Patricia Murphy,16715 View,Washington,VT,05675
7265,Karen Chavez,5925 Third,Wayne,ME,04284
7270,William Gray,19026 Oak,Portland,IN,47371
7275,Joseph Wood,6491 Washington,Pocatello,ID,83202
7280,Jennifer Lewis,15512 Fifth,Delaware City,DE,19706
7285,Jessica Anderson,4442 Ninth,Corning,KS,66417
7290,Sarah Ruiz,19806 Fourth,Martinsburg,OH,43037
7295,Jennifer Morales,275 Cedar,Hinkley,CA,92347
7300,Charles Nelson,18313 Ninth,Saxon,WI,54559
7305,Karen Harris,7812 Hill,Cleburne,TX,76033
7310,Susan Rodriguez,2983 Oak,Washington Depot,CT,06794
7315,John Hall,3773 Main,Oakley,KS,67748
7320,Susan Turner,19094 Hill,Powells Point,NC,27966
7325,David Thomas,16053 Oak,Russell,KY,41169
7330,Mary Edwards,5238 Hill,Ontario,WI,54651
7335,Thomas Watson,19768 Second,APO,CA,09904
7340,Charles Morales,6641 Oak,Celeste,TX,75423
7345,Robert Davis,15260 Elm,Elizabethton,TN,37643
7350,Barbara Ortiz,329 Second,Cullman,AL,35055
7355,David Parker,17261 Third,Epes,AL,35460
7360,Robert Garcia,10010 Main,Dora,MO,65637
7365,Jessica Diaz,15538 Third,East Hartford,CT,06128
7370,Thomas Wilson,8246 Lake,Frenchtown,MT,59834
7375,David Roberts,8486 Sixth,Springfield,MA,01129
7380,Joseph Kim,17273 Sixth,Palermo,CA,95968
7385,Linda Cruz,5320 Park,Terrell,TX,75161
7390,Thomas Mitchell,10100 Evergreen,Birmingham,AL,35261
7395,John Garcia,1514 Pine,Pitman,NJ,08071
7400,Jennifer Morris,7626 Fifth,Oradell,NJ,07649
7405,Patricia Patel,10919 Evergreen,Williston,FL,32696
7410,Jessica Hill,13113 Park,Sierra Vista,AZ,85636
7415,Jennifer Adams,2198 Fourth,Tucson,AZ,85718
7420,Sarah Clark,8895 View,Leeds,ND,58346
7425,David Bailey,8868 Fifth,Balsam Lake,WI,54810
7430,David Jackson,6410 Pine,Henrico,VA,23229
7435,Joseph Collins,6972 Second,Stuart,OK,74570
7440,Jessica Walker,19356 Eighth,Tateville,KY,42558
7445,Barbara Moore,18706 Second,Sun Valley,NV,89433
7450,Joseph Nelson,6260 Fifth,Big Timber,MT,59011
7455,James Lewis,12410 Elm,Ivanhoe,MN,56142
7460,Thomas Smith,18465 Maple,Washington,DC,20434
7465,Karen Turner,2873 Park,Kincheloe,MI,49786
7470,Robert Reed,15939 Park,Ardmore,OK,73401
7475,Mary Scott,933 Lake,Orange,CA,92866
7480,John Perez,10204 Main,Robins,IA,52328
7485,John Evans,19248 Cedar,APO,CA,96275
7490,Michael Hughes,8232 Evergreen,Louisville,KY,40224
7495,Elizabeth Scott,17361 Park,Staten Island,NY,10314
7500,David Lopez,11183 Oak,Lodgepole,SD,57640
7505,Richard Hall,17431 Eighth,Oxford,OH,45056
7510,John Thompson,5773 First,Bath,NH,03740
7515,Richard Gomez,747 Ninth,Grand Rapids,MI,49588
7520,Barbara Lee,14891 Fourth,Lincoln,NE,68514
7525,Linda Hernandez,9325 Washington,Bonnerdale,AR,71933
7530,Karen Smith,12464 Maple,Panama City,FL,32405
7535,David Morris,1396 Hill,Redfield,NY,13437
7540,Charles Reyes,9513 Hill,Fairplay,CO,80440
7545,William Phillips,9312 Eighth,Eagarville,IL,62023
7550,Elizabeth Sanchez,3508 Fifth,Loma Linda,CA,92357
7555,Jessica Peterson,19340 Eighth,Miami Beach,FL,33139
7560,Michael Jimenez,18971 Pine,Boone,CO,81025
7565,Jessica Kelly,6816 Park,Leachville,AR,72438
7570,Linda Price,2012 Third,Ancram,NY,12502
7575,Susan Smith,1866 Third,Scott,AR,72142
7580,Michael Parker,16251 View,Princeton,IN,47670
7585,David Young,11379 Lake,Denmark,NY,13631
7590,Joseph Garcia,15929 Park,Bee,VA,24217
7595,Richard Campbell,18132 Cedar,Tyler,TX,75710
7600,Barbara Anderson,15269 Maple,Port Costa,CA,94569
7605,Thomas Murphy,18325 Third,Richmond,VA,23226
7610,Susan Allen,1353 Ninth,Modesto,CA,95354
7615,Jessica Ruiz,5458 First,Austin,TX,78759
7620,John Collins,1704 Fourth,Fessenden,ND,58438
7625,Karen Gomez,12930 Eighth,Grand Island,NY,14072
7630,Patricia King,5095 Oak,Triplett,MO,65286
7635,Susan Hernandez,13268 Eighth,Lancaster,SC,29722
7640,Richard Turner,1707 Second,Johnson,NY,10933
7645,Susan Robinson,6484 View,El Paso,TX,88546
7650,Sarah Bennet,506 Hill,Lake Monroe,FL,32747
7655,Susan Williams,9894 Oak,Whitehorse,SD,57661
7660,Mary Miller,19599 Sixth,Greenville,GA,30222
7665,Michael Roberts,16155 Main,De Armanville,AL,36257
7670,Charles Ruiz,8455 Washington,Delaware,IA,52036
7675,Charles Carter,7270 Seventh,Bickmore,WV,25019
7680,David Miller,5121 Eighth,Glen Oaks,NY,11004
7685,John Adams,9178 Main,Gibbonsville,ID,83463
7690,Michael Gonzales,16476 Lake,Westcliffe,CO,81252
7695,Linda Collins,14480 Evergreen,Duncan,MS,38740
7700,William Lewis,3048 Oak,Marquette,NE,68854
7705,Jennifer Mitchell,3439 Maple,Hassell,NC,27841
7710,Richard Harris,9921 Maple,Gillett,WI,54124
7715,David Howard,17464 Lake,Warrendale,PA,15096
7720,Patricia Flores,17761 Third,Denver,CO,80235
7725,Elizabeth Rivera,12509 Third,Thurmont,MD,21788
7730,Susan Long,1370 Park,El Paso,TX,88570
7735,Linda Gonzales,18582 Eighth,Sterling,ND,58572
7740,Robert Robinson,6890 View,Washington,DC,20251
7745,Michael Kelly,15311 Evergreen,Richardson,TX,75082
7750,Mary Cooper,19985 Ninth,Bath,NC,27808
7755,Jessica Lewis,4284 Elm,Wesley,IA,50483
7760,Michael Thompson,13695 Elm,Parkhill,PA,15945
7765,Sarah Mitchell,13921 Third,Pierz,MN,56364
7770,Sarah Miller,1195 Maple,Germantown,OH,45327
7775,William Campbell,2700 Park,Strongstown,PA,15957
7780,Robert Castillo,14547 Cedar,Philadelphia,PA,19138
7785,Thomas Evans,2109 Elm,New Haven,IL,62867
7790,Karen Edwards,13165 Elm,Oxford,NY,13830
7795,Richard Lewis,15427 First,Wesley Chapel,FL,33543
7800,Charles Cruz,1753 Elm,Parcel Return Service,DC,56904
7805,Sarah Peterson,5506 Ninth,Kansas City,MO,64164
7810,Jennifer Jimenez,11903 Fourth,Naples,FL,34104
7815,Susan Miller,14400 Park,Badin,NC,28009
7820,Linda Bennet,166 Fourth,Las Vegas,NV,89137
7825,Joseph Adams,11014 Seventh,Roark,KY,40979
7830,William Ramos,19416 Evergreen,Ponce,PR,00717
7835,Jessica White,9419 Hill,DPO,FL,34008
7840,Charles Howard,10269 Washington,Tyler,TX,75710
7845,Jennifer Evans,17805 Ninth,Scranton,PA,18510
7850,David Watson,15110 Evergreen,Kernville,CA,93238
7855,David Cook,4163 Maple,Boulder City,NV,89006
7860,Sarah Brooks,7410 Main,Marion,MT,59925
7865,Barbara Cooper,16816 Seventh,Blue Diamond,NV,89004
7870,Joseph Hernandez,15802 First,Freeport,MI,49325
7875,Jessica Martin,1826 Eighth,Albany,IN,47320
7880,James Diaz,5842 Hill,Sterling Heights,MI,48312
7885,Linda Ward,3854 Fourth,Walker,SD,57659
7890,Patricia Watson,15963 View,Cunningham,TN,37052
7895,Sarah Martinez,19509 First,Oakland,TX,78951
7900,Karen Martinez,15702 First,Bear Creek,WI,54922
7905,Thomas Lewis,4223 Ninth,Indianapolis,IN,46224
7910,Elizabeth Jimenez,17165 Elm,Tilton,IL,61833
7915,Barbara Chavez,3517 Cedar,Ridgefield,CT,06877
7920,Elizabeth Jackson,12655 Ninth,Northwood,NH,03261
7925,Mary Morales,8185 Hill,Cross Plains,TX,76443
7930,Charles Diaz,18614 Evergreen,New York,NY,10005
7935,Elizabeth Jimenez,8453 Pine,Salem,KY,42078
7940,Joseph Cox,16924 Main,San Antonio,TX,78298
7945,Susan Gray,19618 First,Nachusa,IL,61057
7950,Michael Adams,13377 Pine,Newburgh,NY,12552
7955,Jessica Morgan,18836 Hill,Grand Rapids,MN,55730
7960,Charles Cooper,13191 Eighth,De Pere,WI,54115
7965,Susan Murphy,5247 Pine,Greensboro,NC,27438
7970,Joseph Scott,18616 Cedar,Lexington,KY,40515
7975,Robert Brown,5172 Main,Dunn Loring,VA,22027
7980,Elizabeth Patel,12731 Oak,Stroh,IN,46789
7985,Jessica Murphy,14924 Washington,Malone,FL,32445
7990,Joseph Robinson,18425 Cedar,Victorville,CA,92392
7995,William Ruiz,6854 Maple,Renner,SD,57055
8000,Robert Murphy,8003 Cedar,Bagdad,KY,40003
8005,Barbara Martinez,10183 Elm,Wayzata,MN,55391
8010,Jennifer Myers,13139 View,Whitehorse,SD,57661
8015,Sarah Cox,8835 Eighth,Eagle Nest,NM,87718
8020,John Rogers,19126 Lake,Rawl,WV,25691
8025,Michael Carter,15340 Seventh,Ray,OH,45672
8030,David Taylor,7650 View,Glendale,CA,91226
8035,Jennifer Edwards,5250 Fifth,Essex,CA,92332
8040,Sarah Jimenez,6370 Elm,Bentonia,MS,39040
8045,James Ross,16742 Second,Hood,CA,95639
8050,Jennifer Edwards,14024 View,Albertville,AL,35951
8055,Jessica Cooper,16248 Seventh,Baton Rouge,LA,70813
8060,William Lopez,18281 Lake,Watertown,NY,13601
8065,William Lee,15644 Maple,Poyntelle,PA,18454
8070,Sarah Baker,19337 Maple,Lengby,MN,56651
8075,Patricia Diaz,16605 Ninth,Big Lake,TX,76932
8080,Jennifer Ross,10660 Lake,Findlay,OH,45839
8085,Susan Thompson,3261 Fifth,Las Vegas,NM,87701
8090,Barbara Myers,6147 Hill,Cooter,MO,63839
8095,Jennifer Brown,3567 First,Escondido,CA,92026
8100,Karen Anderson,8555 Hill,Spring Branch,TX,78070
8105,Richard Thompson,2765 Seventh,Walnut Hill,IL,62893
8110,Susan Alvarez,4760 Sixth,Irene,SD,57037
8115,William Price,6984 Eighth,Elmira,NY,14903
8120,James Kim,8783 Park,Cook,MN,55723
8125,Thomas Bailey,2326 Sixth,Rochester,MI,48306
8130,Charles Martinez,11517 Seventh,Orlando,FL,32830
8135,Jessica Hughes,14883 Lake,Amsterdam,MO,64723
8140,Joseph Walker,8321 Second,Mesa,AZ,85212
8145,William Lewis,6312 Third,Port Isabel,TX,78578
8150,Robert Cook,2012 Evergreen,Lawrenceville,IL,62439
8155,Linda Reyes,16580 Oak,Gardner,IL,60424
8160,William Brooks,2305 Washington,Clermont,FL,34711
8165,Patricia Chavez,4842 Fifth,Eagleville,PA,19408
8170,John King,8515 Fifth,Syracuse,UT,84075
8175,Robert Torres,9115 Third,Tampa,FL,33622
8180,William Foster,16422 Cedar,Kathryn,ND,58049
8185,Mary Ward,16319 Eighth,Stevensville,MT,59870
8190,Patricia Ruiz,5632 Fourth,Bluff City,KS,67018
8195,Joseph Rodriguez,12451 Second,Forestville,MI,48434
8200,Michael Ross,4177 Ninth,Vallejo,CA,94591
8205,David Morris,10892 Second,Merrimac,MA,01860
8210,Susan Stewart,13915 Lake,Laughlintown,PA,15655
8215,Karen Richardson,12256 First,Dwight,NE,68635
8220,Jessica Cruz,9816 Oak,Irving,NY,14081
8225,Linda Torres,3873 Maple,Fluvanna,TX,79517
8230,Sarah Taylor,8646 First,Baldwin,MI,49304
8235,Robert Foster,16483 Sixth,Blue Rapids,KS,66411
8240,William Gray,4370 Pine,Sutherland,NE,69165
8245,William Torres,8933 Oak,Portsmouth,RI,02871
8250,James Diaz,17527 Fifth,Skanee,MI,49962
8255,Thomas Hill,10810 First,Dallas,TX,75313
8260,Karen Perez,17206 Fourth,Florala,AL,36442
8265,David Kelly,8024 View,Bethesda,MD,20824
8270,Michael Moore,14787 Main,Winchester,OH,45697
8275,James Thompson,3560 Cedar,Grantville,GA,30220
8280,Thomas Lee,1264 Washington,Prague,NE,68050
8285,Linda Campbell,3535 Lake,Sugar Tree,TN,38380
8290,Patricia Roberts,1430 Evergreen,Lexington,MS,39095
8295,Susan Anderson,5541 Lake,Hardwick,MN,56134
8300,Jessica Evans,12160 Park,Lincoln,NE,68502
8305,William Collins,18249 Pine,Forest City,NC,28043
8310,William Myers,952 View,Albertville,AL,35951
8315,Jennifer Phillips,2413 Washington,Clifton Forge,VA,24422
8320,Patricia Ruiz,11852 First,Butte,MT,59703
8325,Susan Garcia,6437 Maple,Bronx,NY,10461
8330,Charles Alvarez,13123 Pine,Toledo,OH,43612
8335,Jessica Phillips,4581 Oak,Moran,TX,76464
8340,David Myers,5135 Eighth,Atkinson,NE,68713
8345,James Wilson,12511 First,Kilgore,TX,75662
8350,Barbara Jones,10632 Oak,Irving,TX,75063
8355,William Lee,15556 Oak,Snow Shoe,PA,16874
8360,Patricia Rogers,2899 Maple,APO,NY,09323
8365,Jennifer Wright,6177 Fifth,Las Vegas,NV,89121
8370,Jessica Howard,7603 First,Erie,PA,16550
8375,Thomas Hughes,12977 Seventh,Riverside,TX,77367
8380,Patricia Gonzales,4943 Lake,Parowan,UT,84761
8385,Mary Roberts,10153 Seventh,Little River,AL,36550
8390,David Gutierrez,18063 Main,Bayamon,PR,00956
8395,Patricia Thomas,9650 View,Bell City,MO,63735
8400,Elizabeth Williams,19707 Fourth,Mount Storm,WV,26739
8405,Elizabeth Cooper,7069 View,Lancing,TN,37770
8410,Susan Collins,19843 View,Moraga,CA,94570
8415,Jessica Edwards,1211 First,Hanksville,UT,84734
8420,Jennifer Cooper,1656 First,Midland,TX,79712
8425,John Wilson,17477 Oak,Kansas City,MO,64195
8430,John Kim,10854 Pine,Milwaukee,WI,53216
8435,David Diaz,15013 Lake,Bayside,CA,95524
8440,Thomas Martinez,19752 Hill,Maxwell,IN,46154
8445,Sarah Hall,9941 First,Yucaipa,CA,92399
8450,Susan Flores,6966 Second,French Camp,MS,39745
8455,Thomas Davis,11967 Seventh,Cleburne,TX,76031
8460,James Chavez,1803 Evergreen,Saint George,UT,84790
8465,Jennifer Johnson,8652 Ninth,Aztec,NM,87410
8470,Sarah Richardson,7793 Second,Banquete,TX,78339
8475,Barbara Chavez,4948 Oak,Atlantic Mine,MI,49905
8480,Jessica Cox,6793 Ninth,El Paso,TX,79961
8485,David Kelly,8536 Sixth,Arcadia,CA,91066
8490,Patricia Ramos,3286 Oak,Kennard,IN,47351
8495,David Hughes,9975 Oak,Saint Paul,MN,55108
8500,Linda Lee,11567 Fourth,Albany,NY,12244
8505,Robert Long,4094 Evergreen,Henrico,VA,23231
8510,Jennifer Lee,11477 Hill,Victoria,IL,61485
8515,Karen Bailey,17325 Maple,Williamsport,PA,17702
8520,Mary Stewart,1890 Evergreen,Southampton,NY,11968
8525,Elizabeth Lee,2655 View,Rufe,OK,74755
8530,Susan Hall,10339 Sixth,Boswell,PA,15531
8535,Jennifer Torres,15118 Hill,Wattsville,AL,35182
8540,Charles Cooper,1167 Lake,Fairfax,VA,22033
8545,Barbara Lee,14796 Eighth,Andover,NY,14806
8550,Susan Nguyen,18370 Pine,Rising City,NE,68658
8555,Jessica Kim,17329 First,Highland Park,NJ,08904
8560,Patricia Rogers,12807 Third,Lakeside,MT,59922
8565,William Cruz,18620 Park,Leeds,UT,84746
8570,Richard Cruz,11323 Main,Vilas,CO,81087
8575,James Scott,15905 Cedar,Arlington,TX,76002
8580,Barbara Phillips,16737 Elm,Montgomery,AL,36123
8585,John Lee,19001 Fifth,New York,NY,10090
8590,Barbara Turner,5618 Park,Kittery Point,ME,03905
8595,Richard King,16373 Oak,Bradenton,FL,34209
8600,Richard Robinson,1839 Maple,Lake Pleasant,NY,12108
8605,William Kelly,9720 Oak,Loveville,MD,20656
8610,Jessica Mitchell,16868 Hill,Fort Collins,CO,80528
8615,Joseph Hill,19355 Third,Forest City,IA,50436
8620,Charles Watson,11294 Lake,Sawyer,OK,74756
8625,Patricia Nguyen,906 Fourth,New Boston,MO,63557
8630,Thomas Robinson,2555 Ninth,Inglewood,CA,90307
8635,Sarah Hernandez,4665 Fourth,Pell City,AL,35128
8640,Jennifer Parker,12715 Eighth,Mayfield,KS,67103
8645,James Bailey,4652 Hill,South Casco,ME,04077
8650,Susan Peterson,2757 Seventh,Protem,MO,65733
8655,Joseph Gomez,6781 Eighth,McConnell,IL,61050
8660,Jennifer Stewart,5918 Seventh,Saint Paul,MN,55122
8665,David Wilson,9333 Lake,Brea,CA,92822
8670,Robert Rivera,12231 Second,Ithaca,NY,14850
8675,Robert Morales,15302 View,Mohnton,PA,19540
8680,Michael Robinson,12865 Pine,San Antonio,TX,78202
8685,Linda Sanders,9247 First,Charleroi,PA,15022
8690,Joseph Thompson,14384 Pine,Bloomington,TX,77951
8695,Richard Gray,17860 Eighth,South Royalton,VT,05068
8700,Barbara Kim,11038 Maple,Muskegon,MI,49442
8705,Mary Long,19605 Park,Denver,CO,80219
8710,Joseph Morgan,18341 Oak,Sacramento,CA,94261
8715,Karen Rivera,955 Hill,Canton,IL,61520
8720,Jessica Hughes,19865 Hill,Hollandale,MN,56045
8725,Michael Young,10139 Pine,Brookfield,NY,13314
8730,Thomas Turner,8064 Pine,Clear Lake,WI,54005
8735,William Davis,4208 Pine,Franklin Springs,NY,13341
8740,Patricia Rodriguez,12217 Park,Normanna,TX,78142
8745,Thomas Richardson,1480 Pine,East Saint Louis,IL,62204
8750,Charles Miller,14105 Fifth,Poplar,WI,54864
8755,Thomas Wright,12862 Oak,Walnut Cove,NC,27052
8760,Karen Kim,15468 Fifth,Magnolia,AR,71754
8765,Sarah Rodriguez,3196 Lake,East Orange,NJ,07019
8770,Charles Wood,8669 Pine,Hematite,MO,63047
8775,Jennifer Turner,14570 Fourth,Dixon Springs,TN,37057
8780,Joseph Lopez,31 Maple,Bohannon,VA,23021
8785,Thomas Bennet,11586 Washington,Redondo Beach,CA,90277
8790,Elizabeth Jones,8342 Pine,Indianapolis,IN,46282
8795,Patricia Garcia,19304 Main,Newark,NJ,07189
8800,Joseph Patel,274 Cedar,Tucson,AZ,85711
8805,Susan Cox,12752 First,Seven Springs,NC,28578
8810,John Ramos,13066 Second,Garland,TX,75046
8815,Thomas Phillips,16258 Second,Lockwood,NY,14859
8820,Sarah Perez,2206 Fifth,Hortonville,NY,12745
8825,Barbara Cook,2720 Evergreen,Lewis Center,OH,43035
8830,Jennifer Garcia,6277 Evergreen,Placerville,ID,83666
8835,Michael Garcia,19225 Second,Cloudcroft,NM,88317
8840,Karen Brooks,4922 Second,New Hope,KY,40052
8845,Robert Reyes,8521 Pine,Sherman Oaks,CA,91413
8850,Barbara White,4433 Lake,Burleson,TX,76097
8855,Richard Wright,9396 Elm,Saint Petersburg,FL,33712
8860,William Stewart,12487 Sixth,Gordon,NE,69343
8865,Susan Smith,2168 Lake,Van Etten,NY,14889
8870,Patricia Stewart,18558 Main,Tampa,FL,33673
8875,Joseph Castillo,4912 Hill,Waltonville,IL,62894
8880,David Robinson,19675 Oak,Grassy Meadows,WV,24943
8885,Thomas Collins,4605 Evergreen,Nantucket,MA,02584
8890,Robert Castillo,116 Eighth,Greeleyville,SC,29056
8895,Michael Mitchell,8423 Elm,Pulaski,PA,16143
8900,John Carter,8165 Park,Philpot,KY,42366
8905,Thomas White,11222 Sixth,Raywick,KY,40060
8910,Jessica Reyes,6408 Elm,Castalia,IA,52133
8915,Mary Anderson,8970 Second,Starr,SC,29684
8920,Robert Patel,13823 Third,Atlanta,GA,30370
8925,Elizabeth Thomas,18920 Lake,Hampton,NH,03842
8930,James Ortiz,13652 Lake,Londonderry,VT,05148
8935,Susan Howard,864 First,Dry Prong,LA,71423
8940,Karen Brooks,18220 Main,New Burnside,IL,62967
8945,Patricia Jones,2377 Sixth,Paxton,IN,47865
8950,Charles Price,18757 Oak,Tuckahoe,NJ,08250
8955,Jessica Williams,9204 First,Benton,MS,39039
8960,Jennifer Diaz,3291 Second,San Jose,CA,95108
8965,William Ward,14910 Pine,Pine Apple,AL,36768
8970,Michael Ross,11345 First,Milton,PA,17847
8975,Linda Robinson,3625 Evergreen,Fiddletown,CA,95629
8980,Robert Hall,9663 Elm,Great Lakes,IL,60088
8985,Susan Reyes,5297 First,Swiftwater,PA,18370
8990,Richard Gutierrez,12339 Fourth,Gurdon,AR,71743
8995,Susan Anderson,9633 Fifth,Williamsburg,IN,47393
9000,Susan Reyes,445 Hill,Edgeley,ND,58433
9005,Elizabeth Rodriguez,10371 Ninth,Bertrand,NE,68927
9010,Linda Brown,19674 Elm,El Paso,TX,79932
9015,Jennifer Wilson,3075 Park,Gadsden,AL,35901
9020,Charles Martinez,7764 Second,Vero Beach,FL,32969
9025,Richard Wood,397 Third,Benton City,MO,65232
9030,Thomas Mitchell,8057 Fifth,Rockford,IL,61125
9035,Joseph Roberts,960 Ninth,Chicago,IL,60640
9040,Sarah Perez,432 Oak,Onarga,IL,60955
9045,Jessica Lopez,9411 Hill,Racine,WI,53403
9050,Sarah Cox,11648 Ninth,La Grange,MO,63448
9055,Barbara King,10720 Maple,Woodland,CA,95776
9060,Richard Cook,3077 First,APO,NY,09848
9065,Robert Alvarez,10869 Second,Rio,IL,61472
9070,David Moore,2834 Pine,Memphis,TN,38194
9075,Thomas Gomez,2186 Third,Hollywood,FL,33024
9080,Thomas Nelson,425 Ninth,White Rock,SC,29177
9085,Barbara Ward,3942 Fifth,Saint Paul,MN,55116
9090,Jessica Hernandez,17141 Pine,DPO,NY,09277
9095,Patricia Adams,11683 Elm,Okaton,SD,57562
9100,Charles Lee,10785 Main,Plainville,IN,47568
9105,John King,5149 Oak,Chesapeake Beach,MD,20732
9110,David Johnson,14144 Fourth,Naples,FL,34108
9115,Sarah Flores,2581 Oak,Lubbock,TX,79493
9120,Thomas Perez,2222 Main,Tyler,TX,75712
9125,James Peterson,4584 Hill,Saint Cloud,FL,34770
9130,James Phillips,17914 Oak,Crete,NE,68333
9135,Elizabeth Cook,17303 Cedar,Morristown,NY,13664
9140,David Myers,3498 Sixth,Cimarron,CO,81220
9145,Karen Martin,19500 Pine,Iona,ID,83427
9150,John Robinson,11259 Elm,Topeka,IL,61567
9155,James Carter,231 Seventh,Corpus Christi,TX,78417
9160,Michael Perez,3116 First,Cuba,NM,87013
9165,Linda Patel,3879 Main,Lindsey,OH,43442
9170,Robert Reyes,14982 Cedar,Bloomfield,IN,47424
9175,Mary Torres,8619 Cedar,Buzzards Bay,MA,02542
9180,Mary Gray,1009 Evergreen,West Winfield,NY,13491
9185,Barbara Harris,4339 Third,Kelford,NC,27847
9190,Linda Stewart,7701 Pine,Cleo Springs,OK,73729
9195,Susan Johnson,10931 Sixth,Rockport,TX,78381
9200,Patricia Miller,14986 Ninth,Curdsville,KY,42334
9205,James Carter,7827 Main,Capon Bridge,WV,26711
9210,Sarah Scott,6094 Fifth,Cloudcroft,NM,88317
9215,William Harris,9148 Park,Centerville,IA,52544
9220,Sarah Morris,17060 View,Wilder,TN,38589
9225,Sarah Nguyen,8908 Evergreen,Lees Summit,MO,64064
9230,Jessica White,7103 Sixth,Tecate,CA,91980
9235,Jessica Campbell,3571 Fourth,Green Forest,AR,72638
9240,Mary Young,11526 Main,Phoenix,AZ,85040
9245,Thomas Green,7563 Elm,Edwards,CA,93523
9250,David Mendoza,11390 Fourth,West Eaton,NY,13484
9255,Michael Ward,15161 Lake,Augusta,GA,30914
9260,Michael Harris,11950 Fourth,Scotts,NC,28699
9265,Sarah Lee,14700 Eighth,Saint Clair,PA,17970
9270,William Mendoza,11974 Fifth,Vernal,UT,84079
9275,Michael Miller,5826 Park,Harrisburg,PA,17126
9280,David Robinson,15786 Evergreen,New York,NY,10260
9285,Sarah Phillips,19155 Seventh,Cumby,TX,75433
9290,Michael Lee,12939 Cedar,Westford,NY,13488
9295,Elizabeth Parker,14131 Elm,Thompson,OH,44086
9300,Linda Edwards,3016 Washington,New Vienna,OH,45159
9305,Richard Long,18394 Third,Perry,OH,44081
9310,Richard Jones,8724 Third,DPO,NY,09875
9315,John Ward,6828 Evergreen,Lakefield,MN,56150
9320,Jennifer Roberts,11718 Seventh,Maricopa,AZ,85139
9325,James Cox,9150 Park,Norfolk,VA,23517
9330,Michael Hernandez,1629 Second,Emerson,IA,51533
9335,Barbara Wilson,16894 Maple,Savonburg,KS,66772
9340,Susan Ramos,8444 Third,Cherokee,TX,76832
9345,Thomas Robinson,11022 Cedar,Edmond,OK,73012
9350,Joseph Diaz,9878 Evergreen,Makoti,ND,58756
9355,Robert Thompson,19034 View,Salt Lake City,UT,84121
9360,Susan Gray,18965 Park,Greenford,OH,44422
9365,Robert Mitchell,1230 Oak,Toluca Lake,CA,91610
9370,Richard Carter,4292 Hill,Conroe,TX,77385
9375,David Patel,18198 Third,Brooksville,ME,04617
9380,Jennifer Roberts,18347 Cedar,Dunstable,MA,01827
9385,Mary Parker,443 First,Quenemo,KS,66528
9390,Jessica Nguyen,13052 Washington,Dowell,IL,62927
9395,Karen Hughes,13086 Hill,Unionville,NY,10988
9400,Mary Bennet,3945 Washington,Fraser,MI,48026
9405,Barbara Johnson,3281 Fifth,Franklin Springs,NY,13341
9410,Patricia Adams,8239 Fifth,Hurlburt Field,FL,32544
9415,Joseph Miller,15253 Washington,Rising City,NE,68658
9420,Sarah Howard,3576 Washington,Harrisburg,NC,28075
9425,Thomas Sanchez,12259 Seventh,Austin,TX,78717
9430,Barbara Anderson,3781 Eighth,Frisco,TX,75036
9435,Barbara Foster,10035 Washington,Dallas,TX,75372
9440,James Rogers,2744 Evergreen,Louisville,KY,40283
9445,Linda Collins,11746 Cedar,Aptos,CA,95001
9450,Barbara Peterson,8843 Evergreen,West Tisbury,MA,02575
9455,Joseph Roberts,18623 Cedar,East Machias,ME,04630
9460,Mary Hill,5377 Evergreen,Offutt Air Force Base,NE,68113
9465,Karen Young,18300 Ninth,Hartland,WI,53029
9470,Jessica Allen,16349 Park,Wiggins,CO,80654
9475,Susan Scott,17013 Ninth,Duluth,MN,55807
9480,Robert Martinez,9791 View,Freedom,NH,03836
9485,Susan Roberts,5789 Hill,Ingalls,KS,67853
9490,Michael Parker,14176 Pine,Altonah,UT,84002
9495,Joseph Thompson,18744 Pine,Eagle Lake,FL,33839
9500,Jennifer Allen,15934 Cedar,Valley Springs,CA,95252
9505,Jessica Bailey,19500 Pine,Hickory Corners,MI,49060
9510,Thomas Lopez,640 Evergreen,Miami,FL,33175
9515,Richard Murphy,9207 Seventh,Dresden,ME,04342
9520,Patricia Jackson,17938 Eighth,Friesland,WI,53935
9525,Patricia Jackson,18356 Oak,Grace,MS,38745
9530,Jennifer Edwards,13635 View,Tucson,AZ,85702
9535,William Morris,9132 First,Wilkesboro,NC,28697
9540,Joseph Harris,12105 Pine,Chicago,IL,60668
9545,Karen Smith,3987 Pine,Bailey,NC,27807
9550,Karen Adams,19819 Evergreen,Troy Grove,IL,61372
9555,Linda Stewart,4222 First,Camp Hill,PA,17011
9560,Barbara Nelson,8099 Eighth,Beaverdam,VA,23015
9565,David Sanders,3112 Maple,Waterville,KS,66548
9570,David Ross,17086 First,Prospect,OH,43342
9575,David Green,12535 Washington,Balaton,MN,56115
9580,Robert Morris,2562 Seventh,Upton,KY,42784
9585,Thomas Smith,8987 First,Clarkston,MI,48347
9590,Robert Murphy,13660 Second,Millerton,IA,50165
9595,Thomas Robinson,15498 Fourth,La Mirada,CA,90638
9600,David Martinez,2192 Evergreen,Belgrade Lakes,ME,04918
9605,Michael Clark,11065 Eighth,Birmingham,AL,35217
9610,Mary Howard,380 Elm,East Montpelier,VT,05651
9615,Sarah Martin,8197 Evergreen,Lincoln,NE,68521
9620,Richard King,2596 Cedar,Watkins,CO,80137
9625,Jessica Mitchell,17707 Sixth,Cedarhurst,NY,11516
9630,Thomas Brooks,4692 Main,Philadelphia,PA,19092
9635,Jessica Reed,14076 Park,Atlantic Mine,MI,49905
9640,Charles Hill,9589 Hill,Gibsonville,NC,27249
9645,Elizabeth Long,14909 Second,Celoron,NY,14720
9650,Karen Lee,18975 First,Norwalk,CT,06856
9655,David Parker,721 Eighth,Honesdale,PA,18431
9660,John Ross,4813 Washington,Landis,NC,28088
9665,Jennifer Parker,7397 Second,Barberton,OH,44203
9670,Michael Moore,11907 Oak,Arcadia,FL,34266
9675,Barbara Bennet,1130 Third,Mobile,AL,36644
9680,James Bennet,19630 Fifth,Perham,ME,04766
9685,James Cruz,18495 Sixth,Columbus,OH,43211
9690,Linda Flores,17765 Cedar,Swepsonville,NC,27359
9695,James Robinson,18799 Sixth,Downey,CA,90239
9700,Michael Nguyen,6925 Seventh,Sterling Heights,MI,48310
9705,Linda Kim,12515 Elm,Bruceton Mills,WV,26525
9710,John Cox,9006 Pine,Buzzards Bay,MA,02542
9715,Susan Roberts,9067 Hill,Strandburg,SD,57265
9720,Michael Price,8514 Washington,Grassy Creek,NC,28631
9725,Thomas Martin,11813 Park,Candor,NC,27229
9730,Susan Allen,7722 Main,Craryville,NY,12521
9735,Charles Robinson,5258 Cedar,Sontag,MS,39665
9740,Jennifer Gray,14530 Fifth,Salt Lake City,UT,84126
9745,John Clark,13040 Sixth,Westport,CT,06881
9750,Linda Long,4081 Park,Rancho Palos Verdes,CA,90275
9755,Jessica Ramirez,16514 Elm,Meridian,MS,39301
9760,Karen Collins,16958 Eighth,Boaz,KY,42027
9765,James White,15650 Lake,Republic,KS,66964
9770,Joseph Hill,11682 Cedar,Corpus Christi,TX,78465
9775,David Brown,2278 Sixth,Hartwick,NY,13348
9780,Patricia Murphy,6846 First,North Uxbridge,MA,01538
9785,Michael King,5432 Main,Detroit,MI,48219
9790,Richard Nguyen,4534 Third,Maidsville,WV,26541
9795,Sarah Morgan,12984 Evergreen,Boston,MA,02284
9800,Sarah Flores,18460 Hill,Cat Spring,TX,78933
9805,James Flores,8544 Hill,Thurman,OH,45685
9810,William Patel,7958 Fifth,Simms,TX,75574
9815,Jennifer Gomez,6830 Maple,Ocean Grove,NJ,07756
9820,Mary Bailey,19331 Seventh,Tallahassee,FL,32316
9825,Richard Garcia,7221 Pine,Margate City,NJ,08402
9830,James Green,7390 Eighth,Flatwoods,KY,41139
9835,Karen Mitchell,1465 Elm,Dalton,MO,65246
9840,James Roberts,875 View,Los Angeles,CA,90011
9845,Robert Clark,4775 Oak,Orange,CA,92864
9850,Thomas Rodriguez,13965 Evergreen,North Platte,NE,69101
9855,Thomas Kelly,18670 Cedar,Wells Bridge,NY,13859
9860,Karen Kim,11436 Main,Crozet,VA,22932
9865,Jessica Turner,6611 Lake,Tie Siding,WY,82084
9870,Michael Mendoza,18216 Seventh,Cedarhurst,NY,11516
9875,David Hall,14721 View,Kansas City,KS,66119
9880,Robert Thompson,4411 Third,Grand Rivers,KY,42045
9885,Sarah Walker,10656 Cedar,Florala,AL,36442
9890,Charles Davis,1620 Ninth,Kershaw,SC,29067
9895,James Mendoza,7764 Main,Wellsville,OH,43968
9900,Jennifer Patel,19219 Lake,Garysburg,NC,27831
9905,Joseph Adams,17712 Elm,Austin,TX,78723
9910,John Robinson,973 Main,Trenton,NE,69044
9915,Jennifer Jones,9127 Seventh,Washington,DC,20238
9920,Mary Castillo,6388 Eighth,Thornfield,MO,65762
9925,John Davis,8413 Third,Pawnee,OK,74058
9930,Sarah Castillo,8400 Third,Irving,TX,75060
9935,Charles Phillips,9982 Oak,Troy,MI,48007
9940,Elizabeth Long,18090 View,Memphis,TN,38135
9945,Jennifer Campbell,10022 First,Scottsdale,AZ,85262
9950,Mary Jimenez,3172 Main,Datil,NM,87821
9955,Sarah White,9462 Eighth,Woodworth,LA,71485
9960,Mary Gutierrez,1773 Sixth,Taylor,MS,38673
9965,Thomas Williams,3194 Ninth,Bloomfield,NE,68718
9970,Robert Scott,18968 Washington,Hydeville,VT,05750
9975,Patricia Hill,1696 First,Millerton,IA,50165
9980,Thomas Murphy,18470 Pine,Huntington,WV,25712
9985,Karen Cox,15196 Second,Fort Wayne,IN,46815
9990,Mary Foster,15795 Park,APO,FL,34051
9995,Linda Richardson,15283 Ninth,Hudson,OH,44237
10000,Joseph Mendoza,13947 Main,Huddy,KY,41535
9996B,Linda A. Watson,19522 Fourth St,Shasta Lake,CA,96089
9991B,David C. Cook III,11501 Elm Street,Hebron,CT,6248
